0256720407004622022010106247+39928-074292FM-15+0025KMJX V0201705N00265000615MN0032195N5+01005+01005999999ADDAA101000021AU110020015AU200001015AW1105AW2615GA1085+000615999GD14991+0006159GE19AGL   +99999+99999GF199999999999000611999999MA1101295100995MW1615REMMET09901/01/22 01:24:02 METAR KMJX 010624Z 17005KT 2SM -RA BR OVC002 10/10 A2991 RMK AO2 RAB17 P0000 TSNO
0280720407004622022010200567+39928-074292FM-15+0025KMJX V0200705N00155000615MN0016095N5+01285+01225100485ADDAA101000021AU110020015AU200001015AW1105AW2615GA1085+000615999GD14991+0006159GE19AGL   +99999+99999GF199999999999000611999999MA1100445100145MW1615REMMET12301/01/22 19:56:01 METAR KMJX 020056Z 07003KT 1SM -RA BR OVC002 13/12 A2966 RMK AO2 RAB44 PRESFR SLP048 P0000 T01280122 TSNO
0250720407004622022010204107+39928-074292FM-15+0025KMJX V0209999V00215000615MN0032195N5+01205+01205999999ADDAA101000395AU110020015AU200001015AW1105AW2615GA1085+000615999GD14991+0006159GE19AGL   +99999+99999GF199999999999000611999999MA1100175099875MW1615REMMET09301/01/22 23:10:02 METAR KMJX 020410Z VRB04KT 2SM -RA BR OVC002 12/12 A2958 RMK AO2 P0001 TSNO
0313720407004622022010204567+39928-074292FM-15+0025KMJX V0200805N00155002745MN0160935N5+01285+01285100095ADDAA101000395GA1045+001225999GA2085+002745999GD12991+0012251GD24991+0027459GE19AGL   +99999+99999GF199999999999001221999999KA1240M+01391KA2240N+01001MA1100075099775REMMET13901/01/22 23:56:02 METAR KMJX 020456Z 08003KT 10SM SCT004 OVC009 13/13 A2955 RMK AO2 RAE21 CIG 007V013 SLP009 P0001 T01280128 401390100 TSNO
002772040700462202201020459O+39928-074292SOD  +0025KMJX V020999999999999999999999999999+99999+99999999999ADDAT1AU16RA  5AT2AU13BR  5
0260720407004622022010207487+39928-074292FM-15+0025KMJX V0209999C00005000915MN0028165N5+01205+01205999999ADDAA101000021AU110020015AU200001015AW1105AW2615GA1085+000915999GD14991+0009159GE19AGL   +99999+99999GF199999999999000911999999MA1100105099805MW1615REMMET10301/02/22 02:48:02 METAR KMJX 020748Z 00000KT 1 3/4SM -RA BR OVC003 12/12 A2956 RMK AO2 RAB30 P0000 TSNO
0273720407004622022010207567+39928-074292FM-15+0025KMJX V0209999C00005000915MN0016095N5+01175+01175100135ADDAA101000021AU110020015AU200001015AW1105AW2615GA1085+000915999GD14991+0009159GE19AGL   +99999+99999GF199999999999000911999999MA1100105099805MW1615REMMET11601/02/22 02:56:02 METAR KMJX 020756Z 00000KT 1SM -RA BR OVC003 12/12 A2956 RMK AO2 RAB30 SLP013 P0000 T01170117 TSNO
0222720407004622022010212567+39928-074292FM-15+0025KMJX V0202305N00315001525MN0160935N5+01285+01285100285ADDAA101000021GA1085+001525999GD14991+0015259GE19AGL   +99999+99999GF199999999999001521999999MA1100275099975REMMET10501/02/22 07:56:02 METAR KMJX 021256Z 23006KT 10SM OVC005 13/13 A2961 RMK AO2 RAE07 SLP028 P0000 T01280128
002772040700462202201030459O+39928-074292SOD  +0025KMJX V020999999999999999999999999999+99999+99999999999ADDAT1AU16RA  5AT2AU13BR  5
0258720407004622022010317527+39928-074292FM-15+0025KMJX V0200205N00515003965MN0020125N5-00305-00405999999ADDAA101000395AU110030015AU200001015AW1105AW2715GA1085+003965999GD14991+0039659GE19AGL   +99999+99999GF199999999999003961999999MA1101495101195MW1715REMMET10101/03/22 12:52:02 METAR KMJX 031752Z 02010KT 1 1/4SM -SN BR OVC013 M03/M04 A2997 RMK AO2 P0001 FZRANO
0346720407004622022010318457+39928-074292FM-15+0025KMJX V0203505N00465006105MN0032195N5-00305-00505999999ADDAA101000395AU110030015AU200001015AW1105AW2715GA1025+003055999GA2075+006105999GA3085+007925999GD11991+0030559GD23991+0061059GD34991+0079259GE19AGL   +99999+99999GF199999999999003051999999MA1101495101195MW1715OC100985REMMET11901/03/22 13:45:02 METAR KMJX 031845Z 35009G19KT 2SM -SN BR FEW010 BKN020 OVC026 M03/M05 A2997 RMK AO2 P0001 FZRANO TSNO
0367720407004622022010319257+39928-074292FM-15+0025KMJX V0200105N00775002745MN0012075N5-00305-00605999999ADDAA101000395AU110030015AU200001015AW1105AW2715GA1075+002745999GA2075+003965999GA3085+007625999GD13991+0027451GD23991+0039659GD34991+0076259GE19AGL   +99999+99999GF199999999999002741999999MA1101465101165MW1715OC101035REMMET14001/03/22 14:25:02 METAR KMJX 031925Z 01015G20KT 3/4SM -SN BR BKN009 BKN013 OVC025 M03/M06 A2996 RMK AO2 CIG 008V012 PRESFR P0001 FZRANO TSNO
002772040700462202201040459O+39928-074292SOD  +0025KMJX V020999999999999999999999999999+99999+99999999999ADDAT1AU18SN  5AT2AU13BR  5
0256720407004622022010516147+39928-074292FM-15+0025KMJX V0201905N00315000915MN0040235N5+00305+00305999999ADDAA101000021AU110020015AU200001015AW1105AW2615GA1085+000915999GD14991+0009159GE19AGL   +99999+99999GF199999999999000911999999MA1101425101125MW1615REMMET09901/05/22 11:14:02 METAR KMJX 051614Z 19006KT 2 1/2SM -RA BR OVC003 03/03 A2995 RMK AO2 PRESFR P0000
0178720407004622022010600567+39928-074292FM-15+0025KMJX V0202105N002152200059N0128755N5+00445+00395100845ADDGA1005+999999999GD10991+9999999GF100991999999999999999999MA1100815100515REMMET09401/05/22 19:56:01 METAR KMJX 060056Z 21004KT 8SM CLR 04/04 A2977 RMK AO2 SLP084 T00440039 TSNO
0215720407004622022010604567+39928-074292FM-15+0025KMJX V0202505N002652200059N0160935N5+00395+00335100715ADDGA1005+999999999GD10991+9999999GF100991999999999999999999KA1240M+00781KA2240N-00941MA1100685100385REMMET10501/05/22 23:56:02 METAR KMJX 060456Z 25005KT 10SM CLR 04/03 A2973 RMK AO2 SLP071 T00390033 400781094 TSNO
002772040700462202201060459O+39928-074292SOD  +0025KMJX V020999999999999999999999999999+99999+99999999999ADDAT1AU16RA  5AT2AU13BR  5
0157720407004622022010620564+39933-074300FM-15+002599999V0202801N004112200019N016093199+00331-00831101441ADDGF100991999999999999999999MA1101391999999MD1310021+9999REMMET090METAR KMJX 062056Z AUTO 28008KT 10SM CLR 03/M08 A2994 RMK AO2 SLP144 T00331083 53002 TSNO=
0327720407004622022010706547+39928-074292FM-15+0025KMJX V0200205N00465003965MN0040235V5-00105-00305999999ADDAA101000021AU110030015AU200001015AW1105AW2715GA1075+003965999GA2085+005495999GD13991+0039659GD24991+0054959GE19AGL   +99999+99999GF199999999999003961999999MA1100885100585MW1715REMMET13901/07/22 01:54:02 METAR KMJX 070654Z 02009KT 2 1/2SM -SN BR BKN013 OVC018 M01/M03 A2979 RMK AO2 VIS 1 3/4V5 RAB28E32SNB32 P0000 FZRANO TSNO
0309720407004622022010707357+39928-074292FM-15+0025KMJX V0200305N00465001835MN0016095N5-00105-00105999999ADDAA101000021AU110030015AU200001015AW1105AW2715GA1075+001835999GA2085+003055999GD13991+0018351GD24991+0030559GE19AGL   +99999+99999GF199999999999001831999999MA1100815100515MW1715REMMET12101/07/22 02:35:02 METAR KMJX 070735Z 03009KT 1SM -SN BR BKN006 OVC010 M01/M01 A2977 RMK AO2 CIG 003V008 P0000 FZRANO TSNO
0273720407004622022010709567+39928-074292FM-15+0025KMJX V0203205N00515001225MN0012075N5-00115-00175100725ADDAA101000021AU110030015AU200001015AW1105AW2715GA1085+001225999GD14991+0012259GE19AGL   +99999+99999GF199999999999001221999999MA1100685100385MW1715REMMET11601/07/22 04:56:02 METAR KMJX 070956Z 32010KT 3/4SM -SN BR OVC004 M01/M02 A2973 RMK AO2 SLP072 P0000 T10111017 FZRANO
0350720407004622022010712107+39928-074292FM-15+0025KMJX V0203105N00625002445MN0040235N5-00205-00305999999ADDAA101000021AU107000025AU210030035AU300001015AW1105AW2715AW3905AW4921GA1075+002445999GA2085+004275999GD13991+0024451GD24991+0042759GE19AGL   +99999+99999GF199999999999002441999999MA1100885100585MW1715OC100885REMMET13101/07/22 07:10:02 METAR KMJX 071210Z 31012G17KT 2 1/2SM -TSSN BR BKN008 OVC014 M02/M03 A2979 RMK AO2 TSB10 CIG 006V011 P0000 FZRANO
0275720407004622022010714567+39928-074292FM-15+0025KMJX V0203005N00575004275MN0160935N5-00175-00335101195ADDAA103000021GA1085+004275999GD14991+0042759GE19AGL   +99999+99999GF199999999999004271999999MA1101155100855MD1390289+9999OC100985REMMET11701/07/22 09:56:02 METAR KMJX 071456Z 30011G19KT 10SM OVC014 M02/M03 A2987 RMK AO2 SLP119 60000 T10171033 53028 FZRANOEQDQ01  00008PRCP03
0202720407004622022010715227+39928-074292FM-15+0025KMJX V0203005N00675004885MN0160935N5-00105-00305999999ADDGA1085+004885999GD14991+0048859GE19AGL   +99999+99999GF199999999999004881999999MA1101225100925OC101135REMMET08801/07/22 10:22:02 METAR KMJX 071522Z 30013G22KT 10SM OVC016 M01/M03 A2989 RMK AO2 FZRANO
0219720407004622022010715567+39928-074292FM-15+0025KMJX V0202905N00775005495MN0160935N5-00065-00335101255ADDGA1075+005495999GD13991+0054959GE19AGL   +99999+99999GF199999999999005491999999MA1101225100925OC101185REMMET10501/07/22 10:56:02 METAR KMJX 071556Z 29015G23KT 10SM BKN018 M01/M03 A2989 RMK AO2 SLP125 T10061033 FZRANO
0201720407004622022010716427+39928-074292FM-15+0025KMJX V0202905N00885007625MN0160935N5+00005-00405999999ADDGA1075+007625999GD13991+0076259GE19AGL   +99999+99999GF199999999999007621999999MA1101155100855OC101245REMMET08701/07/22 11:42:02 METAR KMJX 071642Z 29017G24KT 10SM BKN025 00/M04 A2987 RMK AO2 FZRANO
0199720407004622022010803567+39928-074292FM-15+0025KMJX V0202905N007752200059N0160935N5-00565-01175102475ADDGA1005+999999999GD10991+9999999GF100991999999999999999999MA1102445102145OC101035REMMET10701/07/22 22:56:02 METAR KMJX 080356Z 29015G20KT 10SM CLR M06/M12 A3025 RMK AO2 SLP247 T10561117 FZRANO TSNO
003972040700462202201080459O+39928-074292SOD  +0025KMJX V020999999999999999999999999999+99999+99999999999ADDAT1AU03TS  5AT2AU18SN  5AT3AU13BR  5
0214720407004622022010814567+39928-074292FM-15+0025KMJX V0203205N006752200059N0160935N5-00505-01285103735ADDGA1005+999999999GD10991+9999999GF100991999999999999999999MA1103695103395MD1190399+9999OC100885REMMET10801/08/22 09:56:02 METAR KMJX 081456Z 32013G17KT 10SM CLR M05/M13 A3062 RMK AO2 SLP373 T10501128 51039 FZRANO
0183720407004622022010816567+39928-074292FM-15+0025KMJX V0200105N003152200059N0160935N5-00335-01335103705ADDGA1005+999999999GD10991+9999999GF100991999999999999999999MA1103665103355REMMET09901/08/22 11:56:02 METAR KMJX 081656Z 01006KT 10SM CLR M03/M13 A3061 RMK AO2 SLP370 T10331133 FZRANO
0188720407004622022010822567+39928-074292FM-15+0025KMJX V0209999C000052200059N0160935N5-00675-01175103735ADDGA1005+999999999GD10991+9999999GF100991999999999999999999MA1103695103395REMMET10401/08/22 17:56:02 METAR KMJX 082256Z 00000KT 10SM CLR M07/M12 A3062 RMK AO2 SLP373 T10671117 FZRANO TSNO
0188720407004622022010901567+39928-074292FM-15+0025KMJX V0209999C000052200059N0160935N5-01065-01335103755ADDGA1005+999999999GD10991+9999999GF100991999999999999999999MA1103695103395REMMET10401/08/22 20:56:01 METAR KMJX 090156Z 00000KT 10SM CLR M11/M13 A3062 RMK AO2 SLP375 T11061133 FZRANO TSNO
0203720407004622022010902567+39928-074292FM-15+0025KMJX V0209999C000052200059N0160935N5-01115-01445103625ADDGA1005+999999999GD10991+9999999GF100991999999999999999999MA1103565103255MD1890179+9999REMMET10501/08/22 21:56:01 METAR KMJX 090256Z 00000KT 10SM CLR M11/M14 A3058 RMK AO2 SLP362 T11111144 58017 FZRANO
0269720407004622022010913567+39928-074292FM-15+0025KMJX V0202005N00575033535MN0160935N5+00226-00335102685ADDGA1025+009455999GA2085+033535999GD11991+0094559GD24991+0335359GE19AGL   +99999+99999GF199999999999009451999999MA1102645102345REMMET11301/09/22 08:56:02 METAR KMJX 091356Z 20011KT 10SM FEW031 OVC110 02/M03 A3031 RMK AO2 SLP268 T00221033 FZRANO TSNOEQDR01  00227TMP028
0248720407004622022010916567+39928-074292FM-15+0025KMJX V0202105N00625006715MN0160935N5+00505+00065102295ADDAA101000021GA1085+006715999GD14991+0067159GE19AGL   +99999+99999GF199999999999006711999999MA1102245101935OC101245REMMET12301/09/22 11:56:02 METAR KMJX 091656Z 21012G24KT 10SM OVC022 05/01 A3019 RMK AO2 RAB12E33 PRESFR SLP229 P0000 T00500006 TSNO
0227720407004622022011102567+39928-074292FM-15+0025KMJX V0202605N003152200059N0160935N5-00786-01175102345ADDGA1005+999999999GD10991+9999999GF100991999999999999999999MA1102305102005MD1390039+9999REMMET11001/10/22 21:56:01 METAR KMJX 110256Z 26006KT 10SM CLR M08/M12 A3021 RMK AO2 SLP234 T10781117 53003 FZRANO TSNOEQDR01  -0787TMP028
0199720407004622022011112567+39928-074292FM-15+0025KMJX V0203105N005752200059N0160935N5-00835-01725103315ADDGA1005+999999999GD10991+9999999GF100991999999999999999999MA1103255102955OC100885REMMET10701/11/22 07:56:02 METAR KMJX 111256Z 31011G17KT 10SM CLR M08/M17 A3049 RMK AO2 SLP331 T10831172 FZRANO TSNO
0183720407004622022011201567+39928-074292FM-15+0025KMJX V0209999C000052200059N0160935N5-01285-01565103515ADDGA1005+999999999GD10991+9999999GF100991999999999999999999MA1103455103155REMMET09901/11/22 20:56:01 METAR KMJX 120156Z 00000KT 10SM CLR M13/M16 A3055 RMK AO2 SLP351 T11281156 FZRANO
0208720407004622022011202567+39928-074292FM-15+0025KMJX V0209999C000052200059N0160935N5-01285-01565103475ADDGA1005+999999999GD10991+9999999GF100991999999999999999999MA1103425103125MD1890069+9999REMMET11001/11/22 21:56:01 METAR KMJX 120256Z 00000KT 10SM CLR M13/M16 A3054 RMK AO2 SLP347 T11281156 58006 FZRANO TSNO
0265720407004622022011323567+39928-074292FM-15+0025KMJX V0209999C000052200059N0160935N5-00176-00335101295ADDGA1005+999999999GD10991+9999999GF100991999999999999999999KA1060M+00781KA2060N-00171MA1101255100955MD1690059+9999REMMET12201/13/22 18:56:02 METAR KMJX 132356Z 00000KT 10SM CLR M02/M03 A2990 RMK AO2 SLP129 T10171033 10078 21017 56005 FZRANO TSNOEQDR01  -0177TMP028
0257720407004622022011505567+39928-074292FM-15+0025KMJX V0203405N005752200059N0160935N5-00565-01335101595ADDGA1005+999999999GD10991+9999999GF100991999999999999999999KA1060M+00221KA2060N-00561MA1101565101265MD1390219+9999OC101085REMMET12501/15/22 00:56:02 METAR KMJX 150556Z 34011G21KT 10SM CLR M06/M13 A2999 RMK AO2 SLP159 T10561133 10022 21056 53021 FZRANO TSNO
0199720407004622022011512567+39928-074292FM-15+0025KMJX V0203505N005152200059N0160935N5-01065-01945102405ADDGA1005+999999999GD10991+9999999GF100991999999999999999999MA1102375102075OC100885REMMET10701/15/22 07:56:02 METAR KMJX 151256Z 35010G17KT 10SM CLR M11/M19 A3023 RMK AO2 SLP240 T11061194 FZRANO TSNO
0224720407004622022011604567+39928-074292FM-15+0025KMJX V0203305N002652200059N0160935N5-01115-01895103085ADDGA1005+999999999GD10991+9999999GF100991999999999999999999KA1240M-00441KA2240N-01111MA1103015102715REMMET11401/15/22 23:56:02 METAR KMJX 160456Z 33005KT 10SM CLR M11/M19 A3042 RMK AO2 SLP308 T11111189 410441111 FZRANO TSNO
0277720407004622022011701567+39928-074292FM-15+0025KMJX V0200805N00575003665MN0112655N5+00616+00505101045ADDAA101002595AU110020015AW1615GA1085+003665999GD14991+0036659GE19AGL   +99999+99999GF199999999999003661999999MA1100985100685MW1615OC100985REMMET11001/16/22 20:56:01 METAR KMJX 170156Z 08011G19KT 7SM -RA OVC012 06/05 A2982 RMK AO2 SLP104 P0010 T00610050 TSNOEQDR01  00617TMP028
001572040700462202201170459O+39928-074292SOD  +0025KMJX V020999999999999999999999999999+99999+99999999999ADDAT1AU16RA  5
0199720407004622022011718167+39928-074292FM-15+0025KMJX V0202505N01035009455MN0160935N5+00305-00205999999ADDGA1085+009455999GD14991+0094559GE19AGL   +99999+99999GF199999999999009451999999MA1098785098495OC101185REMMET08501/17/22 13:16:02 METAR KMJX 171816Z 25020G23KT 10SM OVC031 03/M02 A2917 RMK AO2 TSNO
0246720407004622022011823567+39928-074292FM-15+0025KMJX V0202105N002652200059N0160935N5-00335-00725102115ADDGA1005+999999999GD10991+9999999GF100991999999999999999999KA1060M+00501KA2060N-00391MA1102075101765MD1190379+9999REMMET12201/18/22 18:56:02 METAR KMJX 182356Z 21005KT 10SM CLR M03/M07 A3014 RMK AO2 SLP211 T10331072 10050 21039 51037 FZRANO TSNO
0224720407004622022011904567+39928-074292FM-15+0025KMJX V0209999C000052200059N0160935N5-00675-00785102325ADDGA1005+999999999GD10991+9999999GF100991999999999999999999KA1240M+00501KA2240N-00671MA1102275101975REMMET11401/18/22 23:56:01 METAR KMJX 190456Z 00000KT 10SM CLR M07/M08 A3020 RMK AO2 SLP232 T10671078 400501067 FZRANO TSNO
0199720407004622022011922567+39928-074292FM-15+0025KMJX V0201905N002652200059N0160935N5+00676-00285101645ADDGA1005+999999999GD10991+9999999GF100991999999999999999999MA1101595101295REMMET09601/19/22 17:56:02 METAR KMJX 192256Z 19005KT 10SM CLR 07/M03 A3000 RMK AO2 SLP164 T00671028 TSNOEQDR01  00677TMP028
0175720407004622022012003567+39928-074292FM-15+0025KMJX V0202205N003152200059N0160935N5+00505-00225101685ADDGA1005+999999999GD10991+9999999GF100991999999999999999999MA1101635101325REMMET09101/19/22 22:56:02 METAR KMJX 200356Z 22006KT 10SM CLR 05/M02 A3001 RMK AO2 SLP168 T00501022
0294720407004622022012008567+39928-074292FM-15+0025KMJX V0202705N00265014025MN0160935N5+00615+00065101655ADDAA101000021AA203000021GA1085+014025999GD14991+0140259GE19AGL   +99999+99999GF199999999999014021999999MA1101635101325MD1390059+9999REMMET11701/20/22 03:56:02 METAR KMJX 200856Z 27005KT 10SM OVC046 06/01 A3001 RMK AO2 RAE24 SLP165 P0000 60000 T00610006 53005EQDQ01  00002PRCP03Q02  00008PRCP03
0254720407004622022012010567+39928-074292FM-15+0025KMJX V0209999C00005011585MN0160935N5+00445+00225101775ADDAA101000021AU110020015AW1615GA1085+011585999GD14991+0115859GE19AGL   +99999+99999GF199999999999011581999999MA1101735101435MW1615REMMET11401/20/22 05:56:02 METAR KMJX 201056Z 00000KT 10SM -RA OVC038 04/02 A3004 RMK AO2 RAB36 SLP177 P0000 T00440022 TSNO
0276720407004622022012019567+39928-074292FM-15+0025KMJX V0203305N00365006105MN0160935N5+00005-00175102235ADDAA101000021GA1025+003665999GA2085+006105999GD11991+0036659GD24991+0061059GE19AGL   +99999+99999GF199999999999003661999999MA1102205101905REMMET12801/20/22 14:56:02 METAR KMJX 201956Z 33007KT 10SM FEW012 OVC020 00/M02 A3018 RMK AO2 RAB09E20 SLP223 P0000 T00001017 FZRANO TSNO
001572040700462202201210459O+39928-074292SOD  +0025KMJX V020999999999999999999999999999+99999+99999999999ADDAT1AU16RA  5
0183720407004622022012201567+39928-074292FM-15+0025KMJX V0203605N004152200059N0160935N5-00615-01445103435ADDGA1005+999999999GD10991+9999999GF100991999999999999999999MA1103395103085REMMET09901/21/22 20:56:01 METAR KMJX 220156Z 36008KT 10SM CLR M06/M14 A3053 RMK AO2 SLP343 T10611144 FZRANO
0203720407004622022012202567+39928-074292FM-15+0025KMJX V0200105N004652200059N0160935N5-00615-01395103385ADDGA1005+999999999GD10991+9999999GF100991999999999999999999MA1103325103015MD1890079+9999REMMET10501/21/22 21:56:01 METAR KMJX 220256Z 01009KT 10SM CLR M06/M14 A3051 RMK AO2 SLP338 T10611139 58007 FZRANO
0219720407004622022012204567+39928-074292FM-15+0025KMJX V0200105N005152200059N0160935N5-00565-01225103265ADDGA1005+999999999GD10991+9999999GF100991999999999999999999KA1240M-00441KA2240N-00891MA1103225102915REMMET10901/21/22 23:56:02 METAR KMJX 220456Z 01010KT 10SM CLR M06/M12 A3048 RMK AO2 SLP326 T10561122 410441089 FZRANO
0183720407004622022012206567+39928-074292FM-15+0025KMJX V0200105N004652200059N0160935N5-00615-01225103065ADDGA1005+999999999GD10991+9999999GF100991999999999999999999MA1103015102715REMMET09901/22/22 01:56:02 METAR KMJX 220656Z 01009KT 10SM CLR M06/M12 A3042 RMK AO2 SLP306 T10611122 FZRANO
0188720407004622022012207567+39928-074292FM-15+0025KMJX V0200105N006252200059N0160935N5-00615-01225103045ADDGA1005+999999999GD10991+9999999GF100991999999999999999999MA1103015102715REMMET10401/22/22 02:56:02 METAR KMJX 220756Z 01012KT 10SM CLR M06/M12 A3042 RMK AO2 SLP304 T10611122 FZRANO TSNO
0203720407004622022012208567+39928-074292FM-15+0025KMJX V0200105N005752200059N0160935N5-00675-01225102985ADDGA1005+999999999GD10991+9999999GF100991999999999999999999MA1102955102645MD1690199+9999REMMET10501/22/22 03:56:02 METAR KMJX 220856Z 01011KT 10SM CLR M07/M12 A3040 RMK AO2 SLP298 T10671122 56019 FZRANO
0183720407004622022012209567+39928-074292FM-15+0025KMJX V0200205N005152200059N0160935N5-00725-01285102975ADDGA1005+999999999GD10991+9999999GF100991999999999999999999MA1102915102615REMMET09901/22/22 04:56:02 METAR KMJX 220956Z 02010KT 10SM CLR M07/M13 A3039 RMK AO2 SLP297 T10721128 FZRANO
0241720407004622022012211567+39928-074292FM-15+0025KMJX V0203305N003152200059N0160935N5-01005-01395103105ADDGA1005+999999999GD10991+9999999GF100991999999999999999999KA1060M-00561KA2060N-01001MA1103055102745MD1390129+9999REMMET11701/22/22 06:56:02 METAR KMJX 221156Z 33006KT 10SM CLR M10/M14 A3043 RMK AO2 SLP310 T11001139 11056 21100 53012 FZRANO
0183720407004622022012212567+39928-074292FM-15+0025KMJX V0203405N002152200059N0160935N5-01115-01505103125ADDGA1005+999999999GD10991+9999999GF100991999999999999999999MA1103085102785REMMET09901/22/22 07:56:02 METAR KMJX 221256Z 34004KT 10SM CLR M11/M15 A3044 RMK AO2 SLP312 T11111150 FZRANO
0203720407004622022012214567+39928-074292FM-15+0025KMJX V0203405N004152200059N0160935N5-00565-01225103075ADDGA1005+999999999GD10991+9999999GF100991999999999999999999MA1103015102715MD1890039+9999REMMET10501/22/22 09:56:02 METAR KMJX 221456Z 34008KT 10SM CLR M06/M12 A3042 RMK AO2 SLP307 T10561122 58003 FZRANO
0183720407004622022012215567+39928-074292FM-15+0025KMJX V0203605N003652200059N0160935N5-00395-01005102995ADDGA1005+999999999GD10991+9999999GF100991999999999999999999MA1102955102645REMMET09901/22/22 10:56:02 METAR KMJX 221556Z 36007KT 10SM CLR M04/M10 A3040 RMK AO2 SLP299 T10391100 FZRANO
0183720407004622022012216567+39928-074292FM-15+0025KMJX V0200205N003652200059N0160935N5-00285-01005102875ADDGA1005+999999999GD10991+9999999GF100991999999999999999999MA1102815102515REMMET09901/22/22 11:56:02 METAR KMJX 221656Z 02007KT 10SM CLR M03/M10 A3036 RMK AO2 SLP287 T10281100 FZRANO
0241720407004622022012217567+39928-074292FM-15+0025KMJX V0209999C000052200059N0160935N5-00115-01065102695ADDGA1005+999999999GD10991+9999999GF100991999999999999999999KA1060M-00111KA2060N-01111MA1102645102345MD1890389+9999REMMET11701/22/22 12:56:02 METAR KMJX 221756Z 00000KT 10SM CLR M01/M11 A3031 RMK AO2 SLP269 T10111106 11011 21111 58038 FZRANO
0183720407004622022012218567+39928-074292FM-15+0025KMJX V0203005N002652200059N0160935N5-00065-01285102575ADDGA1005+999999999GD10991+9999999GF100991999999999999999999MA1102545102245REMMET09901/22/22 13:56:02 METAR KMJX 221856Z 30005KT 10SM CLR M01/M13 A3028 RMK AO2 SLP257 T10061128 FZRANO
0183720407004622022012219567+39928-074292FM-15+0025KMJX V0209999V001552200059N0160935N5-00065-01335102525ADDGA1005+999999999GD10991+9999999GF100991999999999999999999MA1102475102175REMMET09901/22/22 14:56:02 METAR KMJX 221956Z VRB03KT 10SM CLR M01/M13 A3026 RMK AO2 SLP252 T10061133 FZRANO
0183720407004622022012221567+39928-074292FM-15+0025KMJX V0203105N002152200059N0160935N5-00225-01505102395ADDGA1005+999999999GD10991+9999999GF100991999999999999999999MA1102345102035REMMET09901/22/22 16:56:02 METAR KMJX 222156Z 31004KT 10SM CLR M02/M15 A3022 RMK AO2 SLP239 T10221150 FZRANO
0183720407004622022012300567+39928-074292FM-15+0025KMJX V0209999C000052200059N0160935N5-00835-01175102325ADDGA1005+999999999GD10991+9999999GF100991999999999999999999MA1102275101975REMMET09901/22/22 19:56:01 METAR KMJX 230056Z 00000KT 10SM CLR M08/M12 A3020 RMK AO2 SLP232 T10831117 FZRANO
0183720407004622022012301567+39928-074292FM-15+0025KMJX V0209999C000052200059N0160935N5-01065-01285102275ADDGA1005+999999999GD10991+9999999GF100991999999999999999999MA1102205101905REMMET09901/22/22 20:56:01 METAR KMJX 230156Z 00000KT 10SM CLR M11/M13 A3018 RMK AO2 SLP227 T11061128 FZRANO
0203720407004622022012302567+39928-074292FM-15+0025KMJX V0209999C000052200059N0160935N5-00945-01175102195ADDGA1005+999999999GD10991+9999999GF100991999999999999999999MA1102135101835MD1890139+9999REMMET10501/22/22 21:56:01 METAR KMJX 230256Z 00000KT 10SM CLR M09/M12 A3016 RMK AO2 SLP219 T10941117 58013 FZRANO
0188720407004622022012303567+39928-074292FM-15+0025KMJX V0201805N001552200059N0160935N5-00725-00945102105ADDGA1005+999999999GD10991+9999999GF100991999999999999999999MA1102075101765REMMET10401/22/22 22:56:01 METAR KMJX 230356Z 18003KT 10SM CLR M07/M09 A3014 RMK AO2 SLP210 T10721094 FZRANO TSNO
0183720407004622022012306567+39928-074292FM-15+0025KMJX V0202305N002152200059N0160935N5-01175-01395101925ADDGA1005+999999999GD10991+9999999GF100991999999999999999999MA1101905101595REMMET09901/23/22 01:56:02 METAR KMJX 230656Z 23004KT 10SM CLR M12/M14 A3009 RMK AO2 SLP192 T11171139 FZRANO
0241720407004622022012311567+39928-074292FM-15+0025KMJX V0209999C000052200059N0160935N5-01065-01225101755ADDGA1005+999999999GD10991+9999999GF100991999999999999999999KA1060M-00781KA2060N-01221MA1101695101395MD1690079+9999REMMET11701/23/22 06:56:02 METAR KMJX 231156Z 00000KT 10SM CLR M11/M12 A3003 RMK AO2 SLP175 T11061122 11078 21122 56007 FZRANO
0183720407004622022012313567+39928-074292FM-15+0025KMJX V0202405N002652200059N0160935N5-00505-00835101645ADDGA1005+999999999GD10991+9999999GF100991999999999999999999MA1101595101295REMMET09901/23/22 08:56:02 METAR KMJX 231356Z 24005KT 10SM CLR M05/M08 A3000 RMK AO2 SLP164 T10501083 FZRANO
0203720407004622022012314567+39928-074292FM-15+0025KMJX V0202805N003152200059N0160935N5-00065-00945101565ADDGA1005+999999999GD10991+9999999GF100991999999999999999999MA1101525101225MD1890189+9999REMMET10501/23/22 09:56:02 METAR KMJX 231456Z 28006KT 10SM CLR M01/M09 A2998 RMK AO2 SLP156 T10061094 58018 FZRANO
0182720407004622022012315567+39928-074292FM-15+0025KMJX V0202805N004152200059N0160935N5+00115-01005101495ADDGA1005+999999999GD10991+9999999GF100991999999999999999999MA1101465101165REMMET09801/23/22 10:56:02 METAR KMJX 231556Z 28008KT 10SM CLR 01/M10 A2996 RMK AO2 SLP149 T00111100 FZRANO
0182720407004622022012316567+39928-074292FM-15+0025KMJX V0202805N005752200059N0160935N5+00225-01005101355ADDGA1005+999999999GD10991+9999999GF100991999999999999999999MA1101325101025REMMET09801/23/22 11:56:02 METAR KMJX 231656Z 28011KT 10SM CLR 02/M10 A2992 RMK AO2 SLP135 T00221100 FZRANO
0233720407004622022012317567+39928-074292FM-15+0025KMJX V0202405N003652200059N0160935N5+00335-01065101205ADDGA1005+999999999GD10991+9999999GF100991999999999999999999KA1060M+00331KA2060N-01111MA1101155100855MD1890369+9999REMMET10901/23/22 12:56:02 METAR KMJX 231756Z 24007KT 10SM CLR 03/M11 A2987 RMK AO2 SLP120 T00331106 10033 21111 58036
0175720407004622022012318567+39928-074292FM-15+0025KMJX V0202305N004152200059N0160935N5+00395-01065101125ADDGA1005+999999999GD10991+9999999GF100991999999999999999999MA1101085100785REMMET09101/23/22 13:56:02 METAR KMJX 231856Z 23008KT 10SM CLR 04/M11 A2985 RMK AO2 SLP112 T00391106
0175720407004622022012319567+39928-074292FM-15+0025KMJX V0202805N003152200059N0160935N5+00395-01115101005ADDGA1005+999999999GD10991+9999999GF100991999999999999999999MA1100955100655REMMET09101/23/22 14:56:02 METAR KMJX 231956Z 28006KT 10SM CLR 04/M11 A2981 RMK AO2 SLP100 T00391111
0266720407004622022012323567+39928-074292FM-15+0025KMJX V0209999C00005022865MN0160935N5-00115-00615101025ADDGA1075+022865999GD13991+0228659GE19AGL   +99999+99999GF199999999999022861999999KA1060M+00441KA2060N-00111MA1100985100685MD1390039+9999REMMET12001/23/22 18:56:02 METAR KMJX 232356Z 00000KT 10SM BKN075 M01/M06 A2982 RMK AO2 SLP102 T10111061 10044 21011 53003 FZRANO
0289720407004622022012400567+39928-074292FM-15+0025KMJX V0209999C00005014335MN0160935N5-00065-00565101035ADDGA1025+008535999GA2045+011895999GA3085+014335999GD11991+0085359GD22991+0118959GD34991+0143359GE19AGL   +99999+99999GF199999999999008531999999MA1100985100685REMMET12101/23/22 19:56:01 METAR KMJX 240056Z 00000KT 10SM FEW028 SCT039 OVC047 M01/M06 A2982 RMK AO2 SLP103 T10061056 FZRANO TSNO
0245720407004622022012401567+39928-074292FM-15+0025KMJX V0209999C00005018295MN0160935N5+00065-00675101035ADDGA1025+013725999GA2085+018295999GD11991+0137259GD24991+0182959GE19AGL   +99999+99999GF199999999999013721999999MA1100985100685REMMET10801/23/22 20:56:01 METAR KMJX 240156Z 00000KT 10SM FEW045 OVC060 01/M07 A2982 RMK AO2 SLP103 T00061067 FZRANO
0266720407004622022012402567+39928-074292FM-15+0025KMJX V0209999C00005024385MN0160935N5-00115-00445101005ADDGA1075+024385999GA2085+033535999GD13991+0243859GD24991+0335359GE19AGL   +99999+99999GF199999999999024381999999MA1100955100655MD1890019+9999REMMET11501/23/22 21:56:01 METAR KMJX 240256Z 00000KT 10SM BKN080 OVC110 M01/M04 A2981 RMK AO2 SLP100 T10111044 58001 FZRANO
0304720407004622022012405567+39928-074292FM-15+0025KMJX V0209999C00005018295MN0160935N5-00225-00565100945ADDGA1045+014335999GA2085+018295999GD12991+0143359GD24991+0182959GE19AGL   +99999+99999GF199999999999014331999999KA1060M+00061KA2060N-00221MA1100885100585MD1690079+9999REMMET12701/24/22 00:56:02 METAR KMJX 240556Z 00000KT 10SM SCT047 OVC060 M02/M06 A2979 RMK AO2 SLP094 T10221056 10006 21022 56007 FZRANO
0208720407004622022012406567+39928-074292FM-15+0025KMJX V0209999C00005018295MN0160935N5-00335-00615100995ADDGA1085+018295999GD14991+0182959GE19AGL   +99999+99999GF199999999999018291999999MA1100955100655REMMET10201/24/22 01:56:02 METAR KMJX 240656Z 00000KT 10SM OVC060 M03/M06 A2981 RMK AO2 SLP099 T10331061 FZRANO
0227720407004622022012407567+39928-074292FM-15+0025KMJX V0209999C000052200059N0160935N5-00395-00615101025ADDGA1045+018295999GD12991+0182959GE19AGL   +99999+99999GF104995999999018291999999MA1100985100685REMMET10201/24/22 02:56:02 METAR KMJX 240756Z 00000KT 10SM SCT060 M04/M06 A2982 RMK AO2 SLP102 T10391061 FZRANOEQDD01      0ADE726
0183720407004622022012410567+39928-074292FM-15+0025KMJX V0202405N001552200059N0160935N5-00725-00835101215ADDGA1005+999999999GD10991+9999999GF100991999999999999999999MA1101155100855REMMET09901/24/22 05:56:02 METAR KMJX 241056Z 24003KT 10SM CLR M07/M08 A2987 RMK AO2 SLP121 T10721083 FZRANO
0202720407004622022012412567+39928-074292FM-15+0025KMJX V0203005N003152200059N0096565N5-00445-00565101405ADDAU100001015AW1105GA1005+999999999GD10991+9999999GF100991999999999999999999MA1101355101055REMMET10101/24/22 07:56:02 METAR KMJX 241256Z 30006KT 6SM BR CLR M04/M06 A2993 RMK AO2 SLP140 T10441056 FZRANO
0183720407004622022012413567+39928-074292FM-15+0025KMJX V0203105N004152200059N0160935N5-00285-00445101475ADDGA1005+999999999GD10991+9999999GF100991999999999999999999MA1101425101125REMMET09901/24/22 08:56:02 METAR KMJX 241356Z 31008KT 10SM CLR M03/M04 A2995 RMK AO2 SLP147 T10281044 FZRANO
0182720407004622022012415567+39928-074292FM-15+0025KMJX V0203205N002652200059N0160935N5+00065-00615101455ADDGA1005+999999999GD10991+9999999GF100991999999999999999999MA1101425101125REMMET09801/24/22 10:56:02 METAR KMJX 241556Z 32005KT 10SM CLR 01/M06 A2995 RMK AO2 SLP145 T00061061 FZRANO
0240720407004622022012417567+39928-074292FM-15+0025KMJX V0203105V004652200059N0160935N5+00175-01005101255ADDGA1005+999999999GD10991+9999999GF100991999999999999999999KA1060M+00171KA2060N-00831MA1101225100925MD1890229+9999REMMET11601/24/22 12:56:02 METAR KMJX 241756Z 31009KT 10SM CLR 02/M10 A2989 RMK AO2 SLP125 T00171100 10017 21083 58022 FZRANO
0175720407004622022012419567+39928-074292FM-15+0025KMJX V0209999V001552200059N0160935N5+00285-01005101225ADDGA1005+999999999GD10991+9999999GF100991999999999999999999MA1101195100895REMMET09101/24/22 14:56:02 METAR KMJX 241956Z VRB03KT 10SM CLR 03/M10 A2988 RMK AO2 SLP122 T00281100
0207720407004622022012501567+39928-074292FM-15+0025KMJX V0201605N00265025915MN0160935N5+00005-00395101245ADDGA1085+025915999GD14991+0259159GE19AGL   +99999+99999GF199999999999025911999999MA1101195100895REMMET10101/24/22 20:56:01 METAR KMJX 250156Z 16005KT 10SM OVC085 00/M04 A2988 RMK AO2 SLP124 T00001039 FZRANO
0245720407004622022012503567+39928-074292FM-15+0025KMJX V0209999C00005019815MN0160935N5+00005-00395101225ADDGA1075+019815999GA2085+024385999GD13991+0198159GD24991+0243859GE19AGL   +99999+99999GF199999999999019811999999MA1101195100895REMMET10801/24/22 22:56:02 METAR KMJX 250356Z 00000KT 10SM BKN065 OVC080 00/M04 A2988 RMK AO2 SLP122 T00001039 FZRANO
001572040700462202201250459O+39928-074292SOD  +0025KMJX V020999999999999999999999999999+99999+99999999999ADDAT1AU13BR  5
0200720407004622022012506567+39928-074292FM-15+0025KMJX V0202005N00465018295MN0160935N5+00445-00175101045ADDGA1085+018295999GD14991+0182959GE19AGL   +99999+99999GF199999999999018291999999MA1101025100725REMMET09401/25/22 01:56:02 METAR KMJX 250656Z 20009KT 10SM OVC060 04/M02 A2983 RMK AO2 SLP104 T00441017
0200720407004622022012507567+39928-074292FM-15+0025KMJX V0202005N00315018295MN0160935N5+00395-00175101095ADDGA1085+018295999GD14991+0182959GE19AGL   +99999+99999GF199999999999018291999999MA1101055100755REMMET09401/25/22 02:56:02 METAR KMJX 250756Z 20006KT 10SM OVC060 04/M02 A2984 RMK AO2 SLP109 T00391017
0219720407004622022012509567+39928-074292FM-15+0025KMJX V0202305N002652200059N0160935N5+00335-00285101125ADDGA1025+030485999GD11991+0304859GE19AGL   +99999+99999GF102995999999030481999999MA1101085100785REMMET09401/25/22 04:56:02 METAR KMJX 250956Z 23005KT 10SM FEW100 03/M03 A2985 RMK AO2 SLP112 T00331028EQDD01      0ADE726
0207720407004622022012510567+39928-074292FM-15+0025KMJX V0209999C00005036585MN0160935N5+00225-00225101145ADDGA1075+036585999GD13991+0365859GE19AGL   +99999+99999GF199999999999036581999999MA1101125100825REMMET10101/25/22 05:56:02 METAR KMJX 251056Z 00000KT 10SM BKN120 02/M02 A2986 RMK AO2 SLP114 T00221022 FZRANO
0240720407004622022012511567+39928-074292FM-15+0025KMJX V0209999C000052200059N0160935N5+00005-00335101215ADDGA1005+999999999GD10991+9999999GF100991999999999999999999KA1060M+00441KA2060N+00001MA1101155100855MD1390129+9999REMMET11601/25/22 06:56:02 METAR KMJX 251156Z 00000KT 10SM CLR 00/M03 A2987 RMK AO2 SLP121 T00001033 10044 20000 53012 FZRANO
0207720407004622022012513567+39928-074292FM-15+0025KMJX V0209999C00005036585MN0160935N5+00175-00225101445ADDGA1075+036585999GD13991+0365859GE19AGL   +99999+99999GF199999999999036581999999MA1101395101095REMMET10101/25/22 08:56:02 METAR KMJX 251356Z 00000KT 10SM BKN120 02/M02 A2994 RMK AO2 SLP144 T00171022 FZRANO
0199720407004622022012515567+39928-074292FM-15+0025KMJX V0203005N00215016765MN0160935N5+00445-00065999999ADDGA1085+016765999GD14991+0167659GE19AGL   +99999+99999GF199999999999016761999999MA1101565101265REMMET09301/25/22 10:56:02 METAR KMJX 251556Z 30004KT 10SM OVC055 04/M01 A2999 RMK AO2 SLPNO T00441006
0199720407004622022012613567+39928-074292FM-15+0025KMJX V0203405N006252200059N0160935N5-00505-01335102865ADDGA1005+999999999GD10991+9999999GF100991999999999999999999MA1102815102515OC100885REMMET10701/26/22 08:56:02 METAR KMJX 261356Z 34012G17KT 10SM CLR M05/M13 A3036 RMK AO2 SLP286 T10501133 FZRANO TSNO
0203720407004622022012614567+39928-074292FM-15+0025KMJX V0203505N005152200059N0160935N5-00445-01335102915ADDGA1005+999999999GD10991+9999999GF100991999999999999999999MA1102885102575MD1190219+9999REMMET10501/26/22 09:56:02 METAR KMJX 261456Z 35010KT 10SM CLR M04/M13 A3038 RMK AO2 SLP291 T10441133 51021 FZRANO
0194720407004622022012616567+39928-074292FM-15+0025KMJX V0203205N005752200059N0160935N5-00225-01445102825ADDGA1005+999999999GD10991+9999999GF100991999999999999999999MA1102785102475OC100825REMMET10201/26/22 11:56:02 METAR KMJX 261656Z 32011G16KT 10SM CLR M02/M14 A3035 RMK AO2 SLP282 T10221144 FZRANO
0241720407004622022012617567+39928-074292FM-15+0025KMJX V0203405N003652200059N0160935N5-00285-01445102775ADDGA1005+999999999GD10991+9999999GF100991999999999999999999KA1060M-00221KA2060N-00831MA1102715102415MD1890149+9999REMMET11701/26/22 12:56:02 METAR KMJX 261756Z 34007KT 10SM CLR M03/M14 A3033 RMK AO2 SLP277 T10281144 11022 21083 58014 FZRANO
0194720407004622022012618567+39928-074292FM-15+0025KMJX V0203205N005752200059N0160935N5-00175-01445102745ADDGA1005+999999999GD10991+9999999GF100991999999999999999999MA1102715102415OC100775REMMET10201/26/22 13:56:02 METAR KMJX 261856Z 32011G15KT 10SM CLR M02/M14 A3033 RMK AO2 SLP274 T10171144 FZRANO
0203720407004622022012620567+39928-074292FM-15+0025KMJX V0203205N005152200059N0160935N5-00225-01565102815ADDGA1005+999999999GD10991+9999999GF100991999999999999999999MA1102785102475MD1390049+9999REMMET10501/26/22 15:56:02 METAR KMJX 262056Z 32010KT 10SM CLR M02/M16 A3035 RMK AO2 SLP281 T10221156 53004 FZRANO
0183720407004622022012622567+39928-074292FM-15+0025KMJX V0203205N002152200059N0160935N5-00445-01505103015ADDGA1005+999999999GD10991+9999999GF100991999999999999999999MA1102955102645REMMET09901/26/22 17:56:02 METAR KMJX 262256Z 32004KT 10SM CLR M04/M15 A3040 RMK AO2 SLP301 T10441150 FZRANO
0241720407004622022012623567+39928-074292FM-15+0025KMJX V0203105N002652200059N0160935N5-00565-01445103105ADDGA1005+999999999GD10991+9999999GF100991999999999999999999KA1060M-00111KA2060N-00611MA1103055102745MD1390289+9999REMMET11701/26/22 18:56:02 METAR KMJX 262356Z 31005KT 10SM CLR M06/M14 A3043 RMK AO2 SLP310 T10561144 11011 21061 53028 FZRANO
0183720407004622022012700567+39928-074292FM-15+0025KMJX V0203305N002152200059N0160935N5-00675-01505103185ADDGA1005+999999999GD10991+9999999GF100991999999999999999999MA1103125102815REMMET09901/26/22 19:56:01 METAR KMJX 270056Z 33004KT 10SM CLR M07/M15 A3045 RMK AO2 SLP318 T10671150 FZRANO
0203720407004622022012702567+39928-074292FM-15+0025KMJX V0209999C000052200059N0160935N5-01115-01505103265ADDGA1005+999999999GD10991+9999999GF100991999999999999999999MA1103225102915MD1190179+9999REMMET10501/26/22 21:56:01 METAR KMJX 270256Z 00000KT 10SM CLR M11/M15 A3048 RMK AO2 SLP326 T11111150 51017 FZRANO
0183720407004622022012703567+39928-074292FM-15+0025KMJX V0209999C000052200059N0160935N5-01285-01565103275ADDGA1005+999999999GD10991+9999999GF100991999999999999999999MA1103225102915REMMET09901/26/22 22:56:01 METAR KMJX 270356Z 00000KT 10SM CLR M13/M16 A3048 RMK AO2 SLP327 T11281156 FZRANO
0241720407004622022012705567+39928-074292FM-15+0025KMJX V0209999C000052200059N0160935N5-01445-01675103285ADDGA1005+999999999GD10991+9999999GF100991999999999999999999KA1060M-00561KA2060N-01441MA1103225102915MD1090019+9999REMMET11701/27/22 00:56:02 METAR KMJX 270556Z 00000KT 10SM CLR M14/M17 A3048 RMK AO2 SLP328 T11441167 11056 21144 50001 FZRANO
0183720407004622022012706567+39928-074292FM-15+0025KMJX V0209999C000052200059N0160935N5-01505-01785103285ADDGA1005+999999999GD10991+9999999GF100991999999999999999999MA1103225102915REMMET09901/27/22 01:56:02 METAR KMJX 270656Z 00000KT 10SM CLR M15/M18 A3048 RMK AO2 SLP328 T11501178 FZRANO
0183720407004622022012707567+39928-074292FM-15+0025KMJX V0209999C000052200059N0160935N5-01565-01835103295ADDGA1005+999999999GD10991+9999999GF100991999999999999999999MA1103225102915REMMET09901/27/22 02:56:02 METAR KMJX 270756Z 00000KT 10SM CLR M16/M18 A3048 RMK AO2 SLP329 T11561183 FZRANO
0203720407004622022012708567+39928-074292FM-15+0025KMJX V0209999C000052200059N0160935N5-01615-01895103265ADDGA1005+999999999GD10991+9999999GF100991999999999999999999MA1103225102915MD1890029+9999REMMET10501/27/22 03:56:02 METAR KMJX 270856Z 00000KT 10SM CLR M16/M19 A3048 RMK AO2 SLP326 T11611189 58002 FZRANO
0183720407004622022012709567+39928-074292FM-15+0025KMJX V0209999C000052200059N0160935N5-01615-01895103265ADDGA1005+999999999GD10991+9999999GF100991999999999999999999MA1103225102915REMMET09901/27/22 04:56:02 METAR KMJX 270956Z 00000KT 10SM CLR M16/M19 A3048 RMK AO2 SLP326 T11611189 FZRANO
0183720407004622022012710567+39928-074292FM-15+0025KMJX V0209999C000052200059N0160935N5-01565-01895103275ADDGA1005+999999999GD10991+9999999GF100991999999999999999999MA1103225102915REMMET09901/27/22 05:56:02 METAR KMJX 271056Z 00000KT 10SM CLR M16/M19 A3048 RMK AO2 SLP327 T11561189 FZRANO
0241720407004622022012711567+39928-074292FM-15+0025KMJX V0209999C000052200059N0160935N5-01565-01785103315ADDGA1005+999999999GD10991+9999999GF100991999999999999999999KA1060M-01391KA2060N-01611MA1103255102955MD1390059+9999REMMET11701/27/22 06:56:02 METAR KMJX 271156Z 00000KT 10SM CLR M16/M18 A3049 RMK AO2 SLP331 T11561178 11139 21161 53005 FZRANO
0183720407004622022012713567+39928-074292FM-15+0025KMJX V0209999C000052200059N0160935N5-00675-01065103275ADDGA1005+999999999GD10991+9999999GF100991999999999999999999MA1103225102915REMMET09901/27/22 08:56:02 METAR KMJX 271356Z 00000KT 10SM CLR M07/M11 A3048 RMK AO2 SLP327 T10671106 FZRANO
0183720407004622022012715567+39928-074292FM-15+0025KMJX V0201805N003652200059N0160935N5-00065-00895103215ADDGA1005+999999999GD10991+9999999GF100991999999999999999999MA1103155102845REMMET09901/27/22 10:56:02 METAR KMJX 271556Z 18007KT 10SM CLR M01/M09 A3046 RMK AO2 SLP321 T10061089 FZRANO
0226720407004622022012716567+39928-074292FM-15+0025KMJX V0201805N003652200059N0160935N5+00065-01065103115ADDGA1025+012805999GD11991+0128059GE19AGL   +99999+99999GF102995999999012801999999MA1103055102745REMMET10101/27/22 11:56:02 METAR KMJX 271656Z 18007KT 10SM FEW042 01/M11 A3043 RMK AO2 SLP311 T00061106 FZRANOEQDD01      0ADE726
0240720407004622022012717567+39928-074292FM-15+0025KMJX V0202105N001552200059N0160935N5+00115-01175102965ADDGA1005+999999999GD10991+9999999GF100991999999999999999999KA1060M+00111KA2060N-01611MA1102915102615MD1890289+9999REMMET11601/27/22 12:56:02 METAR KMJX 271756Z 21003KT 10SM CLR 01/M12 A3039 RMK AO2 SLP296 T00111117 10011 21161 58028 FZRANO
0182720407004622022012718567+39928-074292FM-15+0025KMJX V0201505N004152200059N0160935N5+00175-00945102825ADDGA1005+999999999GD10991+9999999GF100991999999999999999999MA1102785102475REMMET09801/27/22 13:56:02 METAR KMJX 271856Z 15008KT 10SM CLR 02/M09 A3035 RMK AO2 SLP282 T00171094 FZRANO
0202720407004622022012720567+39928-074292FM-15+0025KMJX V0201705N004652200059N0160935N5+00065-01005102695ADDGA1005+999999999GD10991+9999999GF100991999999999999999999MA1102645102345MD1690269+9999REMMET10401/27/22 15:56:02 METAR KMJX 272056Z 17009KT 10SM CLR 01/M10 A3031 RMK AO2 SLP269 T00061100 56026 FZRANO
0183720407004622022012721567+39928-074292FM-15+0025KMJX V0201505N004152200059N0160935N5-00115-00945102665ADDGA1005+999999999GD10991+9999999GF100991999999999999999999MA1102615102305REMMET09901/27/22 16:56:02 METAR KMJX 272156Z 15008KT 10SM CLR M01/M09 A3030 RMK AO2 SLP266 T10111094 FZRANO
0241720407004622022012723567+39928-074292FM-15+0025KMJX V0209999C000052200059N0160935N5-00445-00895102695ADDGA1005+999999999GD10991+9999999GF100991999999999999999999KA1060M+00171KA2060N-00441MA1102645102345MD1690019+9999REMMET11701/27/22 18:56:02 METAR KMJX 272356Z 00000KT 10SM CLR M04/M09 A3031 RMK AO2 SLP269 T10441089 10017 21044 56001 FZRANO
0183720407004622022012801567+39928-074292FM-15+0025KMJX V0209999C000052200059N0160935N5-00725-01065102625ADDGA1005+999999999GD10991+9999999GF100991999999999999999999MA1102575102275REMMET09901/27/22 20:56:01 METAR KMJX 280156Z 00000KT 10SM CLR M07/M11 A3029 RMK AO2 SLP262 T10721106 FZRANO
0228720407004622022012802567+39928-074292FM-15+0025KMJX V0209999C00005033535MN0160935N5-00615-00895102575ADDGA1075+033535999GD13991+0335359GE19AGL   +99999+99999GF199999999999033531999999MA1102545102245MD1690119+9999REMMET10801/27/22 21:56:01 METAR KMJX 280256Z 00000KT 10SM BKN110 M06/M09 A3028 RMK AO2 SLP257 T10611089 56011 FZRANO
0246720407004622022012803567+39928-074292FM-15+0025KMJX V0209999C00005024385MN0160935N5-00505-00895102555ADDGA1075+024385999GA2085+030485999GD13991+0243859GD24991+0304859GE19AGL   +99999+99999GF199999999999024381999999MA1102515102205REMMET10901/27/22 22:56:02 METAR KMJX 280356Z 00000KT 10SM BKN080 OVC100 M05/M09 A3027 RMK AO2 SLP255 T10501089 FZRANO
0304720407004622022012805567+39928-074292FM-15+0025KMJX V0209999C00005018295MN0160935N5-00395-00785102405ADDGA1075+018295999GA2075+036585999GD13991+0182959GD23991+0365859GE19AGL   +99999+99999GF199999999999018291999999KA1060M-00281KA2060N-00781MA1102345102035MD1890179+9999REMMET12701/28/22 00:56:02 METAR KMJX 280556Z 00000KT 10SM BKN060 BKN120 M04/M08 A3022 RMK AO2 SLP240 T10391078 11028 21078 58017 FZRANO
0289720407004622022012806567+39928-074292FM-15+0025KMJX V0209999C00005025915MN0160935N5-00335-00725102335ADDGA1045+021345999GA2075+025915999GA3085+030485999GD12991+0213459GD23991+0259159GD34991+0304859GE19AGL   +99999+99999GF199999999999021341999999MA1102305102005REMMET12101/28/22 01:56:02 METAR KMJX 280656Z 00000KT 10SM SCT070 BKN085 OVC100 M03/M07 A3021 RMK AO2 SLP233 T10331072 FZRANO TSNO
0208720407004622022012807567+39928-074292FM-15+0025KMJX V0209999C00005021345MN0160935N5-00285-00675102305ADDGA1085+021345999GD14991+0213459GE19AGL   +99999+99999GF199999999999021341999999MA1102275101975REMMET10201/28/22 02:56:02 METAR KMJX 280756Z 00000KT 10SM OVC070 M03/M07 A3020 RMK AO2 SLP230 T10281067 FZRANO
0208720407004622022012809567+39928-074292FM-15+0025KMJX V0209999C00005019815MN0160935N5-00395-00725102195ADDGA1075+019815999GD13991+0198159GE19AGL   +99999+99999GF199999999999019811999999MA1102135101835REMMET10201/28/22 04:56:02 METAR KMJX 280956Z 00000KT 10SM BKN065 M04/M07 A3016 RMK AO2 SLP219 T10391072 FZRANO
0246720407004622022012810567+39928-074292FM-15+0025KMJX V0209999C00005013115MN0160935N5-00335-00725102185ADDGA1075+013115999GA2085+028965999GD13991+0131159GD24991+0289659GE19AGL   +99999+99999GF199999999999013111999999MA1102135101835REMMET10901/28/22 05:56:02 METAR KMJX 281056Z 00000KT 10SM BKN043 OVC095 M03/M07 A3016 RMK AO2 SLP218 T10331072 FZRANO
0208720407004622022012812567+39928-074292FM-15+0025KMJX V0209999C00005024385MN0160935N5-00335-00615102235ADDGA1085+024385999GD14991+0243859GE19AGL   +99999+99999GF199999999999024381999999MA1102205101905REMMET10201/28/22 07:56:02 METAR KMJX 281256Z 00000KT 10SM OVC080 M03/M06 A3018 RMK AO2 SLP223 T10331061 FZRANO
0208720407004622022012813567+39928-074292FM-15+0025KMJX V0209999C00005018295MN0160935N5-00175-00675102215ADDGA1085+018295999GD14991+0182959GE19AGL   +99999+99999GF199999999999018291999999MA1102175101875REMMET10201/28/22 08:56:02 METAR KMJX 281356Z 00000KT 10SM OVC060 M02/M07 A3017 RMK AO2 SLP221 T10171067 FZRANO
0207720407004622022012816567+39928-074292FM-15+0025KMJX V0203005N00155019815MN0160935N5+00175-00725102065ADDGA1085+019815999GD14991+0198159GE19AGL   +99999+99999GF199999999999019811999999MA1102035101735REMMET10101/28/22 11:56:02 METAR KMJX 281656Z 30003KT 10SM OVC065 02/M07 A3013 RMK AO2 SLP206 T00171072 FZRANO
0341720407004622022012817567+39928-074292FM-15+0025KMJX V0203005N00155012505MN0160935N5+00225-00785101985ADDGA1045+010365999GA2075+012505999GA3085+018295999GD12991+0103659GD23991+0125059GD34991+0182959GE19AGL   +99999+99999GF199999999999010361999999KA1060M+00221KA2060N-00441MA1101935101635MD1890209+9999REMMET13301/28/22 12:56:02 METAR KMJX 281756Z 30003KT 10SM SCT034 BKN041 OVC060 02/M08 A3010 RMK AO2 SLP198 T00221078 10022 21044 58020 FZRANO
0238720407004622022012818567+39928-074292FM-15+0025KMJX V0209999C00005010675MN0160935N5+00285-00565101885ADDGA1075+010675999GA2085+014635999GD13991+0106759GD24991+0146359GE19AGL   +99999+99999GF199999999999010671999999MA1101835101535REMMET10101/28/22 13:56:02 METAR KMJX 281856Z 00000KT 10SM BKN035 OVC048 03/M06 A3007 RMK AO2 SLP188 T00281056
0200720407004622022012819567+39928-074292FM-15+0025KMJX V0203605N00265014025MN0160935N5+00285-00565101825ADDGA1085+014025999GD14991+0140259GE19AGL   +99999+99999GF199999999999014021999999MA1101795101495REMMET09401/28/22 14:56:02 METAR KMJX 281956Z 36005KT 10SM OVC046 03/M06 A3006 RMK AO2 SLP182 T00281056
0316720407004622022012822377+39928-074292FM-15+0025KMJX V0200505N00415004275MN0160935N5+00105-00205999999ADDAA101000021AU110020015AW1615GA1075+004275999GA2075+018295999GA3085+022865999GD13991+0042759GD23991+0182959GD34991+0228659GE19AGL   +99999+99999GF199999999999004271999999MA1101665101365MW1615REMMET11401/28/22 17:37:02 METAR KMJX 282237Z 05008KT 10SM -RA BKN014 BKN060 OVC075 01/M02 A3002 RMK AO2 RAB32 P0000 FZRANO
0284720407004622022012822567+39928-074292FM-15+0025KMJX V0200705N00215004275MN0080475N5+00065-00175101735ADDAA101000021AU110030015AU200001015AW1105AW2715GA1085+004275999GD14991+0042759GE19AGL   +99999+99999GF199999999999004271999999MA1101695101395MW1715REMMET12701/28/22 17:56:02 METAR KMJX 282256Z 07004KT 5SM -SN BR OVC014 01/M02 A3003 RMK AO2 RAB32E47SNB47 SLP173 P0000 T00061017 FZRANO
0254720407004622022012823447+39928-074292FM-15+0025KMJX V0200305N00265003665MN0016095N5-00105-00205999999ADDAA101000021AU110030015AU200001015AW1105AW2715GA1085+003665999GD14991+0036659GE19AGL   +99999+99999GF199999999999003661999999MA1101695101395MW1715REMMET09701/28/22 18:44:02 METAR KMJX 282344Z 03005KT 1SM -SN BR OVC012 M01/M02 A3003 RMK AO2 P0000 FZRANO
0292720407004622022012823527+39928-074292FM-15+0025KMJX V0200105N00215003665MN0016095N5-00105-00105999999ADDAA101000021AU110030015AU200001015AW1105AW2715GA1045+001525999GA2085+003665999GD12991+0015259GD24991+0036659GE19AGL   +99999+99999GF199999999999001521999999MA1101695101395MW1715REMMET10401/28/22 18:52:02 METAR KMJX 282352Z 01004KT 1SM -SN BR SCT005 OVC012 M01/M01 A3003 RMK AO2 P0000 FZRANO
0334720407004622022012900057+39928-074292FM-15+0025KMJX V0200205N00265003665MN0024145N5-00105-00105999999ADDAA101000021AU110030015AU200001015AW1105AW2715GA1045+001525999GA2075+003665999GA3085+005185999GD12991+0015259GD23991+0036659GD34991+0051859GE19AGL   +99999+99999GF199999999999001521999999MA1101665101365MW1715REMMET11501/28/22 19:05:01 METAR KMJX 290005Z 02005KT 1 1/2SM -SN BR SCT005 BKN012 OVC017 M01/M01 A3002 RMK AO2 P0000 FZRANO
0296720407004622022012900167+39928-074292FM-15+0025KMJX V0200105N00315005185MN0024145N5-00105-00105999999ADDAA101000021AU110030015AU200001015AW1105AW2715GA1025+001525999GA2085+005185999GD11991+0015259GD24991+0051859GE19AGL   +99999+99999GF199999999999001521999999MA1101635101325MW1715REMMET10801/28/22 19:16:01 METAR KMJX 290016Z 01006KT 1 1/2SM -SN BR FEW005 OVC017 M01/M01 A3001 RMK AO2 P0000 FZRANO
0330720407004622022012900377+39928-074292FM-15+0025KMJX V0200205N00365004275MN0032195N5-00105-00105999999ADDAA101000395AU110030015AU200001015AW1105AW2715GA1025+001525999GA2075+004275999GA3085+005795999GD11991+0015259GD23991+0042759GD34991+0057959GE19AGL   +99999+99999GF199999999999001521999999MA1101565101265MW1715REMMET11101/28/22 19:37:01 METAR KMJX 290037Z 02007KT 2SM -SN BR FEW005 BKN014 OVC019 M01/M01 A2999 RMK AO2 P0001 FZRANO
0330720407004622022012900507+39928-074292FM-15+0025KMJX V0200205N00365002745MN0048285N5-00105-00105999999ADDAA101000395AU110030015AU200001015AW1105AW2715GA1045+001525999GA2075+002745999GA3085+011585999GD12991+0015259GD23991+0027459GD34991+0115859GE19AGL   +99999+99999GF199999999999001521999999MA1101565101265MW1715REMMET11101/28/22 19:50:01 METAR KMJX 290050Z 02007KT 3SM -SN BR SCT005 BKN009 OVC038 M01/M01 A2999 RMK AO2 P0001 FZRANO
0358720407004622022012900547+39928-074292FM-15+0025KMJX V0200205N00365001525MN0040235V5-00105-00105999999ADDAA101000021AU110030015AU200001015AW1105AW2715GA1075+001525999GA2075+004275999GA3085+011585999GD13991+0015251GD23991+0042759GD34991+0115859GE19AGL   +99999+99999GF199999999999001521999999MA1101565101265MW1715REMMET13901/28/22 19:54:01 METAR KMJX 290054Z 02007KT 2 1/2SM -SN BR BKN005 BKN014 OVC038 M01/M01 A2999 RMK AO2 VIS 2 1/2V3 CIG 004V010 P0000 FZRANO
0256720407004622022012902127+39928-074292FM-15+0025KMJX V0200205N00365001525MN0012075N5-00105-00105999999ADDAA101000021AU110030015AU200001015AW1105AW2715GA1085+001525999GD14991+0015259GE19AGL   +99999+99999GF199999999999001521999999MA1101495101195MW1715REMMET09901/28/22 21:12:01 METAR KMJX 290212Z 02007KT 3/4SM -SN BR OVC005 M01/M01 A2997 RMK AO2 P0000 FZRANO
0254720407004622022012902367+39928-074292FM-15+0025KMJX V0200205N00515001525MN0016095N5-00105-00105999999ADDAA101000395AU110030015AU200001015AW1105AW2715GA1085+001525999GD14991+0015259GE19AGL   +99999+99999GF199999999999001521999999MA1101425101125MW1715REMMET09701/28/22 21:36:01 METAR KMJX 290236Z 02010KT 1SM -SN BR OVC005 M01/M01 A2995 RMK AO2 P0001 FZRANO
0329720407004622022012902567+39928-074292FM-15+0025KMJX V0200105N00465001525MN0012075N5-00065-00115101445ADDAA101000595AA203000891AU110030015AU200001015AW1105AW2715GA1085+001525999GD14991+0015259GE19AGL   +99999+99999GF199999999999001521999999MA1101395101095MD1890299+9999MW1715REMMET12801/28/22 21:56:01 METAR KMJX 290256Z 01009KT 3/4SM -SN BR OVC005 M01/M01 A2994 RMK AO2 SLP144 P0002 60003 T10061011 58029 FZRANOEQDQ01  00078PRCP03
0263720407004622022012903107+39928-074292FM-15+0025KMJX V0200105N00515001525MN0020125N5-00105-00105999999ADDAA101000021AU110030015AU200001015AW1105AW2715GA1085+001525999GD14991+0015259GE19AGL   +99999+99999GF199999999999001521999999MA1101395101095MW1715REMMET10601/28/22 22:10:01 METAR KMJX 290310Z 01010KT 1 1/4SM -SN BR OVC005 M01/M01 A2994 RMK AO2 P0000 FZRANO TSNO
0290720407004622022012903567+39928-074292FM-15+0025KMJX V0203605N00465001525MN0016095N5-00115-00175101295ADDAA101000021AU110030015AU200001015AW1105AW2715GA1085+001525999GD14991+0015251GE19AGL   +99999+99999GF199999999999001521999999MA1101255100955MW1715REMMET13301/28/22 22:56:02 METAR KMJX 290356Z 36009KT 1SM -SN BR OVC005 M01/M02 A2990 RMK AO2 CIG 003V008 PRESFR SLP129 P0000 T10111017 FZRANO
0271720407004622022012904257+39928-074292FM-15+0025KMJX V0203605N00515001525MN0032195N5-00105-00205999999ADDAA101000021AU110030015AU200001015AW1105AW2715GA1085+001525999GD14991+0015251GE19AGL   +99999+99999GF199999999999001521999999MA1101225100925MW1715REMMET11401/28/22 23:25:02 METAR KMJX 290425Z 36010KT 2SM -SN BR OVC005 M01/M02 A2989 RMK AO2 CIG 004V009 P0000 FZRANO TSNO
003972040700462202201290459O+39928-074292SOD  +0025KMJX V020999999999999999999999999999+99999+99999999999ADDAT1AU16RA  5AT2AU18SN  5AT3AU13BR  5
0279720407004622022012905157+39928-074292FM-15+0025KMJX V0200105N00515001525MN0012075N5-00105-00205999999ADDAA101000021AU110030015AU200001015AW1105AW2715GA1085+001525999GD14991+0015251GE19AGL   +99999+99999GF199999999999001521999999MA1101125100825MW1715OC100935REMMET11401/29/22 00:15:02 METAR KMJX 290515Z 01010G18KT 3/4SM -SN BR OVC005 M01/M02 A2986 RMK AO2 CIG 003V010 P0000 FZRANO
0269720407004622022012905297+39928-074292FM-15+0025KMJX V0200105N00575001525MN0008055N5-00105-00205999999ADDAA101000021AU120030015AU208002015AW1355AW2725GA1085+001525999GD14991+0015251GE19AGL   +99999+99999GF199999999999001521999999MA1101085100785MW1735REMMET11201/29/22 00:29:02 METAR KMJX 290529Z 01011KT 1/2SM SN FZFG OVC005 M01/M02 A2985 RMK AO2 CIG 003V007 P0000 FZRANO
0378720407004622022012905567+39928-074292FM-15+0025KMJX V0200105N00725000915MN0012075N5-00175-00225101055ADDAA101000021AA206000891AU110030015AU200001015AW1105AW2715GA1085+000915999GD14991+0009159GE19AGL   +99999+99999GF199999999999000911999999KA1060M-00061KA2060N-00171MA1101025100725MD1890389+9999MW1715OC101135REMMET14301/29/22 00:56:02 METAR KMJX 290556Z 01014G22KT 3/4SM -SN BR OVC003 M02/M02 A2983 RMK AO2 SLP105 P0000 60003 T10171022 11006 21017 58038 FZRANOEQDQ01  00078PRCP06
0280720407004622022012908127+39928-074292FM-15+0025KMJX V0200105N00885001525MN0008055N5-00305-00405999999ADDAA101000021AU120030015AU208002015AW1355AW2725GA1085+001525999GD14991+0015251GE19AGL   +99999+99999GF199999999999001521999999MA1100715100415MW1735OC101185REMMET11501/29/22 03:12:02 METAR KMJX 290812Z 01017G23KT 1/2SM SN FZFG OVC005 M03/M04 A2974 RMK AO2 CIG 003V006 P0000 FZRANO
0373720407004622022012908567+39928-074292FM-15+0025KMJX V0203505N00625001525MN0008055N5-00395-00445100615ADDAA101000021AA203000021AU120030015AU208002015AW1355AW2725GA1085+001525999GD14991+0015259GE19AGL   +99999+99999GF199999999999001521999999MA1100585100285MD1890449+9999MW1735OC100985OD149901331360REMMET15001/29/22 03:56:02 METAR KMJX 290856Z 35012G19KT 1/2SM SN FZFG OVC005 M04/M04 A2970 RMK AO2 PK WND 36026/0841 SLP061 P0000 60000 T10391044 58044 FZRANOEQDQ01  00008PRCP03
0326720407004622022012909567+39928-074292FM-15+0025KMJX V0203605N00575002135MN0016095N5-00395-00505100545ADDAA101000021AU110030015AU200001015AW1105AW2715GA1085+002135999GD14991+0021351GE19AGL   +99999+99999GF199999999999002131999999MA1100515100215MW1715OC101185OD149901391340REMMET14701/29/22 04:56:02 METAR KMJX 290956Z 36011G23KT 1SM -SN BR OVC007 M04/M05 A2968 RMK AO2 PK WND 34027/0926 CIG 004V012 SLP054 P0000 T10391050 FZRANO
0277720407004622022012910207+39928-074292FM-15+0025KMJX V0200105N00775002745MN0016095N5-00405-00605999999ADDAA101000021AU110030015AU200001015AW1105AW2715GA1085+002745999GD14991+0027451GE19AGL   +99999+99999GF199999999999002741999999MA1100475100185MW1715OC101135REMMET11201/29/22 05:20:02 METAR KMJX 291020Z 01015G22KT 1SM -SN BR OVC009 M04/M06 A2967 RMK AO2 CIG 005V012 P0000 FZRANO
0279720407004622022012910327+39928-074292FM-15+0025KMJX V0203605N00825002135MN0012075N5-00405-00605999999ADDAA101000021AU110030015AU200001015AW1105AW2715GA1085+002135999GD14991+0021351GE19AGL   +99999+99999GF199999999999002131999999MA1100445100145MW1715OC101185REMMET11401/29/22 05:32:02 METAR KMJX 291032Z 36016G23KT 3/4SM -SN BR OVC007 M04/M06 A2966 RMK AO2 CIG 004V011 P0000 FZRANO
0316720407004622022012910567+39928-074292FM-15+0025KMJX V0203505N00985002135MN0012075N5-00445-00565100435ADDAA101000021AU110030015AU200001015AW1105AW2715GA1085+002135999GD14991+0021359GE19AGL   +99999+99999GF199999999999002131999999MA1100375100075MW1715OC101445OD149901441340REMMET13701/29/22 05:56:02 METAR KMJX 291056Z 35019G28KT 3/4SM -SN BR OVC007 M04/M06 A2964 RMK AO2 PK WND 34028/1053 SLP043 P0000 T10441056 FZRANO
0410720407004622022012911567+39928-074292FM-15+0025KMJX V0203405N00825002135MN0012075N5-00505-00615100495ADDAA101000021AA206000021AA324000891AU110030015AU200001015AW1105AW2715GA1085+002135999GD14991+0021351GE19AGL   +99999+99999GF199999999999002131999999KA1060M-00171MA1100445100145MD1590129+9999MW1715OC101245REMMET16101/29/22 06:56:02 METAR KMJX 291156Z 34016G24KT 3/4SM -SN BR OVC007 M05/M06 A2966 RMK AO2 CIG 005V010 SLP049 P0000 60000 70003 T10501061 11017 21050 55012 FZRANOEQDQ01  00008PRCP06Q02  00078PRCP24
0300720407004622022012912147+39928-074292FM-15+0025KMJX V0203505N00725002135MN0008055N5-00505-00605999999ADDAA101000021AU120030015AU208002015AW1355AW2725GA1085+002135999GD14991+0021359GE19AGL   +99999+99999GF199999999999002131999999MA1100445100145MW1735OC101295OD149901391360REMMET12101/29/22 07:14:02 METAR KMJX 291214Z 35014G25KT 1/2SM SN FZFG OVC007 M05/M06 A2966 RMK AO2 PK WND 36027/1202 P0000 FZRANO
0267720407004622022012913377+39928-074292FM-15+0025KMJX V0203405N00825003355MN0012075N5-00505-00605999999ADDAA101000021AU110030015AU200001015AW1105AW2715GA1085+003355999GD14991+0033559GE19AGL   +99999+99999GF199999999999003351999999MA1100445100145MW1715OC101295REMMET10201/29/22 08:37:02 METAR KMJX 291337Z 34016G25KT 3/4SM -SN BR OVC011 M05/M06 A2966 RMK AO2 P0000 FZRANO
0322720407004622022012913567+39928-074292FM-15+0025KMJX V0203505N00825003965MN0012075N5-00505-00675100545ADDAA101000021AU110030015AU200001015AW1105AW2715GA1075+003965999GA2085+005795999GD13991+0039659GD24991+0057959GE19AGL   +99999+99999GF199999999999003961999999MA1100515100215MW1715OC101135REMMET12601/29/22 08:56:02 METAR KMJX 291356Z 35016G22KT 3/4SM -SN BR BKN013 OVC019 M05/M07 A2968 RMK AO2 SLP054 P0000 T10501067 FZRANO
0267720407004622022012914097+39928-074292FM-15+0025KMJX V0203405N00775003965MN0012075N5-00505-00705999999ADDAA101000021AU110030015AU200001015AW1105AW2715GA1085+003965999GD14991+0039659GE19AGL   +99999+99999GF199999999999003961999999MA1100475100185MW1715OC101185REMMET10201/29/22 09:09:02 METAR KMJX 291409Z 34015G23KT 3/4SM -SN BR OVC013 M05/M07 A2967 RMK AO2 P0000 FZRANO
0300720407004622022012914347+39928-074292FM-15+0025KMJX V0203405N01035003355MN0008055N5-00505-00705999999ADDAA101000021AU120030015AU208002015AW1355AW2725GA1085+003355999GD14991+0033559GE19AGL   +99999+99999GF199999999999003351999999MA1100445100145MW1735OC101545OD149901541340REMMET12101/29/22 09:34:02 METAR KMJX 291434Z 34020G30KT 1/2SM SN FZFG OVC011 M05/M07 A2966 RMK AO2 PK WND 34030/1434 P0000 FZRANO
0373720407004622022012914567+39928-074292FM-15+0025KMJX V0203405N00625003355MN0008055N5-00505-00675100535ADDAA101000021AA203000021AU120030015AU208002015AW1355AW2725GA1085+003355999GD14991+0033559GE19AGL   +99999+99999GF199999999999003351999999MA1100475100185MD1390049+9999MW1735OC101445OD149901541340REMMET15001/29/22 09:56:02 METAR KMJX 291456Z 34012G28KT 1/2SM SN FZFG OVC011 M05/M07 A2967 RMK AO2 PK WND 34030/1434 SLP053 P0000 60000 T10501067 53004 FZRANOEQDQ01  00008PRCP03
0267720407004622022012915057+39928-074292FM-15+0025KMJX V0203405N00675003355MN0012075N5-00505-00705999999ADDAA101000021AU110030015AU200001015AW1105AW2715GA1085+003355999GD14991+0033559GE19AGL   +99999+99999GF199999999999003351999999MA1100515100215MW1715OC101035REMMET10201/29/22 10:05:02 METAR KMJX 291505Z 34013G20KT 3/4SM -SN BR OVC011 M05/M07 A2968 RMK AO2 P0000 FZRANO
0318720407004622022012915457+39928-074292FM-15+0025KMJX V0203205N00625003055MN0008055N5-00505-00705999999ADDAA101000021AU120030015AU208002015AW1355AW2725GA1075+003055999GA2085+004575999GD13991+0030551GD24991+0045759GE19AGL   +99999+99999GF199999999999003051999999MA1100515100215MW1735OC101035REMMET12201/29/22 10:45:02 METAR KMJX 291545Z 32012G20KT 1/2SM SN FZFG BKN010 OVC015 M05/M07 A2968 RMK AO2 CIG 007V012 P0000 FZRANO
0292720407004622022012916317+39928-074292FM-15+0025KMJX V0209999N99999003665MN0016095N5-00605-00805999999ADDAA101000021AU110030015AU200001015AW1105AW2715GA1075+003665999GA2085+005495999GD13991+0036659GD24991+0054959GE19AGL   +99999+99999GF199999999999003661999999MA1100515100215MW1715REMMET10401/29/22 11:31:02 METAR KMJX 291631Z      KT 1SM -SN BR BKN012 OVC018 M06/M08 A2968 RMK AO2 P0000 FZRANO
0345720407004622022012917037+39928-074292FM-15+0025KMJX V0203205N00725004275MN0020125N5-00705-00905999999ADDAA101000021AU110030015AU200001015AW1105AW2715GA1075+004275999GA2075+006105999GA3085+008235999GD13991+0042759GD23991+0061059GD34991+0082359GE19AGL   +99999+99999GF199999999999004271999999MA1100475100185MW1715OC101295REMMET11801/29/22 12:03:02 METAR KMJX 291703Z 32014G25KT 1 1/4SM -SN BR BKN014 BKN020 OVC027 M07/M09 A2967 RMK AO2 P0000 FZRANO
0345720407004622022012917197+39928-074292FM-15+0025KMJX V0203205N00725004885MN0020125N5-00705-00905999999ADDAA101000021AU110030015AU200001015AW1105AW2715GA1075+004885999GA2075+006105999GA3085+008235999GD13991+0048859GD23991+0061059GD34991+0082359GE19AGL   +99999+99999GF199999999999004881999999MA1100445100145MW1715OC101245REMMET11801/29/22 12:19:02 METAR KMJX 291719Z 32014G24KT 1 1/4SM -SN BR BKN016 BKN020 OVC027 M07/M09 A2966 RMK AO2 P0000 FZRANO
0303720407004622022012917267+39928-074292FM-15+0025KMJX V0203205N00885004885MN0016095N5-00705-00905999999ADDAA101000021AU110030015AU200001015AW1105AW2715GA1075+004885999GA2085+007625999GD13991+0048859GD24991+0076259GE19AGL   +99999+99999GF199999999999004881999999MA1100415100115MW1715OC101245REMMET10701/29/22 12:26:02 METAR KMJX 291726Z 32017G24KT 1SM -SN BR BKN016 OVC025 M07/M09 A2965 RMK AO2 P0000 FZRANO
0345720407004622022012917407+39928-074292FM-15+0025KMJX V0203205N00775007325MN0020125N5-00705-00905999999ADDAA101000021AU110030015AU200001015AW1105AW2715GA1045+004885999GA2075+007325999GA3085+008845999GD12991+0048859GD23991+0073259GD34991+0088459GE19AGL   +99999+99999GF199999999999004881999999MA1100415100115MW1715OC101245REMMET11801/29/22 12:40:02 METAR KMJX 291740Z 32015G24KT 1 1/4SM -SN BR SCT016 BKN024 OVC029 M07/M09 A2965 RMK AO2 P0000 FZRANO
0405720407004622022012917567+39928-074292FM-15+0025KMJX V0209999N99999008845MN0016095N5-00725-00945100415ADDAA101000021AA206000021AU110030015AU200001015AW1105AW2715GA1045+004275999GA2085+008845999GD12991+0042759GD24991+0088459GE19AGL   +99999+99999GF199999999999004271999999KA1060M-00441KA2060N-00721MA1100375100075MD1890129+9999MW1715REMMET14701/29/22 12:56:02 METAR KMJX 291756Z      KT 1SM -SN BR SCT014 OVC029 M07/M09 A2964 RMK AO2 SLP041 P0000 60000 T10721094 11044 21072 58012 FZRANO $EQDQ01  00008PRCP06
0332720407004622022012918087+39928-074292FM-15+0025KMJX V0209999N99999009455MN0012075N5-00805-01005999999ADDAA101000021AU110030015AU200001015AW1105AW2715GA1045+004275999GA2045+006105999GA3085+009455999GD12991+0042759GD22991+0061059GD34991+0094559GE19AGL   +99999+99999GF199999999999004271999999MA1100415100115MW1715REMMET11301/29/22 13:08:02 METAR KMJX 291808Z      KT 3/4SM -SN BR SCT014 SCT020 OVC031 M08/M10 A2965 RMK AO2 P0000 FZRANO
0341720407004622022012918297+39928-074292FM-15+0025KMJX V0203105N00885004885MN0016095N5-00805-01005999999ADDAA101000021AU110030015AU200001015AW1105AW2715GA1075+004885999GA2075+007625999GA3085+009145999GD13991+0048859GD23991+0076259GD34991+0091459GE19AGL   +99999+99999GF199999999999004881999999MA1100375100075MW1715OC101345REMMET11401/29/22 13:29:02 METAR KMJX 291829Z 31017G26KT 1SM -SN BR BKN016 BKN025 OVC030 M08/M10 A2964 RMK AO2 P0000 FZRANO
0377720407004622022012918437+39928-074292FM-15+0025KMJX V0203105N00825007625MN0024145N5-00805-01005999999ADDAA101000021AU110030015AU200001015AW1105AW2715GA1045+004885999GA2075+007625999GA3085+010065999GD12991+0048859GD23991+0076259GD34991+0100659GE19AGL   +99999+99999GF199999999999004881999999MA1100375100075MW1715OC101605OD149901591310REMMET13601/29/22 13:43:02 METAR KMJX 291843Z 31016G31KT 1 1/2SM -SN BR SCT016 BKN025 OVC033 M08/M10 A2964 RMK AO2 PK WND 31031/1834 P0000 FZRANO
0327720407004622022012919407+39928-074292FM-15+0025KMJX V0203105N00935011285MN0032195V5-00805-01105999999ADDAA101000021AU110030015AW1715GA1025+005495999GA2085+011285999GD11991+0054959GD24991+0112859GE19AGL   +99999+99999GF199999999999005491999999MA1100415100115MW1715OC101545OD149901541310REMMET13401/29/22 14:40:02 METAR KMJX 291940Z 31018G30KT 2SM -SN FEW018 OVC037 M08/M11 A2965 RMK AO2 PK WND 31030/1938 VIS 1 1/4V4 P0000 FZRANO
0302720407004622022012919567+39928-074292FM-15+0025KMJX V0203105N00935011285MN0032195V5-00785-01175100485ADDAA101000021AU110030015AW1715GA1085+011285999GD14991+0112859GE19AGL   +99999+99999GF199999999999011281999999MA1100445100145MW1715OC101495OD149901541310REMMET14001/29/22 14:56:02 METAR KMJX 291956Z 31018G29KT 2SM -SN OVC037 M08/M12 A2966 RMK AO2 PK WND 31030/1938 VIS 1V5 SLP048 P0000 T10781117 FZRANO
0281720407004622022012920037+39928-074292FM-15+0025KMJX V0203105N01185010675MN0024145N5-00805-01205999999ADDAA101000021AU110030015AW1715GA1085+010675999GD14991+0106759GE19AGL   +99999+99999GF199999999999010671999999MA1100415100115MW1715OC101545OD149901541320REMMET11901/29/22 15:03:02 METAR KMJX 292003Z 31023G30KT 1 1/2SM -SN OVC035 M08/M12 A2965 RMK AO2 PK WND 32030/2003 P0000 FZRANO
0331720407004622022012920357+39928-074292FM-15+0025KMJX V0203005N00825011285MN0040235V5-00805-01205999999ADDAA101000021AU110030015AW1715GA1075+011285999GA2085+013725999GD13991+0112859GD24991+0137259GE19AGL   +99999+99999GF199999999999011281999999MA1100475100185MW1715OC101295OD149901541320REMMET13801/29/22 15:35:02 METAR KMJX 292035Z 30016G25KT 2 1/2SM -SN BKN037 OVC045 M08/M12 A2967 RMK AO2 PK WND 32030/2003 VIS 1 1/2V3 P0000 FZRANO
0315720407004622022012920437+39928-074292FM-15+0025KMJX V0203005N00825014335MN0064375N5-00805-01205999999ADDAA101000021AU110030015AW1715GA1045+011285999GA2085+014335999GD12991+0112859GD24991+0143359GE19AGL   +99999+99999GF199999999999011281999999MA1100475100185MW1715OC101135OD149901541320REMMET12201/29/22 15:43:02 METAR KMJX 292043Z 30016G22KT 4SM -SN SCT037 OVC047 M08/M12 A2967 RMK AO2 PK WND 32030/2003 P0000 FZRANO
0388720407004622022012920567+39928-074292FM-15+0025KMJX V0203005N00985014335MN0080475N5-00835-01285100495ADDAA101000021AA203000021AU110030015AW1715GA1075+014335999GA2085+016765999GD13991+0143359GD24991+0167659GE19AGL   +99999+99999GF199999999999014331999999MA1100445100145MD1390079+9999MW1715OC101345OD149901541320REMMET15101/29/22 15:56:02 METAR KMJX 292056Z 30019G26KT 5SM -SN BKN047 OVC055 M08/M13 A2966 RMK AO2 PK WND 32030/2003 SLP049 P0000 60000 T10831128 53007 FZRANOEQDQ01  00008PRCP03
0332720407004622022012922567+39928-074292FM-15+0025KMJX V0203005N00725027435MN0128755N5-00785-01615100595ADDAA101000021AU110030015AW1715GA1045+021345999GA2085+027435999GD12991+0213459GD24991+0274359GE19AGL   +99999+99999GF199999999999021341999999MA1100545100245MW1715OC101185OD149901331310REMMET13901/29/22 17:56:02 METAR KMJX 292256Z 30014G23KT 8SM -SN SCT070 OVC090 M08/M16 A2969 RMK AO2 PK WND 31026/2218 SLP059 P0000 T10781161 FZRANO
0336720407004622022012923567+39928-074292FM-15+0025KMJX V0203005N00885033535MN0160935N5-00785-01615100705ADDAA101000021AA206000021GA1085+033535999GD14991+0335359GE19AGL   +99999+99999GF199999999999033531999999KA1060M-00721KA2060N-00831MA1100645100345MD1390219+9999OC101085REMMET14101/29/22 18:56:02 METAR KMJX 292356Z 30017G21KT 10SM OVC110 M08/M16 A2972 RMK AO2 SNE16 SLP070 P0000 60000 T10781161 11072 21083 53021 FZRANOEQDQ01  00008PRCP06
0253720407004622022013000567+39928-074292FM-15+0025KMJX V0203105N007252200059N0160935N5-00785-01675100805ADDAA101000021GA1025+028965999GD11991+0289659GE19AGL   +99999+99999GF102995999999028961999999MA1100755100455REMMET11701/29/22 19:56:01 METAR KMJX 300056Z 31014KT 10SM FEW095 M08/M17 A2975 RMK AO2 SNB15E36 SLP080 P0000 T10781167 FZRANOEQDD01      0ADE726
0243720407004622022013001567+39928-074292FM-15+0025KMJX V0203105N007752200059N0128755N5-00895-01725100935ADDAA101000021AU110030015AW1715GA1005+999999999GD10991+9999999GF100991999999999999999999MA1100885100585MW1715OC101245REMMET11701/29/22 20:56:01 METAR KMJX 300156Z 31015G24KT 8SM -SN CLR M09/M17 A2979 RMK AO2 SNB07 SLP093 P0000 T10891172 FZRANO
0291720407004622022013002567+39928-074292FM-15+0025KMJX V0203105N007752200059N0160935N5-01005-01725101025ADDAA101000021AA203000021GA1005+999999999GD10991+9999999GF100991999999999999999999MA1100985100685MD1390339+9999OC100985REMMET14401/29/22 21:56:01 METAR KMJX 300256Z 31015G19KT 10SM CLR M10/M17 A2982 RMK AO2 PK WND 30029/0204 SNE19 SLP102 P0000 60000 T11001172 53033 FZRANOEQDQ01  00008PRCP03
0230720407004622022013004567+39928-074292FM-15+0025KMJX V0203105N006752200059N0160935N5-01175-01835101235ADDGA1005+999999999GD10991+9999999GF100991999999999999999999KA1240M-00111KA2240N-01171MA1101195100895OC101245REMMET11201/29/22 23:56:02 METAR KMJX 300456Z 31013G24KT 10SM CLR M12/M18 A2988 RMK AO2 SLP123 T11171183 410111117 FZRANO
005172040700462202201300459O+39928-074292SOD  +0025KMJX V020999999999999999999999999999+99999+99999999999ADDAT1AU18SN  5AT2AU22FZFG5AT3AU13BR  5AT4AW01FG  5
0337720407004622022013005567+39928-074292FM-15+0025KMJX V0203105N006752200059N0144845N5-01225-01835101265ADDAA101000021AA206000021AU110030015AW1715GA1005+999999999GD10991+9999999GF100991999999999999999999KA1060M-00781KA2060N-01221MA1101225100925MD1190239+9999MW1715OC101035REMMET14101/30/22 00:56:02 METAR KMJX 300556Z 31013G20KT 9SM -SN CLR M12/M18 A2989 RMK AO2 SNB25 SLP126 P0000 60000 T11221183 11078 21122 51023 FZRANOEQDQ01  00008PRCP06
0183720407004622022013007567+39928-074292FM-15+0025KMJX V0203005N006252200059N0160935N5-01285-01785101415ADDGA1005+999999999GD10991+9999999GF100991999999999999999999MA1101355101055REMMET09901/30/22 02:56:02 METAR KMJX 300756Z 30012KT 10SM CLR M13/M18 A2993 RMK AO2 SLP141 T11281178 FZRANO
0239720407004622022013008567+39928-074292FM-15+0025KMJX V0202905N004152200059N0160935N5-01335-01785101445ADDAA103000021GA1005+999999999GD10991+9999999GF100991999999999999999999MA1101395101095MD1190189+9999REMMET11101/30/22 03:56:02 METAR KMJX 300856Z 29008KT 10SM CLR M13/M18 A2994 RMK AO2 SLP144 60000 T11331178 51018 FZRANOEQDQ01  00008PRCP03
0183720407004622022013012567+39928-074292FM-15+0025KMJX V0202805N005152200059N0160935N5-01225-01725101845ADDGA1005+999999999GD10991+9999999GF100991999999999999999999MA1101795101495REMMET09901/30/22 07:56:02 METAR KMJX 301256Z 28010KT 10SM CLR M12/M17 A3006 RMK AO2 SLP184 T11221172 FZRANO
0183720407004622022013013567+39928-074292FM-15+0025KMJX V0202905N006252200059N0160935N5-00895-01675101895ADDGA1005+999999999GD10991+9999999GF100991999999999999999999MA1101835101535REMMET09901/30/22 08:56:02 METAR KMJX 301356Z 29012KT 10SM CLR M09/M17 A3007 RMK AO2 SLP189 T10891167 FZRANO
0203720407004622022013014567+39928-074292FM-15+0025KMJX V0202805N005752200059N0160935N5-00725-01565101915ADDGA1005+999999999GD10991+9999999GF100991999999999999999999MA1101865101565MD1190179+9999REMMET10501/30/22 09:56:02 METAR KMJX 301456Z 28011KT 10SM CLR M07/M16 A3008 RMK AO2 SLP191 T10721156 51017 FZRANO
0183720407004622022013015567+39928-074292FM-15+0025KMJX V0202905N005152200059N0160935N5-00675-01565101935ADDGA1005+999999999GD10991+9999999GF100991999999999999999999MA1101865101565REMMET09901/30/22 10:56:02 METAR KMJX 301556Z 29010KT 10SM CLR M07/M16 A3008 RMK AO2 SLP193 T10671156 FZRANO
0183720407004622022013016567+39928-074292FM-15+0025KMJX V0202705N005152200059N0160935N5-00565-01505101835ADDGA1005+999999999GD10991+9999999GF100991999999999999999999MA1101765101465REMMET09901/30/22 11:56:02 METAR KMJX 301656Z 27010KT 10SM CLR M06/M15 A3005 RMK AO2 SLP183 T10561150 FZRANO
0252720407004622022013017567+39928-074292FM-15+0025KMJX V0202605N006752200059N0160935N5-00335-01505101765ADDGA1005+999999999GD10991+9999999GF100991999999999999999999KA1060M-00331KA2060N-01441MA1101735101435MD1890149+9999OC100885REMMET12001/30/22 12:56:02 METAR KMJX 301756Z 26013G17KT 10SM CLR M03/M15 A3004 RMK AO2 SLP176 T10331150 11033 21144 58014 FZRANO
0183720407004622022013019567+39928-074292FM-15+0025KMJX V0202805N006252200059N0160935N5-00445-01615101765ADDGA1005+999999999GD10991+9999999GF100991999999999999999999MA1101695101395REMMET09901/30/22 14:56:02 METAR KMJX 301956Z 28012KT 10SM CLR M04/M16 A3003 RMK AO2 SLP176 T10441161 FZRANO
0257720407004622022013023564+39933-074300FM-15+002599999V0209999C000012200059N016093199-01221-01611102081ADDGD12991+0304819GE19AGL   +99999+99999GF104995999999030481999999KA1060M-00221KA2060N-01221MA1102031999999MD1310291+9999REMMET108METAR KMJX 302356Z AUTO 00000KT 10SM SCT100 M12/M16 A3013 RMK AO2 SLP208 T11221161 11022 21122 53029 FZRANO=EQDD01      0ADE726
0208720407004622022013103567+39928-074292FM-15+0025KMJX V0209999C00005024385MN0160935N5-00945-01335102345ADDGA1085+024385999GD14991+0243859GE19AGL   +99999+99999GF199999999999024381999999MA1102305102005REMMET10201/30/22 22:56:01 METAR KMJX 310356Z 00000KT 10SM OVC080 M09/M13 A3021 RMK AO2 SLP234 T10941133 FZRANO
0282720407004622022013104567+39928-074292FM-15+0025KMJX V0209999C00005036585MN0160935N5-00945-01285102385ADDGA1025+022865999GA2085+036585999GD11991+0228659GD24991+0365859GE19AGL   +99999+99999GF199999999999022861999999KA1240M-00221KA2240N-01441MA1102345102035REMMET11901/30/22 23:56:02 METAR KMJX 310456Z 00000KT 10SM FEW075 OVC120 M09/M13 A3022 RMK AO2 SLP238 T10941128 410221144 FZRANO
001572040700462202201310459O+39928-074292SOD  +0025KMJX V020999999999999999999999999999+99999+99999999999ADDAT1AU18SN  5
0266720407004622022013105567+39928-074292FM-15+0025KMJX V0209999C00005036585MN0160935N5-00945-01285102365ADDGA1085+036585999GD14991+0365859GE19AGL   +99999+99999GF199999999999036581999999KA1060M-00891KA2060N-01221MA1102305102005MD1090059+9999REMMET12001/31/22 00:56:02 METAR KMJX 310556Z 00000KT 10SM OVC120 M09/M13 A3021 RMK AO2 SLP236 T10941128 11089 21122 50005 FZRANO
0208720407004622022013106567+39928-074292FM-15+0025KMJX V0209999C00005033535MN0160935N5-01005-01285102395ADDGA1085+033535999GD14991+0335359GE19AGL   +99999+99999GF199999999999033531999999MA1102345102035REMMET10201/31/22 01:56:02 METAR KMJX 310656Z 00000KT 10SM OVC110 M10/M13 A3022 RMK AO2 SLP239 T11001128 FZRANO
0208720407004622022013107567+39928-074292FM-15+0025KMJX V0209999C00005033535MN0160935N5-01065-01335102405ADDGA1085+033535999GD14991+0335359GE19AGL   +99999+99999GF199999999999033531999999MA1102375102075REMMET10201/31/22 02:56:02 METAR KMJX 310756Z 00000KT 10SM OVC110 M11/M13 A3023 RMK AO2 SLP240 T11061133 FZRANO
0228720407004622022013108567+39928-074292FM-15+0025KMJX V0209999C00005033535MN0160935N5-01065-01335102435ADDGA1085+033535999GD14991+0335359GE19AGL   +99999+99999GF199999999999033531999999MA1102375102075MD1390079+9999REMMET10801/31/22 03:56:02 METAR KMJX 310856Z 00000KT 10SM OVC110 M11/M13 A3023 RMK AO2 SLP243 T11061133 53007 FZRANO
0208720407004622022013110567+39928-074292FM-15+0025KMJX V0209999C00005025915MN0160935N5-01115-01395102565ADDGA1085+025915999GD14991+0259159GE19AGL   +99999+99999GF199999999999025911999999MA1102515102205REMMET10201/31/22 05:56:02 METAR KMJX 311056Z 00000KT 10SM OVC085 M11/M14 A3027 RMK AO2 SLP256 T11111139 FZRANO
0183720407004622022013113567+39928-074292FM-15+0025KMJX V0209999C000052200059N0160935N5-00725-01115102785ADDGA1005+999999999GD10991+9999999GF100991999999999999999999MA1102715102415REMMET09901/31/22 08:56:02 METAR KMJX 311356Z 00000KT 10SM CLR M07/M11 A3033 RMK AO2 SLP278 T10721111 FZRANO
0203720407004622022013114567+39928-074292FM-15+0025KMJX V0209999C000052200059N0160935N5-00225-00945102845ADDGA1005+999999999GD10991+9999999GF100991999999999999999999MA1102815102515MD1190229+9999REMMET10501/31/22 09:56:02 METAR KMJX 311456Z 00000KT 10SM CLR M02/M09 A3036 RMK AO2 SLP284 T10221094 51022 FZRANO
0183720407004622022013115567+39928-074292FM-15+0025KMJX V0200405N003652200059N0160935N5-00175-00895102885ADDGA1005+999999999GD10991+9999999GF100991999999999999999999MA1102845102545REMMET09901/31/22 10:56:02 METAR KMJX 311556Z 04007KT 10SM CLR M02/M09 A3037 RMK AO2 SLP288 T10171089 FZRANO
0182720407004622022013118567+39928-074292FM-15+0025KMJX V0200405N004652200059N0160935N5+00065-00895102785ADDGA1005+999999999GD10991+9999999GF100991999999999999999999MA1102745102445REMMET09801/31/22 13:56:02 METAR KMJX 311856Z 04009KT 10SM CLR 01/M09 A3034 RMK AO2 SLP278 T00061089 FZRANO
0182720407004622022013119567+39928-074292FM-15+0025KMJX V0200705N003652200059N0160935N5+00065-00945102795ADDGA1005+999999999GD10991+9999999GF100991999999999999999999MA1102745102445REMMET09801/31/22 14:56:02 METAR KMJX 311956Z 07007KT 10SM CLR 01/M09 A3034 RMK AO2 SLP279 T00061094 FZRANO
0203720407004622022013120567+39928-074292FM-15+0025KMJX V0200605N003652200059N0160935N5-00115-00785102835ADDGA1005+999999999GD10991+9999999GF100991999999999999999999MA1102785102475MD1390019+9999REMMET10501/31/22 15:56:02 METAR KMJX 312056Z 06007KT 10SM CLR M01/M08 A3035 RMK AO2 SLP283 T10111078 53001 FZRANO
0183720407004622022013121567+39928-074292FM-15+0025KMJX V0200605N003152200059N0160935N5-00225-00785102905ADDGA1005+999999999GD10991+9999999GF100991999999999999999999MA1102845102545REMMET09901/31/22 16:56:02 METAR KMJX 312156Z 06006KT 10SM CLR M02/M08 A3037 RMK AO2 SLP290 T10221078 FZRANO
0183720407004622022020101567+39928-074292FM-15+0025KMJX V0200305N001552200059N0160935N5-00675-01065103125ADDGA1005+999999999GD10991+9999999GF100991999999999999999999MA1103055102745REMMET09901/31/22 20:56:01 METAR KMJX 010156Z 03003KT 10SM CLR M07/M11 A3043 RMK AO2 SLP312 T10671106 FZRANO
0208720407004622022020102567+39928-074292FM-15+0025KMJX V0203605N001552200059N0160935N5-00895-01175103155ADDGA1005+999999999GD10991+9999999GF100991999999999999999999MA1103125102815MD1290169+9999REMMET11001/31/22 21:56:01 METAR KMJX 010256Z 36003KT 10SM CLR M09/M12 A3045 RMK AO2 SLP315 T10891117 52016 FZRANO TSNO
0183720407004622022020103567+39928-074292FM-15+0025KMJX V0200105N001552200059N0160935N5-00945-01225103155ADDGA1005+999999999GD10991+9999999GF100991999999999999999999MA1103125102815REMMET09901/31/22 22:56:01 METAR KMJX 010356Z 01003KT 10SM CLR M09/M12 A3045 RMK AO2 SLP315 T10941122 FZRANO
0183720407004622022020106567+39928-074292FM-15+0025KMJX V0200105N001552200059N0160935N5-00895-01175103165ADDGA1005+999999999GD10991+9999999GF100991999999999999999999MA1103125102815REMMET09902/01/22 01:56:01 METAR KMJX 010656Z 01003KT 10SM CLR M09/M12 A3045 RMK AO2 SLP316 T10891117 FZRANO
0227720407004622022020107567+39928-074292FM-15+0025KMJX V0203605N001552200059N0160935N5-01005-01285103215ADDGA1045+009145999GD12991+0091459GE19AGL   +99999+99999GF104995999999009141999999MA1103155102845REMMET10202/01/22 02:56:01 METAR KMJX 010756Z 36003KT 10SM SCT030 M10/M13 A3046 RMK AO2 SLP321 T11001128 FZRANOEQDD01      0ADE726
0228720407004622022020108567+39928-074292FM-15+0025KMJX V0200205N00215009145MN0160935N5-00835-01115103215ADDGA1085+009145999GD14991+0091459GE19AGL   +99999+99999GF199999999999009141999999MA1103185102885MD1190069+9999REMMET10802/01/22 03:56:01 METAR KMJX 010856Z 02004KT 10SM OVC030 M08/M11 A3047 RMK AO2 SLP321 T10831111 51006 FZRANO
0208720407004622022020109567+39928-074292FM-15+0025KMJX V0200205N00215009145MN0160935N5-00835-01115103245ADDGA1085+009145999GD14991+0091459GE19AGL   +99999+99999GF199999999999009141999999MA1103185102885REMMET10202/01/22 04:56:01 METAR KMJX 010956Z 02004KT 10SM OVC030 M08/M11 A3047 RMK AO2 SLP324 T10831111 FZRANO
0227720407004622022020110567+39928-074292FM-15+0025KMJX V0203505N002152200059N0160935N5-00895-01115103295ADDGA1045+009145999GD12991+0091459GE19AGL   +99999+99999GF104995999999009141999999MA1103255102955REMMET10202/01/22 05:56:01 METAR KMJX 011056Z 35004KT 10SM SCT030 M09/M11 A3049 RMK AO2 SLP329 T10891111 FZRANOEQDD01      0ADE726
0266720407004622022020111567+39928-074292FM-15+0025KMJX V0203605N00155009145MN0160935N5-00945-01115103375ADDGA1075+009145999GD13991+0091459GE19AGL   +99999+99999GF199999999999009141999999KA1060M-00831KA2060N-01001MA1103325103015MD1390159+9999REMMET12002/01/22 06:56:01 METAR KMJX 011156Z 36003KT 10SM BKN030 M09/M11 A3051 RMK AO2 SLP337 T10941111 11083 21100 53015 FZRANO
0191720407004622022020112137+39928-074292FM-15+0025KMJX V0203605N00155008535MN0160935N5-00905-01105999999ADDGA1075+008535999GD13991+0085359GE19AGL   +99999+99999GF199999999999008531999999MA1103395103085REMMET08502/01/22 07:13:01 METAR KMJX 011213Z 36003KT 10SM BKN028 M09/M11 A3053 RMK AO2 FZRANO
0191720407004622022020113267+39928-074292FM-15+0025KMJX V0200105N00215009145MN0160935N5-00705-00905999999ADDGA1075+009145999GD13991+0091459GE19AGL   +99999+99999GF199999999999009141999999MA1103425103125REMMET08502/01/22 08:26:01 METAR KMJX 011326Z 01004KT 10SM BKN030 M07/M09 A3054 RMK AO2 FZRANO
0208720407004622022020113567+39928-074292FM-15+0025KMJX V0200205N00315009145MN0160935N5-00505-00835103465ADDGA1075+009145999GD13991+0091459GE19AGL   +99999+99999GF199999999999009141999999MA1103425103125REMMET10202/01/22 08:56:01 METAR KMJX 011356Z 02006KT 10SM BKN030 M05/M08 A3054 RMK AO2 SLP346 T10501083 FZRANO
0207720407004622022020118567+39928-074292FM-15+0025KMJX V0200405N00515010365MN0160935N5+00175-00285103345ADDGA1085+010365999GD14991+0103659GE19AGL   +99999+99999GF199999999999010361999999MA1103285102985REMMET10102/01/22 13:56:02 METAR KMJX 011856Z 04010KT 10SM OVC034 02/M03 A3050 RMK AO2 SLP334 T00171028 FZRANO
0207720407004622022020119567+39928-074292FM-15+0025KMJX V0200405N00415010365MN0160935N5+00175-00285103345ADDGA1085+010365999GD14991+0103659GE19AGL   +99999+99999GF199999999999010361999999MA1103285102985REMMET10102/01/22 14:56:02 METAR KMJX 011956Z 04008KT 10SM OVC034 02/M03 A3050 RMK AO2 SLP334 T00171028 FZRANO
0227720407004622022020120567+39928-074292FM-15+0025KMJX V0200405N00415009755MN0160935N5+00225-00285103295ADDGA1085+009755999GD14991+0097559GE19AGL   +99999+99999GF199999999999009751999999MA1103255102955MD1690129+9999REMMET10702/01/22 15:56:02 METAR KMJX 012056Z 04008KT 10SM OVC032 02/M03 A3049 RMK AO2 SLP329 T00221028 56012 FZRANO
0182720407004622022020121567+39928-074292FM-15+0025KMJX V0200605N002652200059N0160935N5+00065-00335103305ADDGA1005+999999999GD10991+9999999GF100991999999999999999999MA1103255102955REMMET09802/01/22 16:56:02 METAR KMJX 012156Z 06005KT 10SM CLR 01/M03 A3049 RMK AO2 SLP330 T00061033 FZRANO
0183720407004622022020122567+39928-074292FM-15+0025KMJX V0200605N001552200059N0160935N5-00175-00395103335ADDGA1005+999999999GD10991+9999999GF100991999999999999999999MA1103285102985REMMET09902/01/22 17:56:02 METAR KMJX 012256Z 06003KT 10SM CLR M02/M04 A3050 RMK AO2 SLP333 T10171039 FZRANO
0183720407004622022020200567+39928-074292FM-15+0025KMJX V0200205N001552200059N0160935N5-00395-00505103455ADDGA1005+999999999GD10991+9999999GF100991999999999999999999MA1103425103125REMMET09902/01/22 19:56:01 METAR KMJX 020056Z 02003KT 10SM CLR M04/M05 A3054 RMK AO2 SLP345 T10391050 FZRANO
0182720407004622022020201567+39928-074292FM-15+0025KMJX V0203005N001552200059N0128755N5-00615-00725103435ADDGA1005+999999999GD10991+9999999GF100991999999999999999999MA1103395103085REMMET09802/01/22 20:56:01 METAR KMJX 020156Z 30003KT 8SM CLR M06/M07 A3053 RMK AO2 SLP343 T10611072 FZRANO
0185720407004622022020202527+39928-074292FM-15+0025KMJX V0209999C000052200059N0032195N5-00705-00805999999ADDAU100001015AW1105GA1005+999999999GD10991+9999999GF100991999999999999999999MA1103395103085REMMET08402/01/22 21:52:01 METAR KMJX 020252Z 00000KT 2SM BR CLR M07/M08 A3053 RMK AO2 FZRANO
0195720407004622022020203437+39928-074292FM-15+0025KMJX V0209999C000052200059N0032195V5-00805-00905999999ADDAU100001015AW1105GA1005+999999999GD10991+9999999GF100991999999999999999999MA1103325103015REMMET09402/01/22 22:43:01 METAR KMJX 020343Z 00000KT 2SM BR CLR M08/M09 A3051 RMK AO2 VIS 3/4V5 FZRANO
0166720407004622022020204137+39928-074292FM-15+0025KMJX V0209999C000052200059N0160935N5-00905-00905999999ADDGA1005+999999999GD10991+9999999GF100991999999999999999999MA1103325103015REMMET08202/01/22 23:13:02 METAR KMJX 020413Z 00000KT 10SM CLR M09/M09 A3051 RMK AO2 FZRANO
001572040700462202202020459O+39928-074292SOD  +0025KMJX V020999999999999999999999999999+99999+99999999999ADDAT1AU13BR  5
0183720407004622022020206567+39928-074292FM-15+0025KMJX V0209999C000052200059N0160935N5-00945-01065103315ADDGA1005+999999999GD10991+9999999GF100991999999999999999999MA1103255102955REMMET09902/02/22 01:56:02 METAR KMJX 020656Z 00000KT 10SM CLR M09/M11 A3049 RMK AO2 SLP331 T10941106 FZRANO
0183720407004622022020207567+39928-074292FM-15+0025KMJX V0209999C000052200059N0160935N5-00945-01065103265ADDGA1005+999999999GD10991+9999999GF100991999999999999999999MA1103225102915REMMET09902/02/22 02:56:02 METAR KMJX 020756Z 00000KT 10SM CLR M09/M11 A3048 RMK AO2 SLP326 T10941106 FZRANO
0248720407004622022020208437+39928-074292FM-15+0025KMJX V0209999C000052200059N0160935N5-00905-01105999999ADDGA1025+000305999GA2045+002135999GD11991+0003059GD22991+0021359GE19AGL   +99999+99999GF104995999999000301999999MA1103155102845REMMET09202/02/22 03:43:02 METAR KMJX 020843Z 00000KT 10SM FEW001 SCT007 M09/M11 A3046 RMK AO2 FZRANOEQDD01      0ADE726
0229720407004622022020209137+39928-074292FM-15+0025KMJX V0209999C00005000305MN0160935N5-01005-01105999999ADDGA1075+000305999GA2085+002135999GD13991+0003059GD24991+0021359GE19AGL   +99999+99999GF199999999999000301999999MA1103155102845REMMET09202/02/22 04:13:02 METAR KMJX 020913Z 00000KT 10SM BKN001 OVC007 M10/M11 A3046 RMK AO2 FZRANO
0241720407004622022020209227+39928-074292FM-15+0025KMJX V0209999C00005002135MN0160935N5-00905-01105999999ADDGA1045+000305999GA2085+002135999GD12991+0003051GD24991+0021359GE19AGL   +99999+99999GF199999999999000301999999MA1103155102845REMMET10402/02/22 04:22:02 METAR KMJX 020922Z 00000KT 10SM SCT001 OVC007 M09/M11 A3046 RMK AO2 CIG 004V010 FZRANO
0207720407004622022020209567+39928-074292FM-15+0025KMJX V0209999C00005000305MN0144845N5-00945-01065103225ADDGA1085+000305999GD14991+0003059GE19AGL   +99999+99999GF199999999999000301999999MA1103185102885REMMET10102/02/22 04:56:02 METAR KMJX 020956Z 00000KT 9SM OVC001 M09/M11 A3047 RMK AO2 SLP322 T10941106 FZRANO
0214720407004622022020210007+39928-074292FM-15+0025KMJX V0209999C00005000615MN0040235N5-00905-01005999999ADDAU100001015AW1105GA1085+000615999GD14991+0006159GE19AGL   +99999+99999GF199999999999000611999999MA1103185102885REMMET09102/02/22 05:00:02 METAR KMJX 021000Z 00000KT 2 1/2SM BR OVC002 M09/M10 A3047 RMK AO2 FZRANO
0214720407004622022020210047+39928-074292FM-15+0025KMJX V0203605N00155000615MN0008055N5-00905-01005999999ADDAU108002015AW1355GA1085+000615999GD14991+0006159GE19AGL   +99999+99999GF199999999999000611999999MA1103155102845REMMET09102/02/22 05:04:02 METAR KMJX 021004Z 36003KT 1/2SM FZFG OVC002 M09/M10 A3046 RMK AO2 FZRANO
0231720407004622022020210567+39928-074292FM-15+0025KMJX V0209999C00005000615MN0004025N5-00725-00835103225ADDAU108002015AW1355GA1085+000615999GD14991+0006159GE19AGL   +99999+99999GF199999999999000611999999MA1103185102885REMMET10802/02/22 05:56:02 METAR KMJX 021056Z 00000KT 1/4SM FZFG OVC002 M07/M08 A3047 RMK AO2 SLP322 T10721083 FZRANO
0214720407004622022020211457+39928-074292FM-15+0025KMJX V0209999C00005000615MN0004025N5-00605-00705999999ADDAU108002015AW1355GA1085+000615999GD14991+0006159GE19AGL   +99999+99999GF199999999999000611999999MA1103155102845REMMET09102/02/22 06:45:02 METAR KMJX 021145Z 00000KT 1/4SM FZFG OVC002 M06/M07 A3046 RMK AO2 FZRANO
0212720407004622022020212437+39928-074292FM-15+0025KMJX V0209999C00005000615MN0012075N5-00405-00405999999ADDAU100001015AW1105GA1085+000615999GD14991+0006159GE19AGL   +99999+99999GF199999999999000611999999MA1103155102845REMMET08902/02/22 07:43:02 METAR KMJX 021243Z 00000KT 3/4SM BR OVC002 M04/M04 A3046 RMK AO2 FZRANO
0266720407004622022020212487+39928-074292FM-15+0025KMJX V0209999C00005000615MN0020125V5-00305-00405999999ADDAU100001015AW1105GA1075+000615999GA2085+008845999GD13991+0006159GD24991+0088459GE19AGL   +99999+99999GF199999999999000611999999MA1103155102845REMMET11202/02/22 07:48:02 METAR KMJX 021248Z 00000KT 1 1/4SM BR BKN002 OVC029 M03/M04 A3046 RMK AO2 VIS 1/2V2 1/2 FZRANO
0212720407004622022020213107+39928-074292FM-15+0025KMJX V0209999C00005000615MN0012075N5-00205-00305999999ADDAU100001015AW1105GA1085+000615999GD14991+0006159GE19AGL   +99999+99999GF199999999999000611999999MA1103185102885REMMET08902/02/22 08:10:02 METAR KMJX 021310Z 00000KT 3/4SM BR OVC002 M02/M03 A3047 RMK AO2 FZRANO
0214720407004622022020213137+39928-074292FM-15+0025KMJX V0209999C00005000615MN0024145N5-00205-00305999999ADDAU100001015AW1105GA1085+000615999GD14991+0006159GE19AGL   +99999+99999GF199999999999000611999999MA1103185102885REMMET09102/02/22 08:13:02 METAR KMJX 021313Z 00000KT 1 1/2SM BR OVC002 M02/M03 A3047 RMK AO2 FZRANO
0268720407004622022020213567+39928-074292FM-15+0025KMJX V0209999C00005000615MN0024145N5+00065-00065103185ADDAU100001015AW1105GA1075+000615999GA2085+007925999GD13991+0006159GD24991+0079259GE19AGL   +99999+99999GF199999999999000611999999MA1103155102845REMMET11402/02/22 08:56:02 METAR KMJX 021356Z 00000KT 1 1/2SM BR BKN002 OVC026 01/M01 A3046 RMK AO2 SLP318 T00061006 FZRANO
0201720407004622022020214417+39928-074292FM-15+0025KMJX V0209999C00005000615MN0048285N5+00305+00205999999ADDAU100001015AW1105GA1085+000615999GD14991+0006159GE19AGL   +99999+99999GF199999999999000611999999MA1103185102885REMMET07802/02/22 09:41:02 METAR KMJX 021441Z 00000KT 3SM BR OVC002 03/02 A3047 RMK AO2
0277720407004622022020215057+39928-074292FM-15+0025KMJX V0209999C00005002445MN0064375N5+00305+00205999999ADDAU100001015AW1105GA1045+000615999GA2075+002445999GA3075+011585999GD12991+0006159GD23991+0024459GD33991+0115859GE19AGL   +99999+99999GF199999999999000611999999MA1103225102915REMMET09202/02/22 10:05:02 METAR KMJX 021505Z 00000KT 4SM BR SCT002 BKN008 BKN038 03/02 A3048 RMK AO2
0239720407004622022020215247+39928-074292FM-15+0025KMJX V0209999C00005011585MN0080475N5+00405+00305999999ADDAU100001015AW1105GA1045+002445999GA2075+011585999GD12991+0024459GD23991+0115859GE19AGL   +99999+99999GF199999999999002441999999MA1103185102885REMMET08502/02/22 10:24:02 METAR KMJX 021524Z 00000KT 5SM BR SCT008 BKN038 04/03 A3047 RMK AO2
0275720407004622022020215567+39928-074292FM-15+0025KMJX V0209999C00005008535MN0160935N5+00785+00445103215ADDGA1025+002445999GA2075+008535999GA3085+011585999GD11991+0024459GD23991+0085359GD34991+0115859GE19AGL   +99999+99999GF199999999999002441999999MA1103155102845REMMET10702/02/22 10:56:02 METAR KMJX 021556Z 00000KT 10SM FEW008 BKN028 OVC038 08/04 A3046 RMK AO2 SLP321 T00780044
0239720407004622022020216477+39928-074292FM-15+0025KMJX V0209999V002152200059N0160935N5+00905+00405999999ADDGA1045+007925999GA2045+009755999GD12991+0079259GD22991+0097559GE19AGL   +99999+99999GF104995999999007921999999MA1103055102745REMMET08302/02/22 11:47:02 METAR KMJX 021647Z VRB04KT 10SM SCT026 SCT032 09/04 A3043 RMK AO2EQDD01      0ADE726
0275720407004622022020216567+39928-074292FM-15+0025KMJX V0201205N00315007925MN0160935N5+01006+00445103095ADDGA1045+006715999GA2075+007925999GA3075+009755999GD12991+0067159GD23991+0079259GD33991+0097559GE19AGL   +99999+99999GF199999999999006711999999MA1103055102745REMMET10702/02/22 11:56:02 METAR KMJX 021656Z 12006KT 10SM SCT022 BKN026 BKN032 10/04 A3043 RMK AO2 SLP309 T01000044
0199720407004622022020219567+39928-074292FM-15+0025KMJX V0201305N00265004275MN0160935N5+00895+00505102985ADDGA1085+004275999GD14991+0042759GE19AGL   +99999+99999GF199999999999004271999999MA1102955102645REMMET09302/02/22 14:56:02 METAR KMJX 021956Z 13005KT 10SM OVC014 09/05 A3040 RMK AO2 SLP298 T00890050
0182720407004622022020220337+39928-074292FM-15+0025KMJX V0201305N00315004885MN0160935N5+00805+00505999999ADDGA1085+004885999GD14991+0048859GE19AGL   +99999+99999GF199999999999004881999999MA1102845102545REMMET07602/02/22 15:33:02 METAR KMJX 022033Z 13006KT 10SM OVC016 08/05 A3037 RMK AO2
0182720407004622022020220467+39928-074292FM-15+0025KMJX V0201205N00315004275MN0160935N5+00805+00605999999ADDGA1085+004275999GD14991+0042759GE19AGL   +99999+99999GF199999999999004271999999MA1102815102515REMMET07602/02/22 15:46:02 METAR KMJX 022046Z 12006KT 10SM OVC014 08/06 A3036 RMK AO2
0257720407004622022020220567+39928-074292FM-15+0025KMJX V0201205N00265004275MN0160935N5+00785+00565102845ADDGA1075+004275999GA2085+007015999GD13991+0042759GD24991+0070159GE19AGL   +99999+99999GF199999999999004271999999MA1102815102515MD1890209+9999REMMET10602/02/22 15:56:02 METAR KMJX 022056Z 12005KT 10SM BKN014 OVC023 08/06 A3036 RMK AO2 SLP284 T00780056 58020
0220720407004622022020221277+39928-074292FM-15+0025KMJX V0201305N00215004275MN0160935N5+00705+00605999999ADDGA1045+002445999GA2085+004275999GD12991+0024459GD24991+0042759GE19AGL   +99999+99999GF199999999999002441999999MA1102815102515REMMET08302/02/22 16:27:02 METAR KMJX 022127Z 13004KT 10SM SCT008 OVC014 07/06 A3036 RMK AO2
0199720407004622022020221567+39928-074292FM-15+0025KMJX V0209999C00005001835MN0160935N5+00615+00505102895ADDGA1085+001835999GD14991+0018359GE19AGL   +99999+99999GF199999999999001831999999MA1102845102545REMMET09302/02/22 16:56:02 METAR KMJX 022156Z 00000KT 10SM OVC006 06/05 A3037 RMK AO2 SLP289 T00610050
0181720407004622022020222077+39928-074292FM-15+0025KMJX V0209999C00005001225MN0128755N5+00605+00505999999ADDGA1085+001225999GD14991+0012259GE19AGL   +99999+99999GF199999999999001221999999MA1102845102545REMMET07502/02/22 17:07:02 METAR KMJX 022207Z 00000KT 8SM OVC004 06/05 A3037 RMK AO2
0205720407004622022020222237+39928-074292FM-15+0025KMJX V0209999C00005001225MN0028165N5+00605+00505999999ADDAU100001015AW1105GA1085+001225999GD14991+0012259GE19AGL   +99999+99999GF199999999999001221999999MA1102845102545REMMET08202/02/22 17:23:02 METAR KMJX 022223Z 00000KT 1 3/4SM BR OVC004 06/05 A3037 RMK AO2
0203720407004622022020222297+39928-074292FM-15+0025KMJX V0209999C00005001225MN0012075N5+00605+00505999999ADDAU100001015AW1105GA1085+001225999GD14991+0012259GE19AGL   +99999+99999GF199999999999001221999999MA1102845102545REMMET08002/02/22 17:29:02 METAR KMJX 022229Z 00000KT 3/4SM BR OVC004 06/05 A3037 RMK AO2
0358720407004622022020223567+39928-074292FM-15+0025KMJX V0209999C00005001225MN0004025N5+00335+00335102885ADDAA101000021AA206000021AU110020015AU200002015AW1305AW2615GA1085+001225999GD14991+0012259GE19AGL   +99999+99999GF199999999999001221999999KA1060M+00941KA2060N+00331MA1102845102545MD1190059+9999MW1615REMMET13102/02/22 18:56:02 METAR KMJX 022356Z 00000KT 1/4SM -RA FG OVC004 03/03 A3037 RMK AO2 SLP288 P0000 60000 T00330033 10094 20033 51005EQDQ01  00008PRCP06
0247720407004622022020300537+39928-074292FM-15+0025KMJX V0209999C00005000615MN0004025N5+00305+00305999999ADDAA101000021AU110020015AU200002015AW1305AW2615GA1085+000615999GD14991+0006159GE19AGL   +99999+99999GF199999999999000611999999MA1102785102475MW1615REMMET09002/02/22 19:53:01 METAR KMJX 030053Z 00000KT 1/4SM -RA FG OVC002 03/03 A3035 RMK AO2 P0000
0264720407004622022020300567+39928-074292FM-15+0025KMJX V0209999C00005000615MN0004025N5+00285+00285102815ADDAA101000021AU110020015AU200002015AW1305AW2615GA1085+000615999GD14991+0006159GE19AGL   +99999+99999GF199999999999000611999999MA1102785102475MW1615REMMET10702/02/22 19:56:01 METAR KMJX 030056Z 00000KT 1/4SM -RA FG OVC002 03/03 A3035 RMK AO2 SLP281 P0000 T00280028
0300720407004622022020304567+39928-074292FM-15+0025KMJX V0209999C00005000615MN0004025N5+00335+00285102685ADDAA101000021AU110020015AU200002015AW1305AW2615GA1085+000615999GD14991+0006159GE19AGL   +99999+99999GF199999999999000611999999KA1240M+01001KA2240N-01001MA1102645102345MW1615REMMET11702/02/22 23:56:02 METAR KMJX 030456Z 00000KT 1/4SM -RA FG OVC002 03/03 A3031 RMK AO2 SLP268 P0000 T00330028 401001100
005172040700462202202030459O+39928-074292SOD  +0025KMJX V020999999999999999999999999999+99999+99999999999ADDAT1AU16RA  5AT2AU01FG  5AT3AU22FZFG5AT4AU13BR  5
0236720407004622022020306367+39928-074292FM-15+0025KMJX V0209999C00005000615MN0012075N5+00205+00205999999ADDAA101000021AU100001015AW1105GA1085+000615999GD14991+0006159GE19AGL   +99999+99999GF199999999999000611999999MA1102645102345REMMET10202/03/22 01:36:02 METAR KMJX 030636Z 00000KT 3/4SM BR OVC002 02/02 A3031 RMK AO2 RAB00E31 P0000 FZRANO
0253720407004622022020306567+39928-074292FM-15+0025KMJX V0209999C00005000615MN0008055N5+00225+00225102675ADDAA101000021AU100002015AW1305GA1085+000615999GD14991+0006159GE19AGL   +99999+99999GF199999999999000611999999MA1102645102345REMMET11902/03/22 01:56:02 METAR KMJX 030656Z 00000KT 1/2SM FG OVC002 02/02 A3031 RMK AO2 RAB00E31 SLP267 P0000 T00220022 FZRANO
0255720407004622022020307147+39928-074292FM-15+0025KMJX V0209999C00005000615MN0004025N5+00305+00205999999ADDAA101000021AU110020015AU200002015AW1305AW2615GA1085+000615999GD14991+0006159GE19AGL   +99999+99999GF199999999999000611999999MA1102615102305MW1615REMMET09802/03/22 02:14:02 METAR KMJX 030714Z 00000KT 1/4SM -RA FG OVC002 03/02 A3030 RMK AO2 RAB0657 P0000
0262720407004622022020307237+39928-074292FM-15+0025KMJX V0209999C00005001225MN0008055N5+00205+00205999999ADDAA101000021AU110020015AU200002015AW1305AW2615GA1085+001225999GD14991+0012259GE19AGL   +99999+99999GF199999999999001221999999MA1102615102305MW1615REMMET10502/03/22 02:23:02 METAR KMJX 030723Z 00000KT 1/2SM -RA FG OVC004 02/02 A3030 RMK AO2 RAB0657 P0000 FZRANO
0262720407004622022020307387+39928-074292FM-15+0025KMJX V0209999C00005000615MN0008055N5+00205+00205999999ADDAA101000021AU110020015AU200002015AW1305AW2615GA1085+000615999GD14991+0006159GE19AGL   +99999+99999GF199999999999000611999999MA1102615102305MW1615REMMET10502/03/22 02:38:02 METAR KMJX 030738Z 00000KT 1/2SM -RA FG OVC002 02/02 A3030 RMK AO2 RAB0657 P0000 FZRANO
0272720407004622022020307567+39928-074292FM-15+0025KMJX V0202005N00155000615MN0008055N5+00285+00285102645ADDAA101000021AU110020015AU200002015AW1305AW2615GA1085+000615999GD14991+0006159GE19AGL   +99999+99999GF199999999999000611999999MA1102615102305MW1615REMMET11502/03/22 02:56:02 METAR KMJX 030756Z 20003KT 1/2SM -RA FG OVC002 03/03 A3030 RMK AO2 RAB0657 SLP264 P0000 T00280028
0254720407004622022020308057+39928-074292FM-15+0025KMJX V0209999C00005000615MN0004025N5+00205+00205999999ADDAA101000021AU110020015AU200002015AW1305AW2615GA1085+000615999GD14991+0006159GE19AGL   +99999+99999GF199999999999000611999999MA1102575102275MW1615REMMET09702/03/22 03:05:02 METAR KMJX 030805Z 00000KT 1/4SM -RA FG OVC002 02/02 A3029 RMK AO2 P0000 FZRANO
0271720407004622022020308347+39928-074292FM-15+0025KMJX V0209999C00005000615MN0008055N5+00205+00205999999ADDAA101000021AU100002015AW1305GA1075+000615999GA2085+010365999GD13991+0006159GD24991+0103659GE19AGL   +99999+99999GF199999999999000611999999MA1102615102305REMMET10602/03/22 03:34:02 METAR KMJX 030834Z 00000KT 1/2SM FG BKN002 OVC034 02/02 A3030 RMK AO2 RAE15 P0000 FZRANO
0248720407004622022020309347+39928-074292FM-15+0025KMJX V0209999C00005024385MN0008055N5+00205+00205999999ADDAU100002015AW1305GA1025+010365999GA2085+024385999GD11991+0103659GD24991+0243859GE19AGL   +99999+99999GF199999999999010361999999MA1102615102305REMMET09402/03/22 04:34:02 METAR KMJX 030934Z 00000KT 1/2SM FG FEW034 OVC080 02/02 A3030 RMK AO2 FZRANO
0267720407004622022020309567+39928-074292FM-15+0025KMJX V0209999C00005024385MN0024145N5+00175+00175102625ADDAU100001015AW1105GA1045+015245999GA2085+024385999GD12991+0152459GD24991+0243859GE19AGL   +99999+99999GF199999999999015241999999MA1102575102275REMMET11302/03/22 04:56:02 METAR KMJX 030956Z 00000KT 1 1/2SM BR SCT050 OVC080 02/02 A3029 RMK AO2 SLP262 T00170017 FZRANO
0308720407004622022020311297+39928-074292FM-15+0025KMJX V0209999C00005018295MN0028165N5+00205+00205999999ADDAA101000021AU110020015AU200001015AW1105AW2615GA1075+018295999GA2085+021345999GD13991+0182959GD24991+0213459GE19AGL   +99999+99999GF199999999999018291999999MA1102615102305MW1615REMMET12002/03/22 06:29:02 METAR KMJX 031129Z 00000KT 1 3/4SM -RA BR BKN060 OVC070 02/02 A3030 RMK AO2 UPB20E27RAB27 P0000 FZRANO
0323720407004622022020311447+39928-074292FM-15+0025KMJX V0209999C00005021345MN0020125V5+00205+00205999999ADDAA101000021AU120090015AU200001015AW1105AW2401AW3415GA1025+016765999GA2085+021345999GD11991+0167659GD24991+0213459GE19AGL   +99999+99999GF199999999999016761999999MA1102615102305REMMET13502/03/22 06:44:02 METAR KMJX 031144Z 00000KT 1 1/4SM UP BR FEW055 OVC070 02/02 A3030 RMK AO2 VIS 1/2V5 UPB20E27B43RAB27E43 P0000 FZRANO
0309720407004622022020311477+39928-074292FM-15+0025KMJX V0209999C00005021345MN0048285N5+00205+00205999999ADDAA101000021AU120090015AU200001015AW1105AW2401AW3415GA1025+015245999GA2085+021345999GD11991+0152459GD24991+0213459GE19AGL   +99999+99999GF199999999999015241999999MA1102615102305REMMET12102/03/22 06:47:02 METAR KMJX 031147Z 00000KT 3SM UP BR FEW050 OVC070 02/02 A3030 RMK AO2 UPB20E27B43RAB27E43 P0000 FZRANO
0387720407004622022020311567+39928-074292FM-15+0025KMJX V0209999C00005021345MN0128755N5+00175+00175102665ADDAA101000021AA206000021AU120090015AW1401AW2415GA1025+015245999GA2085+021345999GD11991+0152459GD24991+0213459GE19AGL   +99999+99999GF199999999999015241999999KA1060M+00281MA1102615102305MD1390039+9999REMMET15902/03/22 06:56:02 METAR KMJX 031156Z 00000KT 8SM UP FEW050 OVC070 02/02 A3030 RMK AO2 UPB20E27B43RAB27E43 SLP266 P0000 60000 T00170017 10028 20017 53003 FZRANOEQDQ01  00008PRCP06
0319720407004622022020313567+39928-074292FM-15+0025KMJX V0209999C00005013415MN0024145N5+00445+00395102695ADDAA101000395AU110020015AU200001015AW1105AW2615GA1075+013415999GA2085+016765999GD13991+0134159GD24991+0167659GE19AGL   +99999+99999GF199999999999013411999999MA1102645102345MW1615REMMET13102/03/22 08:56:02 METAR KMJX 031356Z 00000KT 1 1/2SM -RA BR BKN044 OVC055 04/04 A3031 RMK AO2 UPE1259RAB1259 SLP269 P0001 T00440039
0323720407004622022020314027+39928-074292FM-15+0025KMJX V0209999C00005016765MN0008055N5+00405+00405999999ADDAA101000021AU110020015AU200002015AW1305AW2615GA1025+005495999GA2075+016765999GA3085+021345999GD11991+0054959GD23991+0167659GD34991+0213459GE19AGL   +99999+99999GF199999999999005491999999MA1102645102345MW1615REMMET10402/03/22 09:02:02 METAR KMJX 031402Z 00000KT 1/2SM -RA FG FEW018 BKN055 OVC070 04/04 A3031 RMK AO2 P0000
0323720407004622022020314087+39928-074292FM-15+0025KMJX V0201505N00155012195MN0012075N5+00405+00405999999ADDAA101000021AU110020015AU200001015AW1105AW2615GA1025+000615999GA2075+012195999GA3085+019815999GD11991+0006159GD23991+0121959GD34991+0198159GE19AGL   +99999+99999GF199999999999000611999999MA1102645102345MW1615REMMET10402/03/22 09:08:02 METAR KMJX 031408Z 15003KT 3/4SM -RA BR FEW002 BKN040 OVC065 04/04 A3031 RMK AO2 P0000
0335720407004622022020314167+39928-074292FM-15+0025KMJX V0201505N00155012195MN0020125V5+00505+00405999999ADDAA101000021AU110020015AU200001015AW1105AW2615GA1045+000615999GA2075+012195999GA3085+019815999GD12991+0006159GD23991+0121959GD34991+0198159GE19AGL   +99999+99999GF199999999999000611999999MA1102645102345MW1615REMMET11602/03/22 09:16:02 METAR KMJX 031416Z 15003KT 1 1/4SM -RA BR SCT002 BKN040 OVC065 05/04 A3031 RMK AO2 VIS 1/2V4 P0000
0349720407004622022020314197+39928-074292FM-15+0025KMJX V0201605N00155004885MN0040235V5+00505+00505999999ADDAA101000021AU110020015AU200001015AW1105AW2615GA1045+000615999GA2075+004885999GA3085+016765999GD12991+0006151GD23991+0048859GD34991+0167659GE19AGL   +99999+99999GF199999999999000611999999MA1102645102345MW1615REMMET13002/03/22 09:19:02 METAR KMJX 031419Z 16003KT 2 1/2SM -RA BR SCT002 BKN016 OVC055 05/05 A3031 RMK AO2 VIS 1 1/4V5 CIG 009V029 P0000
0333720407004622022020314227+39928-074292FM-15+0025KMJX V0201605N00155004275MN0048285N5+00505+00505999999ADDAA101000021AU110020015AU200001015AW1105AW2615GA1045+000615999GA2075+004275999GA3085+016765999GD12991+0006151GD23991+0042759GD34991+0167659GE19AGL   +99999+99999GF199999999999000611999999MA1102645102345MW1615REMMET11402/03/22 09:22:02 METAR KMJX 031422Z 16003KT 3SM -RA BR SCT002 BKN014 OVC055 05/05 A3031 RMK AO2 CIG 009V020 P0000
0316720407004622022020314567+39928-074292FM-15+0025KMJX V0201505N00215000615MN0160935N5+00675+00615102635ADDAA101000021AA203000391GA1075+000615999GA2085+025915999GD13991+0006159GD24991+0259159GE19AGL   +99999+99999GF199999999999000611999999MA1102575102275MD1890039+9999REMMET12402/03/22 09:56:02 METAR KMJX 031456Z 15004KT 10SM BKN002 OVC085 07/06 A3029 RMK AO2 RAE32 SLP263 P0000 60001 T00670061 58003EQDQ01  00028PRCP03
0182720407004622022020315317+39928-074292FM-15+0025KMJX V0209999C00005001225MN0160935N5+00805+00705999999ADDGA1075+001225999GD13991+0012259GE19AGL   +99999+99999GF199999999999001221999999MA1102575102275REMMET07602/03/22 10:31:02 METAR KMJX 031531Z 00000KT 10SM BKN004 08/07 A3029 RMK AO2
0199720407004622022020315567+39928-074292FM-15+0025KMJX V0201305N00215001225MN0160935N5+00835+00785102605ADDGA1085+001225999GD14991+0012259GE19AGL   +99999+99999GF199999999999001221999999MA1102545102245REMMET09302/03/22 10:56:02 METAR KMJX 031556Z 13004KT 10SM OVC004 08/08 A3028 RMK AO2 SLP260 T00830078
0301720407004622022020316567+39928-074292FM-15+0025KMJX V0201605N00315006715MN0160935N5+00895+00835102445ADDAA101000021GA1025+003055999GA2075+006715999GA3085+025915999GD11991+0030559GD23991+0067159GD34991+0259159GE19AGL   +99999+99999GF199999999999003051999999MA1102405102105REMMET12202/03/22 11:56:02 METAR KMJX 031656Z 16006KT 10SM FEW010 BKN022 OVC085 09/08 A3024 RMK AO2 RAB21E39 SLP244 P0000 T00890083
0220720407004622022020317537+39928-074292FM-15+0025KMJX V0201605N00465003055MN0160935N5+00905+00805999999ADDGA1075+003055999GA2085+019815999GD13991+0030559GD24991+0198159GE19AGL   +99999+99999GF199999999999003051999999MA1102345102035REMMET08302/03/22 12:53:02 METAR KMJX 031753Z 16009KT 10SM BKN010 OVC065 09/08 A3022 RMK AO2
0331720407004622022020317567+39928-074292FM-15+0025KMJX V0201605N00365003055MN0160935N5+00895+00835102385ADDAA106000391GA1075+003055999GA2085+019815999GD13991+0030559GD24991+0198159GE19AGL   +99999+99999GF199999999999003051999999KA1060M+00941KA2060N+00171MA1102345102035MD1690219+9999REMMET12402/03/22 12:56:02 METAR KMJX 031756Z 16007KT 10SM BKN010 OVC065 09/08 A3022 RMK AO2 SLP238 60001 T00890083 10094 20017 56021EQDQ01  00028PRCP06
0220720407004622022020318057+39928-074292FM-15+0025KMJX V0201705N00315021345MN0160935N5+00905+00805999999ADDGA1045+003055999GA2085+021345999GD12991+0030559GD24991+0213459GE19AGL   +99999+99999GF199999999999003051999999MA1102345102035REMMET08302/03/22 13:05:02 METAR KMJX 031805Z 17006KT 10SM SCT010 OVC070 09/08 A3022 RMK AO2
0237720407004622022020318567+39928-074292FM-15+0025KMJX V0201705N00265022865MN0160935N5+00945+00835102285ADDGA1045+015245999GA2085+022865999GD12991+0152459GD24991+0228659GE19AGL   +99999+99999GF199999999999015241999999MA1102245101935REMMET10002/03/22 13:56:02 METAR KMJX 031856Z 17005KT 10SM SCT050 OVC075 09/08 A3019 RMK AO2 SLP228 T00940083
0287720407004622022020321567+39928-074292FM-15+0025KMJX V0201905N00315018295MN0160935N5+01065+00895102155ADDAA101000021AU110020015AW1615GA1075+018295999GA2085+022865999GD13991+0182959GD24991+0228659GE19AGL   +99999+99999GF199999999999018291999999MA1102105101805MW1615REMMET11602/03/22 16:56:02 METAR KMJX 032156Z 19006KT 10SM -RA BKN060 OVC075 11/09 A3015 RMK AO2 RAB30 SLP215 P0000 T01060089
0204720407004622022020400567+39928-074292FM-15+0025KMJX V0201805N00315030485MN0160935N5+00895+00835102045ADDGA1085+030485999GD14991+0304859GE19AGL   +99999+99999GF199999999999030481999999MA1102005101705REMMET09802/03/22 19:56:01 METAR KMJX 040056Z 18006KT 10SM OVC100 09/08 A3012 RMK AO2 SLP204 T00890083 TSNO
0287720407004622022020401567+39928-074292FM-15+0025KMJX V0201805N00315030485MN0160935N5+00945+00835101965ADDAA101000021AU110020015AW1615GA1025+018295999GA2085+030485999GD11991+0182959GD24991+0304859GE19AGL   +99999+99999GF199999999999018291999999MA1101935101635MW1615REMMET11602/03/22 20:56:01 METAR KMJX 040156Z 18006KT 10SM -RA FEW060 OVC100 09/08 A3010 RMK AO2 RAB43 SLP196 P0000 T00940083
0337720407004622022020402567+39928-074292FM-15+0025KMJX V0201905N00415030485MN0160935N5+01065+00895101835ADDAA101000395AA203000391AU110020015AW1615GA1025+024385999GA2085+030485999GD11991+0243859GD24991+0304859GE19AGL   +99999+99999GF199999999999024381999999MA1101795101495MD1890249+9999MW1615REMMET12202/03/22 21:56:01 METAR KMJX 040256Z 19008KT 10SM -RA FEW080 OVC100 11/09 A3006 RMK AO2 SLP183 P0001 60001 T01060089 58024EQDQ01  00028PRCP03
0285720407004622022020404567+39928-074292FM-15+0025KMJX V0201905N00575028965MN0160935N5+01115+00945101715ADDAA101000395AU110020015AW1615GA1085+028965999GD14991+0289659GE19AGL   +99999+99999GF199999999999028961999999KA1240M+01171KA2240N+00171MA1101695101395MW1615REMMET11902/03/22 23:56:02 METAR KMJX 040456Z 19011KT 10SM -RA OVC095 11/09 A3003 RMK AO2 RAB03 SLP171 P0001 T01110094 401170017
005172040700462202202040459O+39928-074292SOD  +0025KMJX V020999999999999999999999999999+99999+99999999999ADDAT1AU16RA  5AT2AU01FG  5AT3AU13BR  5AT4AU19UP  5
0395720407004622022020405567+39928-074292FM-15+0025KMJX V0202005N00675012505MN0160935N5+01225+01005101635ADDAA101000021AA206000591AU110020015AW1615GA1075+012505999GA2085+014635999GD13991+0125059GD24991+0146359GE19AGL   +99999+99999GF199999999999012501999999KA1060M+01221KA2060N+00831MA1101595101295MD1890199+9999MW1615OC100985REMMET14602/04/22 00:56:02 METAR KMJX 040556Z 20013G19KT 10SM -RA BKN041 OVC048 12/10 A3000 RMK AO2 RAE15B53 SLP163 P0000 60002 T01220100 10122 20083 58019EQDQ01  00058PRCP06
0298720407004622022020407567+39928-074292FM-15+0025KMJX V0202005N00575021345MN0160935N5+01175+01115101405ADDAA101000395AU110020015AW1615GA1075+021345999GA2085+027435999GD13991+0213459GD24991+0274359GE19AGL   +99999+99999GF199999999999021341999999MA1101355101055MW1615OC101035REMMET11902/04/22 02:56:02 METAR KMJX 040756Z 20011G20KT 10SM -RA BKN070 OVC090 12/11 A2993 RMK AO2 RAB03 SLP140 P0001 T01170111
0391720407004622022020408567+39928-074292FM-15+0025KMJX V0201905N00825018295MN0160935N5+01285+01175101275ADDAA101000595AA203000891AU110020015AW1615GA1025+011285999GA2075+018295999GA3085+027435999GD11991+0112859GD23991+0182959GD34991+0274359GE19AGL   +99999+99999GF199999999999011281999999MA1101255100955MD1890369+9999MW1615OC101245REMMET13702/04/22 03:56:02 METAR KMJX 040856Z 19016G24KT 10SM -RA FEW037 BKN060 OVC090 13/12 A2990 RMK AO2 SLP127 P0002 60003 T01280117 58036 TSNOEQDQ01  00078PRCP03
0304720407004622022020409567+39928-074292FM-15+0025KMJX V0201905N00625003055MN0160935N5+01285+01225101215ADDAA101000395AU110020015AW1615GA1075+003055999GA2085+014335999GD13991+0030551GD24991+0143359GE19AGL   +99999+99999GF199999999999003051999999MA1101195100895MW1615OC100985REMMET12502/04/22 04:56:02 METAR KMJX 040956Z 19012G19KT 10SM -RA BKN010 OVC047 13/12 A2988 RMK AO2 CIG 007V021 SLP121 P0001 T01280122
0337720407004622022020411567+39928-074292FM-15+0025KMJX V0201905N00575002445MN0160935N5+01285+01225101115ADDAA106001391AA224002091GA1085+002445999GD14991+0024459GE19AGL   +99999+99999GF199999999999002441999999KA1060M+01331KA2060N+01171MA1101085100785MD1690179+9999OC101035REMMET12602/04/22 06:56:02 METAR KMJX 041156Z 19011G20KT 10SM OVC008 13/12 A2985 RMK AO2 SLP111 60005 70008 T01280122 10133 20117 56017EQDQ01  00128PRCP06Q02  00208PRCP24
0306720407004622022020415147+39928-074292FM-15+0025KMJX V0203405N00625001835MN0096565N5+00905+00805999999ADDAA101000395AU110020015AU200001015AW1105AW2615GA1075+001835999GA2085+003665999GD13991+0018351GD24991+0036659GE19AGL   +99999+99999GF199999999999001831999999MA1101225100925MW1615REMMET11802/04/22 10:14:02 METAR KMJX 041514Z 34012KT 6SM -RA BR BKN006 OVC012 09/08 A2989 RMK AO2 WSHFT 1454 CIG 004V009 P0001
0265720407004622022020415567+39928-074292FM-15+0025KMJX V0200205N00265001835MN0160935N5+00785+00725101265ADDAA101001395AU120020015AW1625GA1085+001835999GD14991+0018351GE19AGL   +99999+99999GF199999999999001831999999MA1101225100925MW1655REMMET12502/04/22 10:56:02 METAR KMJX 041556Z 02005KT 10SM RA OVC006 08/07 A2989 RMK AO2 WSHFT 1454 CIG 004V008 SLP126 P0005 T00780072
0301720407004622022020416177+39928-074292FM-15+0025KMJX V0200505N00365001225MN0160935N5+00705+00705999999ADDAA101000595AU120020015AW1625GA1075+001225999GA2075+002445999GA3085+005795999GD13991+0012259GD23991+0024459GD34991+0057959GE19AGL   +99999+99999GF199999999999001221999999MA1101225100925MW1655REMMET09902/04/22 11:17:02 METAR KMJX 041617Z 05007KT 10SM RA BKN004 BKN008 OVC019 07/07 A2989 RMK AO2 P0002
0246720407004622022020416567+39928-074292FM-15+0025KMJX V0209999V00155001225MN0112655N5+00725+00675101185ADDAA101002595AU120020015AW1625GA1085+001225999GD14991+0012259GE19AGL   +99999+99999GF199999999999001221999999MA1101155100855MW1655REMMET10602/04/22 11:56:02 METAR KMJX 041656Z VRB03KT 7SM RA OVC004 07/07 A2987 RMK AO2 SLP118 P0010 T00720067 TSNO
0336720407004622022020417567+39928-074292FM-15+0025KMJX V0200805N00215001225MN0144845N5+00615+00565101015ADDAA101000595AA206005691AU110020015AW1615GA1085+001225999GD14991+0012259GE19AGL   +99999+99999GF199999999999001221999999KA1060M+01391KA2060N+00611MA1100985100685MD1890179+9999MW1615REMMET12602/04/22 12:56:02 METAR KMJX 041756Z 08004KT 9SM -RA OVC004 06/06 A2982 RMK AO2 SLP101 P0002 60022 T00610056 10139 20061 58017EQDQ01  00558PRCP06
0300720407004622022020418427+39928-074292FM-15+0025KMJX V0203605N00465001835MN0048285N5+00505+00405999999ADDAA101000595AU110020015AU200001015AW1105AW2615GA1075+001835999GA2085+004575999GD13991+0018351GD24991+0045759GE19AGL   +99999+99999GF199999999999001831999999MA1101085100785MW1615REMMET11202/04/22 13:42:02 METAR KMJX 041842Z 36009KT 3SM -RA BR BKN006 OVC015 05/04 A2985 RMK AO2 CIG 003V009 P0002 TSNO
0271720407004622022020420387+39928-074292FM-15+0025KMJX V0203405N00415001835MN0028165N5+00305+00205999999ADDAA101000021AU120090015AU200001015AW1105AW2401AW3415GA1085+001835999GD14991+0018351GE19AGL   +99999+99999GF199999999999001831999999MA1101195100895REMMET11402/04/22 15:38:02 METAR KMJX 042038Z 34008KT 1 3/4SM UP BR OVC006 03/02 A2988 RMK AO2 RAE25UPB25 CIG 004V011 P0000
0331720407004622022020420567+39928-074292FM-15+0025KMJX V0203505N00415001835MN0040235N5+00285+00225101195ADDAA101000395AA203001891AU110020015AU200001015AW1105AW2615GA1085+001835999GD14991+0018359GE19AGL   +99999+99999GF199999999999001831999999MA1101155100855MD1190189+9999MW1615REMMET13002/04/22 15:56:02 METAR KMJX 042056Z 35008KT 2 1/2SM -RA BR OVC006 03/02 A2987 RMK AO2 UPB25E40 SLP119 P0001 60007 T00280022 51018EQDQ01  00178PRCP03
0333720407004622022020422157+39928-074292FM-15+0025KMJX V0203305N00315001835MN0096565N5+00305+00205999999ADDAA101000395AU110020015AU200001015AW1105AW2615GA1075+001835999GA2075+003965999GA3085+018295999GD13991+0018351GD23991+0039659GD34991+0182959GE19AGL   +99999+99999GF199999999999001831999999MA1101295100995MW1615REMMET11402/04/22 17:15:02 METAR KMJX 042215Z 33006KT 6SM -RA BR BKN006 BKN013 OVC060 03/02 A2991 RMK AO2 CIG 004V008 P0001
0300720407004622022020422567+39928-074292FM-15+0025KMJX V0203205N00365002445MN0160935N5+00285+00225101485ADDAA101001095AU110020015AW1615GA1075+002445999GA2085+004275999GD13991+0024451GD24991+0042759GE19AGL   +99999+99999GF199999999999002441999999MA1101465101165MW1615REMMET12902/04/22 17:56:02 METAR KMJX 042256Z 32007KT 10SM -RA BKN008 OVC014 03/02 A2996 RMK AO2 CIG 005V010 PRESRR SLP148 P0004 T00280022
0267720407004622022020423167+39928-074292FM-15+0025KMJX V0203405N00315004885MN0160935N5+00205+00205999999ADDAA101000021GA1045+002445999GA2085+004885999GD12991+0024459GD24991+0048859GE19AGL   +99999+99999GF199999999999002441999999MA1101355101055REMMET11902/04/22 18:16:02 METAR KMJX 042316Z 34006KT 10SM SCT008 OVC016 02/02 A2993 RMK AO2 RAE2258UPB2258E05 P0000 FZRANO TSNO
0371720407004622022020423567+39928-074292FM-15+0025KMJX V0203205N00315004885MN0160935N5+00225+00175101525ADDAA101000021AA206003891AU110020015AW1615GA1085+004885999GD14991+0048859GE19AGL   +99999+99999GF199999999999004881999999KA1060M+00671KA2060N+00221MA1101495101195MD1190339+9999MW1615REMMET16102/04/22 18:56:02 METAR KMJX 042356Z 32006KT 10SM -RA OVC016 02/02 A2997 RMK AO2 RAE2258B18UPB2258E05B33E38 SLP152 P0000 60015 T00220017 10067 20022 51033 FZRANOEQDQ01  00388PRCP06
0272720407004622022020500567+39928-074292FM-15+0025KMJX V0203305N00215003355MN0160935N5+00225+00175101555ADDAA101000395GA1045+001835999GA2085+003355999GD12991+0018359GD24991+0033559GE19AGL   +99999+99999GF199999999999001831999999MA1101525101225REMMET12402/04/22 19:56:01 METAR KMJX 050056Z 33004KT 10SM SCT006 OVC011 02/02 A2998 RMK AO2 RAE45 SLP155 P0001 T00220017 FZRANO TSNO
0274720407004622022020501567+39928-074292FM-15+0025KMJX V0203205N00465001835MN0128755N5+00115+00065101565ADDAA101000595AU120090015AW1401AW2415GA1085+001835999GD14991+0018351GE19AGL   +99999+99999GF199999999999001831999999MA1101525101225REMMET13402/04/22 20:56:01 METAR KMJX 050156Z 32009KT 8SM UP OVC006 01/01 A2998 RMK AO2 RAB33E51UPB51 CIG 004V008 SLP156 P0002 T00110006 FZRANO
0309720407004622022020503437+39928-074292FM-15+0025KMJX V0203305N00515003055MN0048285N5-00105-00105999999ADDAA101000395AU110030015AU200001015AW1105AW2715GA1075+003055999GA2085+004575999GD13991+0030551GD24991+0045759GE19AGL   +99999+99999GF199999999999003051999999MA1101665101365MW1715REMMET12102/04/22 22:43:01 METAR KMJX 050343Z 33010KT 3SM -SN BR BKN010 OVC015 M01/M01 A3002 RMK AO2 CIG 007V012 P0001 FZRANO TSNO
0325720407004622022020503567+39928-074292FM-15+0025KMJX V0203305N00415003055MN0040235N5-00065-00175101645ADDAA101000395AU110030015AU200001015AW1105AW2715GA1075+003055999GA2085+004575999GD13991+0030551GD24991+0045759GE19AGL   +99999+99999GF199999999999003051999999MA1101595101295MW1715REMMET13702/04/22 22:56:01 METAR KMJX 050356Z 33008KT 2 1/2SM -SN BR BKN010 OVC015 M01/M02 A3000 RMK AO2 CIG 006V012 SLP164 P0001 T10061017 FZRANO
0304720407004622022020504057+39928-074292FM-15+0025KMJX V0203405N00465002445MN0048285N5-00105-00205999999ADDAA101000021AU110030015AU200001015AW1105AW2715GA1075+002445999GA2085+004575999GD13991+0024451GD24991+0045759GE19AGL   +99999+99999GF199999999999002441999999MA1101595101295MW1715REMMET11602/04/22 23:05:02 METAR KMJX 050405Z 34009KT 3SM -SN BR BKN008 OVC015 M01/M02 A3000 RMK AO2 CIG 005V011 P0000 FZRANO
0357720407004622022020504567+39928-074292FM-15+0025KMJX V0203205N00465002445MN0080475N5-00115-00175101685ADDAA101000021AU110030015AU200001015AW1105AW2715GA1075+002445999GA2085+010065999GD13991+0024451GD24991+0100659GE19AGL   +99999+99999GF199999999999002441999999KA1240M+01391KA2240N-00111MA1101635101325MW1715REMMET14302/04/22 23:56:02 METAR KMJX 050456Z 32009KT 5SM -SN BR BKN008 OVC033 M01/M02 A3001 RMK AO2 CIG 005V011 SLP168 P0000 T10111017 401391011 FZRANO
005172040700462202202050459O+39928-074292SOD  +0025KMJX V020999999999999999999999999999+99999+99999999999ADDAT1AU16RA  5AT2AU18SN  5AT3AU13BR  5AT4AU19UP  5
0246720407004622022020505277+39928-074292FM-15+0025KMJX V0203305N00365003055MN0144845N5-00105-00205999999ADDAA101000021AU110030015AW1715GA1085+003055999GD14991+0030551GE19AGL   +99999+99999GF199999999999003051999999MA1101595101295MW1715REMMET10602/05/22 00:27:02 METAR KMJX 050527Z 33007KT 9SM -SN OVC010 M01/M02 A3000 RMK AO2 CIG 006V015 P0000 FZRANO
0229720407004622022020506047+39928-074292FM-15+0025KMJX V0203205N00365004885MN0160935N5-00205-00205999999ADDGA1075+004885999GA2085+006405999GD13991+0048859GD24991+0064059GE19AGL   +99999+99999GF199999999999004881999999MA1101565101265REMMET09202/05/22 01:04:02 METAR KMJX 050604Z 32007KT 10SM BKN016 OVC021 M02/M02 A2999 RMK AO2 FZRANO
0213720407004622022020506567+39928-074292FM-15+0025KMJX V0203205N00465006105MN0160935N5-00225-00395101665ADDGA1085+006105999GD14991+0061059GE19AGL   +99999+99999GF199999999999006101999999MA1101635101325REMMET10702/05/22 01:56:02 METAR KMJX 050656Z 32009KT 10SM OVC020 M02/M04 A3001 RMK AO2 SLP166 T10221039 FZRANO TSNO
0229720407004622022020507207+39928-074292FM-15+0025KMJX V0203205N00515028965MN0160935N5-00205-00405999999ADDGA1045+006105999GA2085+028965999GD12991+0061059GD24991+0289659GE19AGL   +99999+99999GF199999999999006101999999MA1101635101325REMMET09202/05/22 02:20:02 METAR KMJX 050720Z 32010KT 10SM SCT020 OVC095 M02/M04 A3001 RMK AO2 FZRANO
0246720407004622022020507567+39928-074292FM-15+0025KMJX V0203205N00365006405MN0160935N5-00285-00445101715ADDGA1075+006405999GA2085+030485999GD13991+0064059GD24991+0304859GE19AGL   +99999+99999GF199999999999006401999999MA1101665101365REMMET10902/05/22 02:56:02 METAR KMJX 050756Z 32007KT 10SM BKN021 OVC100 M03/M04 A3002 RMK AO2 SLP171 T10281044 FZRANO
0229720407004622022020508157+39928-074292FM-15+0025KMJX V0203205N00465030485MN0160935N5-00305-00505999999ADDGA1045+006405999GA2085+030485999GD12991+0064059GD24991+0304859GE19AGL   +99999+99999GF199999999999006401999999MA1101665101365REMMET09202/05/22 03:15:02 METAR KMJX 050815Z 32009KT 10SM SCT021 OVC100 M03/M05 A3002 RMK AO2 FZRANO
0228720407004622022020508567+39928-074292FM-15+0025KMJX V0203105N00365016765MN0160935N5-00335-00505101775ADDGA1075+016765999GD13991+0167659GE19AGL   +99999+99999GF199999999999016761999999MA1101735101435MD1390119+9999REMMET10802/05/22 03:56:02 METAR KMJX 050856Z 31007KT 10SM BKN055 M03/M05 A3004 RMK AO2 SLP177 T10331050 53011 FZRANO
0208720407004622022020509567+39928-074292FM-15+0025KMJX V0203205N00315018295MN0160935N5-00335-00615101865ADDGA1085+018295999GD14991+0182959GE19AGL   +99999+99999GF199999999999018291999999MA1101835101535REMMET10202/05/22 04:56:02 METAR KMJX 050956Z 32006KT 10SM OVC060 M03/M06 A3007 RMK AO2 SLP186 T10331061 FZRANO
0277720407004622022020511567+39928-074292FM-15+0025KMJX V0203105N003152200059N0160935N5-00565-00835102095ADDAA124010791GA1005+999999999GD10991+9999999GF100991999999999999999999KA1060M-00171KA2060N-00561MA1102075101765MD1390329+9999REMMET12302/05/22 06:56:02 METAR KMJX 051156Z 31006KT 10SM CLR M06/M08 A3014 RMK AO2 SLP209 70042 T10561083 11017 21056 53032 FZRANOEQDQ01  01068PRCP24
0219720407004622022020512567+39928-074292FM-15+0025KMJX V0203005N00575033535MN0160935N5-00505-00895102245ADDGA1075+033535999GD13991+0335359GE19AGL   +99999+99999GF199999999999033531999999MA1102205101905OC100935REMMET10502/05/22 07:56:02 METAR KMJX 051256Z 30011G18KT 10SM BKN110 M05/M09 A3018 RMK AO2 SLP224 T10501089 FZRANO
0194720407004622022020513567+39928-074292FM-15+0025KMJX V0203205N007252200059N0160935N5-00445-00945102405ADDGA1005+999999999GD10991+9999999GF100991999999999999999999MA1102375102075OC101185REMMET10202/05/22 08:56:02 METAR KMJX 051356Z 32014G23KT 10SM CLR M04/M09 A3023 RMK AO2 SLP240 T10441094 FZRANO
0232720407004622022020514567+39928-074292FM-15+0025KMJX V0203005N008252200059N0160935N5-00395-00945102505ADDGA1005+999999999GD10991+9999999GF100991999999999999999999MA1102475102175MD1190409+9999OC101245REMMET12602/05/22 09:56:02 METAR KMJX 051456Z 30016G24KT 10SM CLR M04/M09 A3026 RMK AO2 PK WND 30026/1405 SLP250 T10391094 51040 FZRANO
0212720407004622022020515567+39928-074292FM-15+0025KMJX V0203305N008252200059N0160935N5-00335-01065102565ADDGA1005+999999999GD10991+9999999GF100991999999999999999999MA1102515102205OC101135REMMET12002/05/22 10:56:02 METAR KMJX 051556Z 33016G22KT 10SM CLR M03/M11 A3027 RMK AO2 PK WND 30026/1527 SLP256 T10331106 FZRANO
0217720407004622022020516567+39928-074292FM-15+0025KMJX V0202905N008852200059N0160935N5-00225-01065102625ADDGA1005+999999999GD10991+9999999GF100991999999999999999999MA1102575102275OC101345REMMET12502/05/22 11:56:02 METAR KMJX 051656Z 29017G26KT 10SM CLR M02/M11 A3029 RMK AO2 PK WND 29026/1652 SLP262 T10221106 FZRANO TSNO
0212720407004622022020518567+39928-074292FM-15+0025KMJX V0203305N008852200059N0160935N5-00065-01175102655ADDGA1005+999999999GD10991+9999999GF100991999999999999999999MA1102615102305OC101295REMMET12002/05/22 13:56:02 METAR KMJX 051856Z 33017G25KT 10SM CLR M01/M12 A3030 RMK AO2 PK WND 30028/1829 SLP265 T10061117 FZRANO
0212720407004622022020519567+39928-074292FM-15+0025KMJX V0203205N006252200059N0160935N5-00175-01175102755ADDGA1005+999999999GD10991+9999999GF100991999999999999999999MA1102715102415OC101135REMMET12002/05/22 14:56:02 METAR KMJX 051956Z 32012G22KT 10SM CLR M02/M12 A3033 RMK AO2 PK WND 31026/1857 SLP275 T10171117 FZRANO
0194720407004622022020521567+39928-074292FM-15+0025KMJX V0203205N006252200059N0160935N5-00285-01225103015ADDGA1005+999999999GD10991+9999999GF100991999999999999999999MA1102985102685OC101035REMMET10202/05/22 16:56:02 METAR KMJX 052156Z 32012G20KT 10SM CLR M03/M12 A3041 RMK AO2 SLP301 T10281122 FZRANO
0241720407004622022020523567+39928-074292FM-15+0025KMJX V0203205N004652200059N0160935N5-00445-01285103285ADDGA1005+999999999GD10991+9999999GF100991999999999999999999KA1060M-00061KA2060N-00441MA1103255102955MD1190439+9999REMMET11702/05/22 18:56:02 METAR KMJX 052356Z 32009KT 10SM CLR M04/M13 A3049 RMK AO2 SLP328 T10441128 11006 21044 51043 FZRANO
0183720407004622022020601567+39928-074292FM-15+0025KMJX V0203305N002652200059N0160935N5-00615-01285103445ADDGA1005+999999999GD10991+9999999GF100991999999999999999999MA1103395103085REMMET09902/05/22 20:56:01 METAR KMJX 060156Z 33005KT 10SM CLR M06/M13 A3053 RMK AO2 SLP344 T10611128 FZRANO
0177720407004622022020602566+39928-074292FM-15+0025KMJX V0203205N002652200059N0160935N5-00675-01335103495ADDGA1005+999999999GD10991+9999999MA1103455103155MD1190219+9999REMMET10502/05/22 21:56:01 METAR KMJX 060256Z 32005KT 10SM CLR M07/M13 A3055 RMK AO2 SLP349 T10671133 51021 FZRANO
0183720407004622022020603567+39928-074292FM-15+0025KMJX V0203405N002652200059N0160935N5-00725-01615103555ADDGA1005+999999999GD10991+9999999GF100991999999999999999999MA1103525103225REMMET09902/05/22 22:56:02 METAR KMJX 060356Z 34005KT 10SM CLR M07/M16 A3057 RMK AO2 SLP355 T10721161 FZRANO
0219720407004622022020604567+39928-074292FM-15+0025KMJX V0203205N003152200059N0160935N5-00835-01615103555ADDGA1005+999999999GD10991+9999999GF100991999999999999999999KA1240M-00061KA2240N-00831MA1103495103185REMMET10902/05/22 23:56:02 METAR KMJX 060456Z 32006KT 10SM CLR M08/M16 A3056 RMK AO2 SLP355 T10831161 410061083 FZRANO
001572040700462202202060459O+39928-074292SOD  +0025KMJX V020999999999999999999999999999+99999+99999999999ADDAT1AU18SN  5
0183720407004622022020606567+39928-074292FM-15+0025KMJX V0209999C000052200059N0160935N5-00945-01445103595ADDGA1005+999999999GD10991+9999999GF100991999999999999999999MA1103565103255REMMET09902/06/22 01:56:02 METAR KMJX 060656Z 00000KT 10SM CLR M09/M14 A3058 RMK AO2 SLP359 T10941144 FZRANO
0183720407004622022020610567+39928-074292FM-15+0025KMJX V0203405N001552200059N0160935N5-01065-01395103725ADDGA1005+999999999GD10991+9999999GF100991999999999999999999MA1103695103395REMMET09902/06/22 05:56:02 METAR KMJX 061056Z 34003KT 10SM CLR M11/M14 A3062 RMK AO2 SLP372 T11061139 FZRANO
0183720407004622022020612567+39928-074292FM-15+0025KMJX V0200305N002152200059N0160935N5-00895-01225103865ADDGA1005+999999999GD10991+9999999GF100991999999999999999999MA1103835103525REMMET09902/06/22 07:56:02 METAR KMJX 061256Z 03004KT 10SM CLR M09/M12 A3066 RMK AO2 SLP386 T10891122 FZRANO
0203720407004622022020614567+39928-074292FM-15+0025KMJX V0209999V002152200059N0160935N5-00285-00945103865ADDGA1005+999999999GD10991+9999999GF100991999999999999999999MA1103835103525MD1190079+9999REMMET10502/06/22 09:56:02 METAR KMJX 061456Z VRB04KT 10SM CLR M03/M09 A3066 RMK AO2 SLP386 T10281094 51007 FZRANO
0284720407004622022020617567+39928-074292FM-15+0025KMJX V0201205N002652200059N0160935N5+00115-00835103615ADDGA1025+010975999GD11991+0109759GE19AGL   +99999+99999GF102995999999010971999999KA1060M+00171KA2060N-01111MA1103565103255MD1890259+9999REMMET11902/06/22 12:56:02 METAR KMJX 061756Z 12005KT 10SM FEW036 01/M08 A3058 RMK AO2 SLP361 T00111083 10017 21111 58025 FZRANOEQDD01      0ADE726
0202720407004622022020620567+39928-074292FM-15+0025KMJX V0201205N002652200059N0160935N5+00005-00785103465ADDGA1005+999999999GD10991+9999999GF100991999999999999999999MA1103425103125MD1590159+9999REMMET10402/06/22 15:56:02 METAR KMJX 062056Z 12005KT 10SM CLR 00/M08 A3054 RMK AO2 SLP346 T00001078 55015 FZRANO
0241720407004622022020623567+39928-074292FM-15+0025KMJX V0209999C000052200059N0160935N5-00335-00615103405ADDGA1005+999999999GD10991+9999999GF100991999999999999999999KA1060M+00171KA2060N-00331MA1103355103055MD1890069+9999REMMET11702/06/22 18:56:02 METAR KMJX 062356Z 00000KT 10SM CLR M03/M06 A3052 RMK AO2 SLP340 T10331061 10017 21033 58006 FZRANO
0229720407004622022020701117+39928-074292FM-15+0025KMJX V0209999C00005007325MN0160935N5-00405-00605999999ADDGA1075+007325999GA2085+015245999GD13991+0073259GD24991+0152459GE19AGL   +99999+99999GF199999999999007321999999MA1103325103015REMMET09202/06/22 20:11:01 METAR KMJX 070111Z 00000KT 10SM BKN024 OVC050 M04/M06 A3051 RMK AO2 FZRANO
0229720407004622022020701417+39928-074292FM-15+0025KMJX V0200305N00215014635MN0160935N5-00405-00605999999ADDGA1045+007925999GA2075+014635999GD12991+0079259GD23991+0146359GE19AGL   +99999+99999GF199999999999007921999999MA1103285102985REMMET09202/06/22 20:41:01 METAR KMJX 070141Z 03004KT 10SM SCT026 BKN048 M04/M06 A3050 RMK AO2 FZRANO
0208720407004622022020701567+39928-074292FM-15+0025KMJX V0200405N00215015245MN0160935N5-00395-00505103295ADDGA1085+015245999GD14991+0152459GE19AGL   +99999+99999GF199999999999015241999999MA1103255102955REMMET10202/06/22 20:56:01 METAR KMJX 070156Z 04004KT 10SM OVC050 M04/M05 A3049 RMK AO2 SLP329 T10391050 FZRANO
0228720407004622022020702567+39928-074292FM-15+0025KMJX V0209999C00005014335MN0160935N5-00225-00505103295ADDGA1085+014335999GD14991+0143359GE19AGL   +99999+99999GF199999999999014331999999MA1103255102955MD1590119+9999REMMET10802/06/22 21:56:01 METAR KMJX 070256Z 00000KT 10SM OVC047 M02/M05 A3049 RMK AO2 SLP329 T10221050 55011 FZRANO
0255720407004622022020703567+39928-074292FM-15+0025KMJX V0209999C00005011895MN0160935N5-00225-00445103255ADDAA101000021GA1085+011895999GD14991+0118959GE19AGL   +99999+99999GF199999999999011891999999MA1103225102915REMMET13802/06/22 22:56:01 METAR KMJX 070356Z 00000KT 10SM OVC039 M02/M04 A3048 RMK AO2 UPB0257E07B28E33SNB33E43 SLP325 P0000 T10221044 FZRANO TSNO
0244720407004622022020704567+39928-074292FM-15+0025KMJX V0200105N00155011285MN0160935N5-00175-00445103175ADDGA1085+011285999GD14991+0112859GE19AGL   +99999+99999GF199999999999011281999999KA1240M+00171KA2240N-01171MA1103125102815REMMET11202/06/22 23:56:01 METAR KMJX 070456Z 01003KT 10SM OVC037 M02/M04 A3045 RMK AO2 SLP317 T10171044 400171117 FZRANO
0251720407004622022020706567+39928-074292FM-15+0025KMJX V0209999C00005009455MN0160935N5-00115-00225103095ADDAA101000021AU120090015AW1401AW2415GA1085+009455999GD14991+0094559GE19AGL   +99999+99999GF199999999999009451999999MA1103055102745REMMET11102/07/22 01:56:01 METAR KMJX 070656Z 00000KT 10SM UP OVC031 M01/M02 A3043 RMK AO2 SLP309 P0000 T10111022 FZRANO
0289720407004622022020707567+39928-074292FM-15+0025KMJX V0209999C00005008535MN0160935N5-00065-00175103025ADDAA101000021AU120090015AW1401AW2415GA1075+008535999GA2085+010365999GD13991+0085359GD24991+0103659GE19AGL   +99999+99999GF199999999999008531999999MA1102985102685REMMET11802/07/22 02:56:01 METAR KMJX 070756Z 00000KT 10SM UP BKN028 OVC034 M01/M02 A3041 RMK AO2 SLP302 P0000 T10061017 FZRANO
0272720407004622022020708037+39928-074292FM-15+0025KMJX V0209999C00005010365MN0160935N5-00105-00205999999ADDAA101000021AU120090015AW1401AW2415GA1025+007925999GA2085+010365999GD11991+0079259GD24991+0103659GE19AGL   +99999+99999GF199999999999007921999999MA1102985102685REMMET10102/07/22 03:03:01 METAR KMJX 070803Z 00000KT 10SM UP FEW026 OVC034 M01/M02 A3041 RMK AO2 P0000 FZRANO
0277720407004622022020708367+39928-074292FM-15+0025KMJX V0209999C00005008235MN0160935N5-00105-00105999999ADDAA101000021AU120090015AW1401AW2415GA1075+008235999GA2085+010365999GD13991+0082359GD24991+0103659GE19AGL   +99999+99999GF199999999999008231999999MA1102915102615REMMET10602/07/22 03:36:01 METAR KMJX 070836Z 00000KT 10SM UP BKN027 OVC034 M01/M01 A3039 RMK AO2 P0000 FZRANO TSNO
0272720407004622022020708477+39928-074292FM-15+0025KMJX V0209999C00005010365MN0160935N5-00105-00105999999ADDAA101000021AU120090015AW1401AW2415GA1025+006715999GA2085+010365999GD11991+0067159GD24991+0103659GE19AGL   +99999+99999GF199999999999006711999999MA1102915102615REMMET10102/07/22 03:47:01 METAR KMJX 070847Z 00000KT 10SM UP FEW022 OVC034 M01/M01 A3039 RMK AO2 P0000 FZRANO
0271720407004622022020709397+39928-074292FM-15+0025KMJX V0203605N00155007015MN0160935N5+00005-00105999999ADDAA101000021AU120090015AW1401AW2415GA1075+007015999GA2085+009145999GD13991+0070159GD24991+0091459GE19AGL   +99999+99999GF199999999999007011999999MA1102885102575REMMET10002/07/22 04:39:01 METAR KMJX 070939Z 36003KT 10SM UP BKN023 OVC030 00/M01 A3038 RMK AO2 P0000 FZRANO
0406720407004622022020711567+39928-074292FM-15+0025KMJX V0209999C00005010065MN0064375N5+00005+00005102815ADDAA101000021AA206000021AU120090015AU200001015AW1105AW2401AW3415GA1025+005795999GA2085+010065999GD11991+0057959GD24991+0100659GE19AGL   +99999+99999GF199999999999005791999999KA1060M+00001KA2060N-00171MA1102785102475MD1690159+9999REMMET14802/07/22 06:56:01 METAR KMJX 071156Z 00000KT 4SM UP BR FEW019 OVC033 00/00 A3035 RMK AO2 UPB05 SLP281 P0000 60000 T00000000 10000 21017 56015 FZRANOEQDQ01  00008PRCP06
0301720407004622022020712497+39928-074292FM-15+0025KMJX V0200205N00265007625MN0064375N5+00105+00105999999ADDAA101000395AU110020015AU200001015AW1105AW2615GA1075+007625999GA2085+010675999GD13991+0076259GD24991+0106759GE19AGL   +99999+99999GF199999999999007621999999MA1102745102445MW1615REMMET11302/07/22 07:49:01 METAR KMJX 071249Z 02005KT 4SM -RA BR BKN025 OVC035 01/01 A3034 RMK AO2 UPE21RAB21 P0001 FZRANO
0332720407004622022020714117+39928-074292FM-15+0025KMJX V0200205N00265002745MN0040235N5+00205+00105999999ADDAA101000021AU110020015AU200001015AW1105AW2615GA1045+001225999GA2075+002745999GA3085+004275999GD12991+0012259GD23991+0027459GD34991+0042759GE19AGL   +99999+99999GF199999999999001221999999MA1102685102375MW1615REMMET11302/07/22 09:11:02 METAR KMJX 071411Z 02005KT 2 1/2SM -RA BR SCT004 BKN009 OVC014 02/01 A3032 RMK AO2 P0000 FZRANO
0328720407004622022020714197+39928-074292FM-15+0025KMJX V0200305N00265001225MN0048285N5+00205+00205999999ADDAA101000021AU110020015AU200001015AW1105AW2615GA1075+001225999GA2075+002745999GA3085+004885999GD13991+0012259GD23991+0027459GD34991+0048859GE19AGL   +99999+99999GF199999999999001221999999MA1102685102375MW1615REMMET10902/07/22 09:19:02 METAR KMJX 071419Z 03005KT 3SM -RA BR BKN004 BKN009 OVC016 02/02 A3032 RMK AO2 P0000 FZRANO
0252720407004622022020715267+39928-074292FM-15+0025KMJX V0200205N00415001225MN0048285N5+00205+00205999999ADDAA101000021AU110020015AU200001015AW1105AW2615GA1085+001225999GD14991+0012259GE19AGL   +99999+99999GF199999999999001221999999MA1102615102305MW1615REMMET09502/07/22 10:26:02 METAR KMJX 071526Z 02008KT 3SM -RA BR OVC004 02/02 A3030 RMK AO2 P0000 FZRANO
0279720407004622022020715567+39928-074292FM-15+0025KMJX V0200305N00315001225MN0032195N5+00225+00175102625ADDAA101000021AU120090015AU200001015AW1105AW2401AW3415GA1085+001225999GD14991+0012259GE19AGL   +99999+99999GF199999999999001221999999MA1102575102275REMMET12202/07/22 10:56:02 METAR KMJX 071556Z 03006KT 2SM UP BR OVC004 02/02 A3029 RMK AO2 RAE31UPB36 SLP262 P0000 T00220017 FZRANO
0273720407004622022020716547+39928-074292FM-15+0025KMJX V0200305N00365001225MN0048285N5+00335+00285102495ADDAA101000595AU110020015AU200001015AW1105AW2615GA1085+001225999GD14991+0012259GE19AGL   +99999+99999GF199999999999001221999999MA1102445102145MW1615REMMET11602/07/22 11:54:02 METAR KMJX 071654Z 03007KT 3SM -RA BR OVC004 03/03 A3025 RMK AO2 UPE14RAB14 SLP249 P0002 T00330028
0335720407004622022020717567+39928-074292FM-15+0025KMJX V0200305N00315001225MN0096565N5+00395+00335102325ADDAA101000021AA206001091AU100001015AW1105GA1085+001225999GD14991+0012259GE19AGL   +99999+99999GF199999999999001221999999KA1060M+00391KA2060N+00111MA1102275101975MD1890369+9999REMMET13102/07/22 12:56:02 METAR KMJX 071756Z 03006KT 6SM BR OVC004 04/03 A3020 RMK AO2 RAE23 SLP232 P0000 60004 T00390033 10039 20011 58036EQDQ01  00108PRCP06
0251720407004622022020718207+39928-074292FM-15+0025KMJX V0200505N00465001225MN0032195N5+00405+00405999999ADDAA101000021AU110020015AU200001015AW1105AW2615GA1085+001225999GD14991+0012259GE19AGL   +99999+99999GF199999999999001221999999MA1102205101905MW1615REMMET09402/07/22 13:20:02 METAR KMJX 071820Z 05009KT 2SM -RA BR OVC004 04/04 A3018 RMK AO2 RAB00 P0000
0227720407004622022020718447+39928-074292FM-15+0025KMJX V0200405N00365001225MN0064375N5+00405+00405999999ADDAA101000021AU100001015AW1105GA1085+001225999GD14991+0012259GE19AGL   +99999+99999GF199999999999001221999999MA1102175101875REMMET09302/07/22 13:44:02 METAR KMJX 071844Z 04007KT 4SM BR OVC004 04/04 A3017 RMK AO2 RAB00E43 P0000
0249720407004622022020718567+39928-074292FM-15+0025KMJX V0200405N00365001225MN0048285N5+00445+00395102175ADDAA101000021AU100001015AW1105GA1085+001225999GD14991+0012259GE19AGL   +99999+99999GF199999999999001221999999MA1102135101835REMMET11502/07/22 13:56:02 METAR KMJX 071856Z 04007KT 3SM BR OVC004 04/04 A3016 RMK AO2 RAB00E43 SLP217 P0000 T00440039 TSNO
0267720407004622022020719157+39928-074292FM-15+0025KMJX V0200205N00365001225MN0028165V5+00405+00405999999ADDAA101000021AU110020015AU200001015AW1105AW2615GA1085+001225999GD14991+0012259GE19AGL   +99999+99999GF199999999999001221999999MA1102135101835MW1615REMMET11002/07/22 14:15:02 METAR KMJX 071915Z 02007KT 1 3/4SM -RA BR OVC004 04/04 A3016 RMK AO2 VIS 1 1/2V3 RAB07 P0000
0245720407004622022020720417+39928-074292FM-15+0025KMJX V0203505N00215000615MN0016095N5+00405+00305999999ADDAA101000021AU110020015AU200001015AW1105AW2615GA1085+000615999GD14991+0006159GE19AGL   +99999+99999GF199999999999000611999999MA1102075101765MW1615REMMET08802/07/22 15:41:02 METAR KMJX 072041Z 35004KT 1SM -RA BR OVC002 04/03 A3014 RMK AO2 P0000
0322720407004622022020720567+39928-074292FM-15+0025KMJX V0203405N00215000615MN0024145N5+00395+00335102075ADDAA101000021AA203000021AU110020015AU200001015AW1105AW2615GA1085+000615999GD14991+0006159GE19AGL   +99999+99999GF199999999999000611999999MA1102035101735MD1690259+9999MW1615REMMET12102/07/22 15:56:02 METAR KMJX 072056Z 34004KT 1 1/2SM -RA BR OVC002 04/03 A3013 RMK AO2 SLP207 P0000 60000 T00390033 56025EQDQ01  00008PRCP03
0226720407004622022020721197+39928-074292FM-15+0025KMJX V0203305N00265000615MN0016095N5+00405+00305999999ADDAA101000021AU100001015AW1105GA1085+000615999GD14991+0006159GE19AGL   +99999+99999GF199999999999000611999999MA1102105101805REMMET09202/07/22 16:19:02 METAR KMJX 072119Z 33005KT 1SM BR OVC002 04/03 A3015 RMK AO2 RAE2059 P0000
0228720407004622022020721377+39928-074292FM-15+0025KMJX V0203205N00365000615MN0012075N5+00305+00305999999ADDAA101000021AU100001015AW1105GA1085+000615999GD14991+0006159GE19AGL   +99999+99999GF199999999999000611999999MA1102105101805REMMET09402/07/22 16:37:02 METAR KMJX 072137Z 32007KT 3/4SM BR OVC002 03/03 A3015 RMK AO2 RAE2059 P0000
0258720407004622022020723487+39928-074292FM-15+0025KMJX V0203305N00265000615MN0016095N5+00205+00205999999ADDAA101000021AU110020015AU200001015AW1105AW2615GA1085+000615999GD14991+0006159GE19AGL   +99999+99999GF199999999999000611999999MA1102005101705MW1615REMMET10102/07/22 18:48:02 METAR KMJX 072348Z 33005KT 1SM -RA BR OVC002 02/02 A3012 RMK AO2 RAB09 P0000 FZRANO
0373720407004622022020723567+39928-074292FM-15+0025KMJX V0203505N00315000615MN0020125N5+00225+00175102015ADDAA101000395AA206000591AU110020015AU200001015AW1105AW2615GA1085+000615999GD14991+0006159GE19AGL   +99999+99999GF199999999999000611999999KA1060M+00441KA2060N+00221MA1101965101665MD1890069+9999MW1615REMMET14602/07/22 18:56:02 METAR KMJX 072356Z 35006KT 1 1/4SM -RA BR OVC002 02/02 A3011 RMK AO2 RAB09 SLP201 P0001 60002 T00220017 10044 20022 58006 FZRANOEQDQ01  00058PRCP06
0256720407004622022020800187+39928-074292FM-15+0025KMJX V0203405N00265000615MN0040235N5+00205+00205999999ADDAA101000395AU110020015AU200001015AW1105AW2615GA1085+000615999GD14991+0006159GE19AGL   +99999+99999GF199999999999000611999999MA1101965101665MW1615REMMET09902/07/22 19:18:01 METAR KMJX 080018Z 34005KT 2 1/2SM -RA BR OVC002 02/02 A3011 RMK AO2 P0001 FZRANO
0269720407004622022020800567+39928-074292FM-15+0025KMJX V0203505N00265000615MN0048285N5+00225+00175101925ADDAA101000895AU110020015AU200001015AW1105AW2615GA1085+000615999GD14991+0006159GE19AGL   +99999+99999GF199999999999000611999999MA1101865101565MW1615REMMET11202/07/22 19:56:01 METAR KMJX 080056Z 35005KT 3SM -RA BR OVC002 02/02 A3008 RMK AO2 SLP192 P0003 T00220017 FZRANO
0268720407004622022020801567+39928-074292FM-15+0025KMJX V0203405N00415000615MN0080475N5+00225+00175101825ADDAA101001095AU120020015AU200001015AW1105AW2625GA1085+000615999GD14991+0006159GE19AGL   +99999+99999GF199999999999000611999999MA1101795101495MW1655REMMET11102/07/22 20:56:01 METAR KMJX 080156Z 34008KT 5SM RA BR OVC002 02/02 A3006 RMK AO2 SLP182 P0004 T00220017 FZRANO
0305720407004622022020802567+39928-074292FM-15+0025KMJX V0200305N00265000615MN0128755N5+00225+00225101705ADDAA101000895AA203002591AU110020015AW1615GA1085+000615999GD14991+0006159GE19AGL   +99999+99999GF199999999999000611999999MA1101665101365MD1890239+9999MW1615REMMET12102/07/22 21:56:01 METAR KMJX 080256Z 03005KT 8SM -RA OVC002 02/02 A3002 RMK AO2 SLP170 P0003 60010 T00220022 58023 FZRANOEQDQ01  00258PRCP03
0245720407004622022020803367+39928-074292FM-15+0025KMJX V0200405N00155001225MN0080475N5+00305+00205999999ADDAA101000595AU110020015AU200001015AW1105AW2615GA1085+001225999GD14991+0012259GE19AGL   +99999+99999GF199999999999001221999999MA1101595101295MW1615REMMET08802/07/22 22:36:01 METAR KMJX 080336Z 04003KT 5SM -RA BR OVC004 03/02 A3000 RMK AO2 P0002
0269720407004622022020803567+39928-074292FM-15+0025KMJX V0209999C00005001225MN0064375N5+00225+00225101635ADDAA101000595AU110020015AU200001015AW1105AW2615GA1085+001225999GD14991+0012259GE19AGL   +99999+99999GF199999999999001221999999MA1101595101295MW1615REMMET11202/07/22 22:56:01 METAR KMJX 080356Z 00000KT 4SM -RA BR OVC004 02/02 A3000 RMK AO2 SLP163 P0002 T00220022 FZRANO
003972040700462202202080459O+39928-074292SOD  +0025KMJX V020999999999999999999999999999+99999+99999999999ADDAT1AU16RA  5AT2AU13BR  5AT3AU19UP  5
0356720407004622022020805567+39928-074292FM-15+0025KMJX V0200105N00155000615MN0080475N5+00285+00225101395ADDAA101000895AA206004891AU110020015AU200001015AW1105AW2615GA1085+000615999GD14991+0006159GE19AGL   +99999+99999GF199999999999000611999999KA1060M+00281KA2060N+00221MA1101355101055MD1690309+9999MW1615REMMET12902/08/22 00:56:01 METAR KMJX 080556Z 01003KT 5SM -RA BR OVC002 03/02 A2993 RMK AO2 SLP139 P0003 60019 T00280022 10028 20022 56030EQDQ01  00488PRCP06
0245720407004622022020806127+39928-074292FM-15+0025KMJX V0203305N00215001225MN0064375N5+00305+00205999999ADDAA101000395AU110020015AU200001015AW1105AW2615GA1085+001225999GD14991+0012259GE19AGL   +99999+99999GF199999999999001221999999MA1101355101055MW1615REMMET08802/08/22 01:12:01 METAR KMJX 080612Z 33004KT 4SM -RA BR OVC004 03/02 A2993 RMK AO2 P0001
0262720407004622022020806567+39928-074292FM-15+0025KMJX V0203205N00365001225MN0096565N5+00285+00225101385ADDAA101001095AU110020015AU200001015AW1105AW2615GA1085+001225999GD14991+0012259GE19AGL   +99999+99999GF199999999999001221999999MA1101325101025MW1615REMMET10502/08/22 01:56:01 METAR KMJX 080656Z 32007KT 6SM -RA BR OVC004 03/02 A2992 RMK AO2 SLP138 P0004 T00280022
0274720407004622022020808567+39928-074292FM-15+0025KMJX V0203105N00365001225MN0080475N5+00285+00225101295ADDAA103001091AU100001015AW1105GA1085+001225999GD14991+0012259GE19AGL   +99999+99999GF199999999999001221999999MA1101255100955MD1890099+9999REMMET10702/08/22 03:56:01 METAR KMJX 080856Z 31007KT 5SM BR OVC004 03/02 A2990 RMK AO2 SLP129 60004 T00280022 58009EQDQ01  00108PRCP03
0206720407004622022020810567+39928-074292FM-15+0025KMJX V0203105N00515014025MN0160935N5+00225+00175101355ADDGA1085+014025999GD14991+0140259GE19AGL   +99999+99999GF199999999999014021999999MA1101325101025REMMET10002/08/22 05:56:01 METAR KMJX 081056Z 31010KT 10SM OVC046 02/02 A2992 RMK AO2 SLP135 T00220017 FZRANO
0174720407004622022020813567+39928-074292FM-15+0025KMJX V0202805N003152200059N0160935N5+00285+00175101545ADDGA1005+999999999GD10991+9999999GF100991999999999999999999MA1101495101195REMMET09002/08/22 08:56:02 METAR KMJX 081356Z 28006KT 10SM CLR 03/02 A2997 RMK AO2 SLP154 T00280017
0194720407004622022020814567+39928-074292FM-15+0025KMJX V0202805N003652200059N0160935N5+00395+00335101565ADDGA1005+999999999GD10991+9999999GF100991999999999999999999MA1101525101225MD1190139+9999REMMET09602/08/22 09:56:02 METAR KMJX 081456Z 28007KT 10SM CLR 04/03 A2998 RMK AO2 SLP156 T00390033 51013
0185720407004622022020815567+39928-074292FM-15+0025KMJX V0202905N006752200059N0160935N5+00615+00005101525ADDGA1005+999999999GD10991+9999999GF100991999999999999999999MA1101495101195OC100985REMMET09302/08/22 10:56:02 METAR KMJX 081556Z 29013G19KT 10SM CLR 06/00 A2997 RMK AO2 SLP152 T00610000
0186720407004622022020816567+39928-074292FM-15+0025KMJX V0202805N009352200059N0160935N5+00725-00225101455ADDGA1005+999999999GD10991+9999999GF100991999999999999999999MA1101425101125OC101085REMMET09402/08/22 11:56:02 METAR KMJX 081656Z 28018G21KT 10SM CLR 07/M02 A2995 RMK AO2 SLP145 T00721022
0230720407004622022020818567+39928-074292FM-15+0025KMJX V0202905N009852200059N0160935N5+00675-00335101395ADDGA1025+012505999GD11991+0125059GE19AGL   +99999+99999GF102995999999012501999999MA1101355101055OC101295REMMET09702/08/22 13:56:02 METAR KMJX 081856Z 29019G25KT 10SM FEW041 07/M03 A2993 RMK AO2 SLP139 T00671033EQDD01      0ADE726
0186720407004622022020819567+39928-074292FM-15+0025KMJX V0202905N007752200059N0160935N5+00565-00445101425ADDGA1005+999999999GD10991+9999999GF100991999999999999999999MA1101395101095OC101135REMMET09402/08/22 14:56:02 METAR KMJX 081956Z 29015G22KT 10SM CLR 06/M04 A2994 RMK AO2 SLP142 T00561044
0206720407004622022020820567+39928-074292FM-15+0025KMJX V0202905N007752200059N0160935N5+00505-00615101555ADDGA1005+999999999GD10991+9999999GF100991999999999999999999MA1101525101225MD1390129+9999OC101185REMMET10002/08/22 15:56:02 METAR KMJX 082056Z 29015G23KT 10SM CLR 05/M06 A2998 RMK AO2 SLP155 T00501061 53012
0182720407004622022020822567+39928-074292FM-15+0025KMJX V0202805N005152200059N0160935N5+00175-00725101735ADDGA1005+999999999GD10991+9999999GF100991999999999999999999MA1101695101395REMMET09802/08/22 17:56:02 METAR KMJX 082256Z 28010KT 10SM CLR 02/M07 A3003 RMK AO2 SLP173 T00171072 FZRANO
0240720407004622022020823567+39928-074292FM-15+0025KMJX V0202905N003652200059N0160935N5+00065-00725101835ADDGA1005+999999999GD10991+9999999GF100991999999999999999999KA1060M+00781KA2060N+00061MA1101795101495MD1390289+9999REMMET11602/08/22 18:56:02 METAR KMJX 082356Z 29007KT 10SM CLR 01/M07 A3006 RMK AO2 SLP183 T00061072 10078 20006 53028 FZRANO
0183720407004622022020900567+39928-074292FM-15+0025KMJX V0202605N002652200059N0160935N5-00065-00675101905ADDGA1005+999999999GD10991+9999999GF100991999999999999999999MA1101865101565REMMET09902/08/22 19:56:01 METAR KMJX 090056Z 26005KT 10SM CLR M01/M07 A3008 RMK AO2 SLP190 T10061067 FZRANO
0183720407004622022020901567+39928-074292FM-15+0025KMJX V0202405N002152200059N0160935N5-00335-00725101955ADDGA1005+999999999GD10991+9999999GF100991999999999999999999MA1101905101595REMMET09902/08/22 20:56:01 METAR KMJX 090156Z 24004KT 10SM CLR M03/M07 A3009 RMK AO2 SLP195 T10331072 FZRANO
0203720407004622022020902567+39928-074292FM-15+0025KMJX V0209999C000052200059N0160935N5-00395-00675101985ADDGA1005+999999999GD10991+9999999GF100991999999999999999999MA1101935101635MD1190149+9999REMMET10502/08/22 21:56:01 METAR KMJX 090256Z 00000KT 10SM CLR M04/M07 A3010 RMK AO2 SLP198 T10391067 51014 FZRANO
0183720407004622022020903567+39928-074292FM-15+0025KMJX V0202705N001552200059N0160935N5-00335-00675101975ADDGA1005+999999999GD10991+9999999GF100991999999999999999999MA1101935101635REMMET09902/08/22 22:56:01 METAR KMJX 090356Z 27003KT 10SM CLR M03/M07 A3010 RMK AO2 SLP197 T10331067 FZRANO
0219720407004622022020904567+39928-074292FM-15+0025KMJX V0202905N002652200059N0160935N5-00505-00725101945ADDGA1005+999999999GD10991+9999999GF100991999999999999999999KA1240M+00781KA2240N-00561MA1101905101595REMMET10902/08/22 23:56:01 METAR KMJX 090456Z 29005KT 10SM CLR M05/M07 A3009 RMK AO2 SLP194 T10501072 400781056 FZRANO
002772040700462202202090459O+39928-074292SOD  +0025KMJX V020999999999999999999999999999+99999+99999999999ADDAT1AU16RA  5AT2AU13BR  5
0241720407004622022020905567+39928-074292FM-15+0025KMJX V0202505N002152200059N0160935N5-00565-00785101975ADDGA1005+999999999GD10991+9999999GF100991999999999999999999KA1060M+00061KA2060N-00561MA1101935101635MD1590019+9999REMMET11702/09/22 00:56:01 METAR KMJX 090556Z 25004KT 10SM CLR M06/M08 A3010 RMK AO2 SLP197 T10561078 10006 21056 55001 FZRANO
0183720407004622022020906567+39928-074292FM-15+0025KMJX V0209999C000052200059N0160935N5-00565-00785102005ADDGA1005+999999999GD10991+9999999GF100991999999999999999999MA1101965101665REMMET09902/09/22 01:56:01 METAR KMJX 090656Z 00000KT 10SM CLR M06/M08 A3011 RMK AO2 SLP200 T10561078 FZRANO
0183720407004622022020907567+39928-074292FM-15+0025KMJX V0209999C000052200059N0160935N5-00565-00725102005ADDGA1005+999999999GD10991+9999999GF100991999999999999999999MA1101965101665REMMET09902/09/22 02:56:01 METAR KMJX 090756Z 00000KT 10SM CLR M06/M07 A3011 RMK AO2 SLP200 T10561072 FZRANO
0237720407004622022020908567+39928-074292FM-15+0025KMJX V0209999C000052200059N0144845N5-00785-00895101965ADDGA1005+999999999GD10991+9999999GF100991999999999999999999MA1101935101635MD1890009+9999REMMET10402/09/22 03:56:01 METAR KMJX 090856Z 00000KT 9SM CLR M08/M09 A3010 RMK AO2 SLP196 T10781089 58000 FZRANOEQDQ010     3APC3  Q028     3APCTEN
0183720407004622022020909567+39928-074292FM-15+0025KMJX V0209999C000052200059N0160935N5-00785-00895102005ADDGA1005+999999999GD10991+9999999GF100991999999999999999999MA1101965101665REMMET09902/09/22 04:56:01 METAR KMJX 090956Z 00000KT 10SM CLR M08/M09 A3011 RMK AO2 SLP200 T10781089 FZRANO
0241720407004622022020911567+39928-074292FM-15+0025KMJX V0209999C000052200059N0160935N5-00835-00945102075ADDGA1005+999999999GD10991+9999999GF100991999999999999999999KA1060M-00501KA2060N-00831MA1102035101735MD1390109+9999REMMET11702/09/22 06:56:01 METAR KMJX 091156Z 00000KT 10SM CLR M08/M09 A3013 RMK AO2 SLP207 T10831094 11050 21083 53010 FZRANO
0183720407004622022020912567+39928-074292FM-15+0025KMJX V0209999C000052200059N0160935N5-00445-00615102115ADDGA1005+999999999GD10991+9999999GF100991999999999999999999MA1102075101765REMMET09902/09/22 07:56:01 METAR KMJX 091256Z 00000KT 10SM CLR M04/M06 A3014 RMK AO2 SLP211 T10441061 FZRANO
0195720407004622022020914567+39928-074292FM-15+0025KMJX V0201805N002152200059N0160935N5+00335-00675102075ADDGA1005+999999999GD10991+9999999GF100991999999999999999999MA1102035101735MD1090009+9999REMMET09702/09/22 09:56:02 METAR KMJX 091456Z 18004KT 10SM CLR 03/M07 A3013 RMK AO2 SLP207 T00331067 50000
0175720407004622022020915567+39928-074292FM-15+0025KMJX V0201705N002652200059N0160935N5+00565-00675102005ADDGA1005+999999999GD10991+9999999GF100991999999999999999999MA1101965101665REMMET09102/09/22 10:56:02 METAR KMJX 091556Z 17005KT 10SM CLR 06/M07 A3011 RMK AO2 SLP200 T00561067
0175720407004622022020916567+39928-074292FM-15+0025KMJX V0201905N004652200059N0160935N5+00785-00505101915ADDGA1005+999999999GD10991+9999999GF100991999999999999999999MA1101865101565REMMET09102/09/22 11:56:02 METAR KMJX 091656Z 19009KT 10SM CLR 08/M05 A3008 RMK AO2 SLP191 T00781050
0233720407004622022020917567+39928-074292FM-15+0025KMJX V0209999V003152200059N0160935N5+00895-00395101805ADDGA1005+999999999GD10991+9999999GF100991999999999999999999KA1060M+00891KA2060N-00831MA1101765101465MD1890279+9999REMMET10902/09/22 12:56:02 METAR KMJX 091756Z VRB06KT 10SM CLR 09/M04 A3005 RMK AO2 SLP180 T00891039 10089 21083 58027
0175720407004622022020918567+39928-074292FM-15+0025KMJX V0201705N005152200059N0160935N5+00945-00395101695ADDGA1005+999999999GD10991+9999999GF100991999999999999999999MA1101665101365REMMET09102/09/22 13:56:02 METAR KMJX 091856Z 17010KT 10SM CLR 09/M04 A3002 RMK AO2 SLP169 T00941039
0175720407004622022020919567+39928-074292FM-15+0025KMJX V0201805N005752200059N0160935N5+00945-00335101625ADDGA1005+999999999GD10991+9999999GF100991999999999999999999MA1101595101295REMMET09102/09/22 14:56:02 METAR KMJX 091956Z 18011KT 10SM CLR 09/M03 A3000 RMK AO2 SLP162 T00941033
0195720407004622022020920567+39928-074292FM-15+0025KMJX V0201905N003652200059N0160935N5+00835-00285101605ADDGA1005+999999999GD10991+9999999GF100991999999999999999999MA1101565101265MD1690209+9999REMMET09702/09/22 15:56:02 METAR KMJX 092056Z 19007KT 10SM CLR 08/M03 A2999 RMK AO2 SLP160 T00831028 56020
0175720407004622022020921567+39928-074292FM-15+0025KMJX V0201605N004652200059N0160935N5+00615-00175101605ADDGA1005+999999999GD10991+9999999GF100991999999999999999999MA1101565101265REMMET09102/09/22 16:56:02 METAR KMJX 092156Z 16009KT 10SM CLR 06/M02 A2999 RMK AO2 SLP160 T00611017
0175720407004622022020922567+39928-074292FM-15+0025KMJX V0201705N002652200059N0160935N5+00395-00065101605ADDGA1005+999999999GD10991+9999999GF100991999999999999999999MA1101565101265REMMET09102/09/22 17:56:02 METAR KMJX 092256Z 17005KT 10SM CLR 04/M01 A2999 RMK AO2 SLP160 T00391006
0203720407004622022021002567+39928-074292FM-15+0025KMJX V0209999C000052200059N0160935N5-00335-00445101545ADDGA1005+999999999GD10991+9999999GF100991999999999999999999MA1101495101195MD1590049+9999REMMET10502/09/22 21:56:01 METAR KMJX 100256Z 00000KT 10SM CLR M03/M04 A2997 RMK AO2 SLP154 T10331044 55004 FZRANO
0183720407004622022021006567+39928-074292FM-15+0025KMJX V0201905N001552200059N0160935N5-00395-00505101305ADDGA1005+999999999GD10991+9999999GF100991999999999999999999MA1101255100955REMMET09902/10/22 01:56:02 METAR KMJX 100656Z 19003KT 10SM CLR M04/M05 A2990 RMK AO2 SLP130 T10391050 FZRANO
0183720407004622022021007567+39928-074292FM-15+0025KMJX V0201705N002152200059N0160935N5-00225-00285101275ADDGA1005+999999999GD10991+9999999GF100991999999999999999999MA1101225100925REMMET09902/10/22 02:56:02 METAR KMJX 100756Z 17004KT 10SM CLR M02/M03 A2989 RMK AO2 SLP127 T10221028 FZRANO
0227720407004622022021010567+39928-074292FM-15+0025KMJX V0209999C000052200059N0160935N5-00335-00395101225ADDGA1025+033535999GD11991+0335359GE19AGL   +99999+99999GF102995999999033531999999MA1101195100895REMMET10202/10/22 05:56:02 METAR KMJX 101056Z 00000KT 10SM FEW110 M03/M04 A2988 RMK AO2 SLP122 T10331039 FZRANOEQDD01      0ADE726
0210720407004622022021011497+39928-074292FM-15+0025KMJX V0202505N001552200059N0160935N5-00405-00405999999ADDGA1045+000305999GD12991+0003059GE19AGL   +99999+99999GF104995999999000301999999MA1101225100925REMMET08502/10/22 06:49:02 METAR KMJX 101149Z 25003KT 10SM SCT001 M04/M04 A2989 RMK AO2 FZRANOEQDD01      0ADE726
0266720407004622022021011567+39928-074292FM-15+0025KMJX V0209999C00005000305MN0160935N5-00395-00445101265ADDGA1075+000305999GD13991+0003059GE19AGL   +99999+99999GF199999999999000301999999KA1060M-00171KA2060N-00441MA1101225100925MD1390049+9999REMMET12002/10/22 06:56:02 METAR KMJX 101156Z 00000KT 10SM BKN001 M04/M04 A2989 RMK AO2 SLP126 T10391044 11017 21044 53004 FZRANO
0214720407004622022021012087+39928-074292FM-15+0025KMJX V0209999C00005000305MN0004025N5-00305-00405999999ADDAU108002015AW1355GA1075+000305999GD13991+0003059GE19AGL   +99999+99999GF199999999999000301999999MA1101255100955REMMET09102/10/22 07:08:02 METAR KMJX 101208Z 00000KT 1/4SM FZFG BKN001 M03/M04 A2990 RMK AO2 FZRANO
0233720407004622022021012247+39928-074292FM-15+0025KMJX V0202205N001552200059N0024145N5-00405-00505999999ADDAU100001015AW1105GA1025+000615999GD11991+0006159GE19AGL   +99999+99999GF102995999999000611999999MA1101255100955REMMET09102/10/22 07:24:02 METAR KMJX 101224Z 22003KT 1 1/2SM BR FEW002 M04/M05 A2990 RMK AO2 FZRANOEQDD01      0ADE726
0166720407004622022021012317+39928-074292FM-15+0025KMJX V0202205N002152200059N0160935N5-00305-00405999999ADDGA1005+999999999GD10991+9999999GF100991999999999999999999MA1101255100955REMMET08202/10/22 07:31:02 METAR KMJX 101231Z 22004KT 10SM CLR M03/M04 A2990 RMK AO2 FZRANO
0174720407004622022021013567+39928-074292FM-15+0025KMJX V0202205N002652200059N0160935N5+00615+00175101305ADDGA1005+999999999GD10991+9999999GF100991999999999999999999MA1101255100955REMMET09002/10/22 08:56:02 METAR KMJX 101356Z 22005KT 10SM CLR 06/02 A2990 RMK AO2 SLP130 T00610017
0205720407004622022021014567+39928-074292FM-15+0025KMJX V0202505N005152200059N0160935N5+01005+00065101315ADDGA1005+999999999GD10991+9999999GF100991999999999999999999MA1101255100955MD1190059+9999OC100825REMMET09902/10/22 09:56:02 METAR KMJX 101456Z 25010G16KT 10SM CLR 10/01 A2990 RMK AO2 SLP131 T01000006 51005
0262720407004622022021016567+39928-074292FM-15+0025KMJX V0202505N007252200059N0160935N5+01336-00335101215ADDGA1025+019815999GD11991+0198159GE19AGL   +99999+99999GF102995999999019811999999MA1101155100855OC101295OD149901491250REMMET11502/10/22 11:56:02 METAR KMJX 101656Z 25014G25KT 10SM FEW065 13/M03 A2987 RMK AO2 PK WND 25029/1618 SLP121 T01331033EQDD01      0ADE726
0259720407004622022021023567+39928-074292FM-15+0025KMJX V0209999C000052200059N0160935N5+00226-00395101415ADDGA1005+999999999GD10991+9999999GF100991999999999999999999KA1060M+01331KA2060N+00221MA1101355101055MD1390259+9999REMMET11602/10/22 18:56:02 METAR KMJX 102356Z 00000KT 10SM CLR 02/M04 A2993 RMK AO2 SLP141 T00221039 10133 20022 53025 FZRANOEQDR01  00227TMP028
0200720407004622022021100567+39928-074292FM-15+0025KMJX V0209999C00005027435MN0160935N5+00285-00225101485ADDGA1085+027435999GD14991+0274359GE19AGL   +99999+99999GF199999999999027431999999MA1101465101165REMMET09402/10/22 19:56:01 METAR KMJX 110056Z 00000KT 10SM OVC090 03/M02 A2996 RMK AO2 SLP148 T00281022
0227720407004622022021103567+39928-074292FM-15+0025KMJX V0209999C000052200059N0160935N5-00175-00445101595ADDGA1025+027435999GD11991+0274359GE19AGL   +99999+99999GF102995999999027431999999MA1101565101265REMMET10202/10/22 22:56:02 METAR KMJX 110356Z 00000KT 10SM FEW090 M02/M04 A2999 RMK AO2 SLP159 T10171044 FZRANOEQDD01      0ADE726
003972040700462202202110459O+39928-074292SOD  +0025KMJX V020999999999999999999999999999+99999+99999999999ADDAT1AU22FZFG5AT2AU13BR  5AT3AW01FG  5
0285720407004622022021105567+39928-074292FM-15+0025KMJX V0209999C000052200059N0160935N5-00115-00395101565ADDGA1045+033535999GD12991+0335359GE19AGL   +99999+99999GF104995999999033531999999KA1060M+00281KA2060N-00221MA1101525101225MD1590039+9999REMMET12002/11/22 00:56:02 METAR KMJX 110556Z 00000KT 10SM SCT110 M01/M04 A2998 RMK AO2 SLP156 T10111039 10028 21022 55003 FZRANOEQDD01      0ADE726
0246720407004622022021106567+39928-074292FM-15+0025KMJX V0209999C00005028965MN0160935N5-00175-00395101585ADDGA1025+022865999GA2075+028965999GD11991+0228659GD23991+0289659GE19AGL   +99999+99999GF199999999999022861999999MA1101525101225REMMET10902/11/22 01:56:02 METAR KMJX 110656Z 00000KT 10SM FEW075 BKN095 M02/M04 A2998 RMK AO2 SLP158 T10171039 FZRANO
0271720407004622022021108567+39928-074292FM-15+0025KMJX V0209999C00005030485MN0160935N5-00175-00395101605ADDGA1025+021345999GA2085+030485999GD11991+0213459GD24991+0304859GE19AGL   +99999+99999GF199999999999021341999999MA1101565101265MD1290059+9999REMMET12002/11/22 03:56:02 METAR KMJX 110856Z 00000KT 10SM FEW070 OVC100 M02/M04 A2999 RMK AO2 SLP160 T10171039 52005 FZRANO TSNO
0183720407004622022021110567+39928-074292FM-15+0025KMJX V0209999C000052200059N0160935N5-00395-00565101715ADDGA1005+999999999GD10991+9999999GF100991999999999999999999MA1101665101365REMMET09902/11/22 05:56:02 METAR KMJX 111056Z 00000KT 10SM CLR M04/M06 A3002 RMK AO2 SLP171 T10391056 FZRANO
0241720407004622022021111567+39928-074292FM-15+0025KMJX V0209999C000052200059N0160935N5-00445-00565101745ADDGA1005+999999999GD10991+9999999GF100991999999999999999999KA1060M-00061KA2060N-00441MA1101695101395MD1190139+9999REMMET11702/11/22 06:56:02 METAR KMJX 111156Z 00000KT 10SM CLR M04/M06 A3003 RMK AO2 SLP174 T10441056 11006 21044 51013 FZRANO
0183720407004622022021112567+39928-074292FM-15+0025KMJX V0209999C000052200059N0160935N5-00115-00285101795ADDGA1005+999999999GD10991+9999999GF100991999999999999999999MA1101765101465REMMET09902/11/22 07:56:02 METAR KMJX 111256Z 00000KT 10SM CLR M01/M03 A3005 RMK AO2 SLP179 T10111028 FZRANO
0174720407004622022021113567+39928-074292FM-15+0025KMJX V0201605N002652200059N0160935N5+00785+00065101795ADDGA1005+999999999GD10991+9999999GF100991999999999999999999MA1101765101465REMMET09002/11/22 08:56:02 METAR KMJX 111356Z 16005KT 10SM CLR 08/01 A3005 RMK AO2 SLP179 T00780006
0195720407004622022021114567+39928-074292FM-15+0025KMJX V0201805N004652200059N0160935N5+01175-00175101795ADDGA1005+999999999GD10991+9999999GF100991999999999999999999MA1101765101465MD1090059+9999REMMET09702/11/22 09:56:02 METAR KMJX 111456Z 18009KT 10SM CLR 12/M02 A3005 RMK AO2 SLP179 T01171017 50005
0186720407004622022021115567+39928-074292FM-15+0025KMJX V0201705V003652200059N0160935N5+01335-00285101765ADDGA1005+999999999GD10991+9999999GF100991999999999999999999MA1101735101435OC100725REMMET09402/11/22 10:56:02 METAR KMJX 111556Z 17007G14KT 10SM CLR 13/M03 A3004 RMK AO2 SLP176 T01331028
0244720407004622022021117567+39928-074292FM-15+0025KMJX V0201805N006252200059N0160935N5+01395-00065101565ADDGA1005+999999999GD10991+9999999GF100991999999999999999999KA1060M+01501KA2060N-00441MA1101525101225MD1890229+9999OC100985REMMET11202/11/22 12:56:02 METAR KMJX 111756Z 18012G19KT 10SM CLR 14/M01 A2998 RMK AO2 SLP156 T01391006 10150 21044 58022
0186720407004622022021118567+39928-074292FM-15+0025KMJX V0201705N005752200059N0160935N5+01445-00065101475ADDGA1005+999999999GD10991+9999999GF100991999999999999999999MA1101425101125OC100935REMMET09402/11/22 13:56:02 METAR KMJX 111856Z 17011G18KT 10SM CLR 14/M01 A2995 RMK AO2 SLP147 T01441006
0206720407004622022021120567+39928-074292FM-15+0025KMJX V0201705N006252200059N0160935N5+01285-00175101385ADDGA1005+999999999GD10991+9999999GF100991999999999999999999MA1101355101055MD1690189+9999OC100935REMMET10002/11/22 15:56:02 METAR KMJX 112056Z 17012G18KT 10SM CLR 13/M02 A2993 RMK AO2 SLP138 T01281017 56018
0174720407004622022021121567+39928-074292FM-15+0025KMJX V0201705N004652200059N0160935N5+01115+00005101375ADDGA1005+999999999GD10991+9999999GF100991999999999999999999MA1101325101025REMMET09002/11/22 16:56:02 METAR KMJX 112156Z 17009KT 10SM CLR 11/00 A2992 RMK AO2 SLP137 T01110000
0186720407004622022021122567+39928-074292FM-15+0025KMJX V0201805N006252200059N0160935N5+00945-00065101395ADDGA1005+999999999GD10991+9999999GF100991999999999999999999MA1101355101055OC100935REMMET09402/11/22 17:56:02 METAR KMJX 112256Z 18012G18KT 10SM CLR 09/M01 A2993 RMK AO2 SLP139 T00941006
0244720407004622022021123567+39928-074292FM-15+0025KMJX V0201805N005752200059N0160935N5+00945-00115101435ADDGA1005+999999999GD10991+9999999GF100991999999999999999999KA1060M+01441KA2060N+00941MA1101395101095MD1390049+9999OC100825REMMET11202/11/22 18:56:02 METAR KMJX 112356Z 18011G16KT 10SM CLR 09/M01 A2994 RMK AO2 SLP143 T00941011 10144 20094 53004
0186720407004622022021201567+39928-074292FM-15+0025KMJX V0201905N005752200059N0160935N5+01005-00175101415ADDGA1005+999999999GD10991+9999999GF100991999999999999999999MA1101395101095OC100885REMMET09402/11/22 20:56:01 METAR KMJX 120156Z 19011G17KT 10SM CLR 10/M02 A2994 RMK AO2 SLP141 T01001017
0175720407004622022021203567+39928-074292FM-15+0025KMJX V0201905N004652200059N0160935N5+01065-00175101345ADDGA1005+999999999GD10991+9999999GF100991999999999999999999MA1101325101025REMMET09102/11/22 22:56:01 METAR KMJX 120356Z 19009KT 10SM CLR 11/M02 A2992 RMK AO2 SLP134 T01061017
0222720407004622022021204567+39928-074292FM-15+0025KMJX V0201805N005152200059N0160935N5+01065-00115101325ADDGA1005+999999999GD10991+9999999GF100991999999999999999999KA1240M+01501KA2240N-00441MA1101295100995OC100825REMMET10402/11/22 23:56:02 METAR KMJX 120456Z 18010G16KT 10SM CLR 11/M01 A2991 RMK AO2 SLP132 T01061011 401501044
0174720407004622022021206567+39928-074292FM-15+0025KMJX V0201905N003652200059N0160935N5+00945+00005101285ADDGA1005+999999999GD10991+9999999GF100991999999999999999999MA1101255100955REMMET09002/12/22 01:56:02 METAR KMJX 120656Z 19007KT 10SM CLR 09/00 A2990 RMK AO2 SLP128 T00940000
0174720407004622022021207567+39928-074292FM-15+0025KMJX V0202005N004652200059N0160935N5+01005+00005101245ADDGA1005+999999999GD10991+9999999GF100991999999999999999999MA1101225100925REMMET09002/12/22 02:56:02 METAR KMJX 120756Z 20009KT 10SM CLR 10/00 A2989 RMK AO2 SLP124 T01000000
0194720407004622022021208567+39928-074292FM-15+0025KMJX V0202005N004152200059N0160935N5+01005+00005101225ADDGA1005+999999999GD10991+9999999GF100991999999999999999999MA1101195100895MD1890069+9999REMMET09602/12/22 03:56:02 METAR KMJX 120856Z 20008KT 10SM CLR 10/00 A2988 RMK AO2 SLP122 T01000000 58006
0174720407004622022021209567+39928-074292FM-15+0025KMJX V0202005N003652200059N0160935N5+01005+00005101235ADDGA1005+999999999GD10991+9999999GF100991999999999999999999MA1101195100895REMMET09002/12/22 04:56:02 METAR KMJX 120956Z 20007KT 10SM CLR 10/00 A2988 RMK AO2 SLP123 T01000000
0232720407004622022021211567+39928-074292FM-15+0025KMJX V0202605N004152200059N0160935N5+00945+00065101325ADDGA1005+999999999GD10991+9999999GF100991999999999999999999KA1060M+01061KA2060N+00891MA1101295100995MD1390109+9999REMMET10802/12/22 06:56:02 METAR KMJX 121156Z 26008KT 10SM CLR 09/01 A2991 RMK AO2 SLP132 T00940006 10106 20089 53010
0174720407004622022021212567+39928-074292FM-15+0025KMJX V0202505N005152200059N0160935N5+01175+00065101395ADDGA1005+999999999GD10991+9999999GF100991999999999999999999MA1101355101055REMMET09002/12/22 07:56:02 METAR KMJX 121256Z 25010KT 10SM CLR 12/01 A2993 RMK AO2 SLP139 T01170006
0174720407004622022021213567+39928-074292FM-15+0025KMJX V0202505N007252200059N0160935N5+01285+00115101455ADDGA1005+999999999GD10991+9999999GF100991999999999999999999MA1101425101125REMMET09002/12/22 08:56:02 METAR KMJX 121356Z 25014KT 10SM CLR 13/01 A2995 RMK AO2 SLP145 T01280011
0205720407004622022021214567+39928-074292FM-15+0025KMJX V0202705N006252200059N0160935N5+01395+00115101455ADDGA1005+999999999GD10991+9999999GF100991999999999999999999MA1101425101125MD1190139+9999OC100985REMMET09902/12/22 09:56:02 METAR KMJX 121456Z 27012G19KT 10SM CLR 14/01 A2995 RMK AO2 SLP145 T01390011 51013
0174720407004622022021216567+39928-074292FM-15+0025KMJX V0202805N005752200059N0160935N5+01615+00225101485ADDGA1005+999999999GD10991+9999999GF100991999999999999999999MA1101465101165REMMET09002/12/22 11:56:02 METAR KMJX 121656Z 28011KT 10SM CLR 16/02 A2996 RMK AO2 SLP148 T01610022
0232720407004622022021217567+39928-074292FM-15+0025KMJX V0202905N007752200059N0160935N5+01675+00285101435ADDGA1005+999999999GD10991+9999999GF100991999999999999999999KA1060M+01671KA2060N+00941MA1101395101095MD1890029+9999REMMET10802/12/22 12:56:02 METAR KMJX 121756Z 29015KT 10SM CLR 17/03 A2994 RMK AO2 SLP143 T01670028 10167 20094 58002
0174720407004622022021218567+39928-074292FM-15+0025KMJX V0202805N008852200059N0160935N5+01675+00225101435ADDGA1005+999999999GD10991+9999999GF100991999999999999999999MA1101395101095REMMET09002/12/22 13:56:02 METAR KMJX 121856Z 28017KT 10SM CLR 17/02 A2994 RMK AO2 SLP143 T01670022
0194720407004622022021220567+39928-074292FM-15+0025KMJX V0202705N006252200059N0160935N5+01445+00005101595ADDGA1005+999999999GD10991+9999999GF100991999999999999999999MA1101565101265MD1390179+9999REMMET09602/12/22 15:56:02 METAR KMJX 122056Z 27012KT 10SM CLR 14/00 A2999 RMK AO2 SLP159 T01440000 53017
0233720407004622022021223567+39928-074292FM-15+0025KMJX V0202805N002652200059N0160935N5+01115-00395101905ADDGA1005+999999999GD10991+9999999GF100991999999999999999999KA1060M+01721KA2060N+01061MA1101865101565MD1390309+9999REMMET10902/12/22 18:56:02 METAR KMJX 122356Z 28005KT 10SM CLR 11/M04 A3008 RMK AO2 SLP190 T01111039 10172 20106 53030
0175720407004622022021300567+39928-074292FM-15+0025KMJX V0203305N005152200059N0160935N5+01005-00225101945ADDGA1005+999999999GD10991+9999999GF100991999999999999999999MA1101905101595REMMET09102/12/22 19:56:01 METAR KMJX 130056Z 33010KT 10SM CLR 10/M02 A3009 RMK AO2 SLP194 T01001022
0205720407004622022021301567+39928-074292FM-15+0025KMJX V0203305N00465027435MN0160935N5+00835-00285101995ADDGA1075+027435999GD13991+0274359GE19AGL   +99999+99999GF199999999999027431999999MA1101965101665REMMET09902/12/22 20:56:01 METAR KMJX 130156Z 33009KT 10SM BKN090 08/M03 A3011 RMK AO2 SLP199 T00831028 TSNO
0239720407004622022021302567+39928-074292FM-15+0025KMJX V0203405N003152200059N0160935N5+00725-00335102025ADDGA1045+021345999GD12991+0213459GE19AGL   +99999+99999GF104995999999021341999999MA1102005101705MD1190129+9999REMMET10002/12/22 21:56:01 METAR KMJX 130256Z 34006KT 10SM SCT070 07/M03 A3012 RMK AO2 SLP202 T00721033 51012EQDD01      0ADE726
0238720407004622022021303567+39928-074292FM-15+0025KMJX V0203405N00415024385MN0160935N5+00675-00445102055ADDGA1025+019815999GA2085+024385999GD11991+0198159GD24991+0243859GE19AGL   +99999+99999GF199999999999019811999999MA1102035101735REMMET10102/12/22 22:56:02 METAR KMJX 130356Z 34008KT 10SM FEW065 OVC080 07/M04 A3013 RMK AO2 SLP205 T00671044
0236720407004622022021304567+39928-074292FM-15+0025KMJX V0203205N00415018295MN0160935N5+00615-00565102075ADDGA1085+018295999GD14991+0182959GE19AGL   +99999+99999GF199999999999018291999999KA1240M+01721KA2240N+00611MA1102035101735REMMET10402/12/22 23:56:02 METAR KMJX 130456Z 32008KT 10SM OVC060 06/M06 A3013 RMK AO2 SLP207 T00611056 401720061
0334720407004622022021305567+39928-074292FM-15+0025KMJX V0203505N00515022865MN0160935N5+00505-00505101985ADDGA1025+018295999GA2075+022865999GA3085+030485999GD11991+0182959GD23991+0228659GD34991+0304859GE19AGL   +99999+99999GF199999999999018291999999KA1060M+01111KA2060N+00501MA1101935101635MD1890049+9999REMMET12602/13/22 00:56:02 METAR KMJX 130556Z 35010KT 10SM FEW060 BKN075 OVC100 05/M05 A3010 RMK AO2 SLP198 T00501050 10111 20050 58004
0288720407004622022021307567+39928-074292FM-15+0025KMJX V0203305N00415018295MN0160935N5+00285-00225102045ADDAA101000021AU110020015AW1615GA1045+013415999GA2085+018295999GD12991+0134159GD24991+0182959GE19AGL   +99999+99999GF199999999999013411999999MA1102005101705MW1615REMMET11702/13/22 02:56:02 METAR KMJX 130756Z 33008KT 10SM -RA SCT044 OVC060 03/M02 A3012 RMK AO2 RAB25 SLP204 P0000 T00281022
0354720407004622022021308567+39928-074292FM-15+0025KMJX V0203305N00265019815MN0160935N5+00225-00115102085ADDAA101000021AA203000021AU110020015AW1615GA1045+014945999GA2085+019815999GD12991+0149459GD24991+0198159GE19AGL   +99999+99999GF199999999999014941999999MA1102075101765MD1390109+9999MW1615REMMET13902/13/22 03:56:01 METAR KMJX 130856Z 33005KT 10SM -RA SCT049 OVC065 02/M01 A3014 RMK AO2 UPB20E22 SLP208 P0000 60000 T00221011 53010 FZRANOEQDQ01  00008PRCP03
0380720407004622022021310567+39928-074292FM-15+0025KMJX V0203605N00215003055MN0064375N5+00065+00005102215ADDAA101000395AU110030015AU200001015AW1105AW2715GA1075+003055999GA2075+009755999GA3085+015245999GD13991+0030551GD23991+0097559GD34991+0152459GE19AGL   +99999+99999GF199999999999003051999999MA1102175101875MW1715REMMET16102/13/22 05:56:01 METAR KMJX 131056Z 36004KT 4SM -SN BR BKN010 BKN032 OVC050 01/00 A3017 RMK AO2 UPE12B43E45SNB12E43B45 CIG 008V013 SLP221 P0001 T00060000 FZRANO
0340720407004622022021311087+39928-074292FM-15+0025KMJX V0200205N00265002445MN0064375N5+00105+00005999999ADDAA101000021AU110030015AU200001015AW1105AW2715GA1075+002445999GA2075+007925999GA3085+015245999GD13991+0024451GD23991+0079259GD34991+0152459GE19AGL   +99999+99999GF199999999999002441999999MA1102175101875MW1715REMMET12102/13/22 06:08:02 METAR KMJX 131108Z 02005KT 4SM -SN BR BKN008 BKN026 OVC050 01/00 A3017 RMK AO2 CIG 005V012 P0000 FZRANO
0290720407004622022021311187+39928-074292FM-15+0025KMJX V0200205N00315005795MN0032195N5+00105+00005999999ADDAA101000021AU110030015AU200001015AW1105AW2715GA1045+002445999GA2085+005795999GD12991+0024459GD24991+0057959GE19AGL   +99999+99999GF199999999999002441999999MA1102175101875MW1715REMMET10202/13/22 06:18:02 METAR KMJX 131118Z 02006KT 2SM -SN BR SCT008 OVC019 01/00 A3017 RMK AO2 P0000 FZRANO
0277720407004622022021311507+39928-074292FM-15+0025KMJX V0200305N00315001225MN0032195V5+00005-00105999999ADDAA101000595AU110030015AU200001015AW1105AW2715GA1085+001225999GD14991+0012251GE19AGL   +99999+99999GF199999999999001221999999MA1102135101835MW1715REMMET12002/13/22 06:50:02 METAR KMJX 131150Z 03006KT 2SM -SN BR OVC004 00/M01 A3016 RMK AO2 VIS 1 1/2V4 CIG 003V008 P0002 FZRANO
0265720407004622022021312317+39928-074292FM-15+0025KMJX V0200605N00265001225MN0024145V5+00005-00105999999ADDAA101000395AU110030015AU200001015AW1105AW2715GA1085+001225999GD14991+0012259GE19AGL   +99999+99999GF199999999999001221999999MA1102135101835MW1715REMMET10802/13/22 07:31:02 METAR KMJX 131231Z 06005KT 1 1/2SM -SN BR OVC004 00/M01 A3016 RMK AO2 VIS 1V5 P0001 FZRANO
0273720407004622022021313167+39928-074292FM-15+0025KMJX V0200405N00215001225MN0020125N5+00105+00005999999ADDAA101000021AU110030015AU200001015AW1105AW2715GA1085+001225999GD14991+0012251GE19AGL   +99999+99999GF199999999999001221999999MA1102175101875MW1715REMMET11602/13/22 08:16:02 METAR KMJX 131316Z 04004KT 1 1/4SM -SN BR OVC004 01/00 A3017 RMK AO2 CIG 003V007 P0000 FZRANO TSNO
0252720407004622022021313367+39928-074292FM-15+0025KMJX V0200305N00215001225MN0048285N5+00105+00005999999ADDAA101000395AU110030015AU200001015AW1105AW2715GA1085+001225999GD14991+0012259GE19AGL   +99999+99999GF199999999999001221999999MA1102175101875MW1715REMMET09502/13/22 08:36:02 METAR KMJX 131336Z 03004KT 3SM -SN BR OVC004 01/00 A3017 RMK AO2 P0001 FZRANO
0261720407004622022021313547+39928-074292FM-15+0025KMJX V0200505N00215001225MN0032195N5+00105+00005999999ADDAA101000395AU110030015AU200001015AW1105AW2715GA1085+001225999GD14991+0012259GE19AGL   +99999+99999GF199999999999001221999999MA1102175101875MW1715REMMET10402/13/22 08:54:02 METAR KMJX 131354Z 05004KT 2SM -SN BR OVC004 01/00 A3017 RMK AO2 RAB43E47 P0001 FZRANO
0278720407004622022021313567+39928-074292FM-15+0025KMJX V0200605N00155001225MN0032195N5+00065+00005102225ADDAA101000395AU110030015AU200001015AW1105AW2715GA1085+001225999GD14991+0012259GE19AGL   +99999+99999GF199999999999001221999999MA1102175101875MW1715REMMET12102/13/22 08:56:02 METAR KMJX 131356Z 06003KT 2SM -SN BR OVC004 01/00 A3017 RMK AO2 RAB43E47 SLP222 P0001 T00060000 FZRANO
0243720407004622022021314387+39928-074292FM-15+0025KMJX V0200205N00155001835MN0112655N5+00105+00005999999ADDAA101000021AU110020015AW1615GA1085+001835999GD14991+0018359GE19AGL   +99999+99999GF199999999999001831999999MA1102175101875MW1615REMMET10302/13/22 09:38:02 METAR KMJX 131438Z 02003KT 7SM -RA OVC006 01/00 A3017 RMK AO2 RAB36SNE36 P0000 FZRANO
0292720407004622022021314567+39928-074292FM-15+0025KMJX V0200505N00265001835MN0128755N5+00065+00065102175ADDAA101000021AA203000591GA1085+001835999GD14991+0018359GE19AGL   +99999+99999GF199999999999001831999999MA1102135101835MD1890029+9999REMMET13102/13/22 09:56:02 METAR KMJX 131456Z 05005KT 8SM OVC006 01/01 A3016 RMK AO2 RAB36E47SNE36 SLP217 P0000 60002 T00060006 58002 FZRANOEQDQ01  00058PRCP03
0275720407004622022021315567+39928-074292FM-15+0025KMJX V0200305N00265001835MN0160935N5+00115+00065102165ADDAA101000021AU120090015AW1401AW2415GA1085+001835999GD14991+0018351GE19AGL   +99999+99999GF199999999999001831999999MA1102135101835REMMET13502/13/22 10:56:02 METAR KMJX 131556Z 03005KT 10SM UP OVC006 01/01 A3016 RMK AO2 RAB08E26UPB53 CIG 005V010 SLP216 P0000 T00110006 FZRANO
0282720407004622022021316517+39928-074292FM-15+0025KMJX V0200105N00315001525MN0160935N5+00105+00105999999ADDAA101000021AU110020015AW1615GA1075+001525999GA2085+003355999GD13991+0015259GD24991+0033559GE19AGL   +99999+99999GF199999999999001521999999MA1102005101705MW1615REMMET11102/13/22 11:51:02 METAR KMJX 131651Z 01006KT 10SM -RA BKN005 OVC011 01/01 A3012 RMK AO2 UPE18RAB18 P0000 FZRANO
0273720407004622022021316567+39928-074292FM-15+0025KMJX V0200205N00315002445MN0160935N5+00115+00065102015ADDAA101000021AU110020015AW1615GA1085+002445999GD14991+0024451GE19AGL   +99999+99999GF199999999999002441999999MA1101965101665MW1615REMMET13302/13/22 11:56:02 METAR KMJX 131656Z 02006KT 10SM -RA OVC008 01/01 A3011 RMK AO2 UPE18RAB18 CIG 005V012 SLP201 P0000 T00110006 FZRANO
0303720407004622022021319187+39928-074292FM-15+0025KMJX V0203605N00365001835MN0048285N5+00005-00105999999ADDAA101000021AU110030015AU200001015AW1105AW2715GA1075+001835999GA2085+003665999GD13991+0018351GD24991+0036659GE19AGL   +99999+99999GF199999999999001831999999MA1101765101465MW1715REMMET11502/13/22 14:18:02 METAR KMJX 131918Z 36007KT 3SM -SN BR BKN006 OVC012 00/M01 A3005 RMK AO2 CIG 004V008 P0000 FZRANO
0309720407004622022021320037+39928-074292FM-15+0025KMJX V0203605N00315003965MN0128755N5+00005-00105999999ADDAA101000021AU110030015AW1715GA1025+002445999GA2075+003965999GA3085+018295999GD11991+0024459GD23991+0039659GD34991+0182959GE19AGL   +99999+99999GF199999999999002441999999MA1101735101435MW1715REMMET10702/13/22 15:03:02 METAR KMJX 132003Z 36006KT 8SM -SN FEW008 BKN013 OVC060 00/M01 A3004 RMK AO2 P0000 FZRANO
0329720407004622022021320127+39928-074292FM-15+0025KMJX V0200205N00315006715MN0080475N5+00005-00105999999ADDAA101000021AU110030015AU200001015AW1105AW2715GA1045+004275999GA2075+006715999GA3085+018295999GD12991+0042759GD23991+0067159GD34991+0182959GE19AGL   +99999+99999GF199999999999004271999999MA1101735101435MW1715REMMET11002/13/22 15:12:02 METAR KMJX 132012Z 02006KT 5SM -SN BR SCT014 BKN022 OVC060 00/M01 A3004 RMK AO2 P0000 FZRANO
0345720407004622022021320277+39928-074292FM-15+0025KMJX V0200105N00215010975MN0040235V5+00005-00105999999ADDAA101000395AU110030015AU200001015AW1105AW2715GA1025+004275999GA2075+010975999GA3085+018295999GD11991+0042759GD23991+0109759GD34991+0182959GE19AGL   +99999+99999GF199999999999004271999999MA1101735101435MW1715REMMET12602/13/22 15:27:02 METAR KMJX 132027Z 01004KT 2 1/2SM -SN BR FEW014 BKN036 OVC060 00/M01 A3004 RMK AO2 VIS 1 1/2V4 P0001 FZRANO
0343720407004622022021320417+39928-074292FM-15+0025KMJX V0200205N00265009455MN0020125V5+00005-00105999999ADDAA101000395AU110030015AU200001015AW1105AW2715GA1025+003965999GA2075+009455999GA3085+011895999GD11991+0039659GD23991+0094559GD34991+0118959GE19AGL   +99999+99999GF199999999999003961999999MA1101695101395MW1715REMMET12402/13/22 15:41:02 METAR KMJX 132041Z 02005KT 1 1/4SM -SN BR FEW013 BKN031 OVC039 00/M01 A3003 RMK AO2 VIS 3/4V3 P0001 FZRANO
0333720407004622022021320447+39928-074292FM-15+0025KMJX V0200105N00265006405MN0020125N5+00005-00105999999ADDAA101000395AU110030015AU200001015AW1105AW2715GA1025+002745999GA2075+006405999GA3085+011895999GD11991+0027459GD23991+0064059GD34991+0118959GE19AGL   +99999+99999GF199999999999002741999999MA1101695101395MW1715REMMET11402/13/22 15:44:02 METAR KMJX 132044Z 01005KT 1 1/4SM -SN BR FEW009 BKN021 OVC039 00/M01 A3003 RMK AO2 P0001 FZRANO
0295720407004622022021321117+39928-074292FM-15+0025KMJX V0200305N00265005795MN0020125N5+00005-00105999999ADDAA101000021AU110030015AU200001015AW1105AW2715GA1045+002745999GA2085+005795999GD12991+0027459GD24991+0057959GE19AGL   +99999+99999GF199999999999002741999999MA1101695101395MW1715REMMET10702/13/22 16:11:02 METAR KMJX 132111Z 03005KT 1 1/4SM -SN BR SCT009 OVC019 00/M01 A3003 RMK AO2 P0000 FZRANO
0303720407004622022021321177+39928-074292FM-15+0025KMJX V0200305N00265002745MN0032195N5+00005-00105999999ADDAA101000021AU110030015AU200001015AW1105AW2715GA1075+002745999GA2085+005795999GD13991+0027451GD24991+0057959GE19AGL   +99999+99999GF199999999999002741999999MA1101695101395MW1715REMMET11502/13/22 16:17:02 METAR KMJX 132117Z 03005KT 2SM -SN BR BKN009 OVC019 00/M01 A3003 RMK AO2 CIG 006V014 P0000 FZRANO
0307720407004622022021321357+39928-074292FM-15+0025KMJX V0200205N00315002745MN0028165N5+00005-00105999999ADDAA101000021AU110030015AU200001015AW1105AW2715GA1075+002745999GA2085+004275999GD13991+0027451GD24991+0042759GE19AGL   +99999+99999GF199999999999002741999999MA1101695101395MW1715REMMET11902/13/22 16:35:02 METAR KMJX 132135Z 02006KT 1 3/4SM -SN BR BKN009 OVC014 00/M01 A3003 RMK AO2 CIG 005V013 P0000 FZRANO
0319720407004622022021321497+39928-074292FM-15+0025KMJX V0200305N00315002135MN0040235V5+00005-00105999999ADDAA101000021AU110030015AU200001015AW1105AW2715GA1075+002135999GA2085+003665999GD13991+0021351GD24991+0036659GE19AGL   +99999+99999GF199999999999002131999999MA1101695101395MW1715REMMET13102/13/22 16:49:02 METAR KMJX 132149Z 03006KT 2 1/2SM -SN BR BKN007 OVC012 00/M01 A3003 RMK AO2 VIS 1 3/4V4 CIG 004V010 P0000 FZRANO
0334720407004622022021322317+39928-074292FM-15+0025KMJX V0203605N00215012195MN0040235N5-00105-00105999999ADDAA101000021AU110030015AU200001015AW1105AW2715GA1045+001525999GA2075+012195999GA3085+015245999GD12991+0015259GD23991+0121959GD34991+0152459GE19AGL   +99999+99999GF199999999999001521999999MA1101695101395MW1715REMMET11502/13/22 17:31:02 METAR KMJX 132231Z 36004KT 2 1/2SM -SN BR SCT005 BKN040 OVC050 M01/M01 A3003 RMK AO2 P0000 FZRANO
0330720407004622022021322547+39928-074292FM-15+0025KMJX V0203605N00315003665MN0048285N5-00105-00105999999ADDAA101000021AU110030015AU200001015AW1105AW2715GA1045+002445999GA2075+003665999GA3085+011585999GD12991+0024459GD23991+0036659GD34991+0115859GE19AGL   +99999+99999GF199999999999002441999999MA1101695101395MW1715REMMET11102/13/22 17:54:02 METAR KMJX 132254Z 36006KT 3SM -SN BR SCT008 BKN012 OVC038 M01/M01 A3003 RMK AO2 P0000 FZRANO
0342720407004622022021323387+39928-074292FM-15+0025KMJX V0200105N00365001835MN0064375N5-00105-00105999999ADDAA101000395AU110030015AU200001015AW1105AW2715GA1075+001835999GA2075+005795999GA3085+011585999GD13991+0018351GD23991+0057959GD34991+0115859GE19AGL   +99999+99999GF199999999999001831999999MA1101735101435MW1715REMMET12302/13/22 18:38:02 METAR KMJX 132338Z 01007KT 4SM -SN BR BKN006 BKN019 OVC038 M01/M01 A3004 RMK AO2 CIG 005V009 P0001 FZRANO
0335720407004622022021323487+39928-074292FM-15+0025KMJX V0200205N00365005795MN0064375N5-00105-00205999999ADDAA101000395AU110030015AU200001015AW1105AW2715GA1045+001835999GA2075+005795999GA3085+011585999GD12991+0018359GD23991+0057959GD34991+0115859GE19AGL   +99999+99999GF199999999999001831999999MA1101735101435MW1715REMMET11602/13/22 18:48:02 METAR KMJX 132348Z 02007KT 4SM -SN BR SCT006 BKN019 OVC038 M01/M02 A3004 RMK AO2 P0001 FZRANO TSNO
0441720407004622022021323567+39928-074292FM-15+0025KMJX V0200205N00515005185MN0064375N5-00065-00175101775ADDAA101000395AA206001091AU110030015AU200001015AW1105AW2715GA1025+001835999GA2045+003055999GA3085+005185999GD11991+0018359GD22991+0030559GD34991+0051859GE19AGL   +99999+99999GF199999999999001831999999KA1060M+00111KA2060N-00061MA1101735101435MD1390029+9999MW1715REMMET15202/13/22 18:56:02 METAR KMJX 132356Z 02010KT 4SM -SN BR FEW006 SCT010 OVC017 M01/M02 A3004 RMK AO2 SLP177 P0001 60004 T10061017 10011 21006 53002 FZRANOEQDQ01  00108PRCP06
0292720407004622022021400117+39928-074292FM-15+0025KMJX V0200105N00415005495MN0048285N5-00105-00205999999ADDAA101000021AU110030015AU200001015AW1105AW2715GA1045+003355999GA2085+005495999GD12991+0033559GD24991+0054959GE19AGL   +99999+99999GF199999999999003351999999MA1101735101435MW1715REMMET10402/13/22 19:11:01 METAR KMJX 140011Z 01008KT 3SM -SN BR SCT011 OVC018 M01/M02 A3004 RMK AO2 P0000 FZRANO
0304720407004622022021400227+39928-074292FM-15+0025KMJX V0200105N00415003355MN0040235V5-00105-00205999999ADDAA101000021AU110030015AU200001015AW1105AW2715GA1075+003355999GA2085+006715999GD13991+0033559GD24991+0067159GE19AGL   +99999+99999GF199999999999003351999999MA1101735101435MW1715REMMET11602/13/22 19:22:01 METAR KMJX 140022Z 01008KT 2 1/2SM -SN BR BKN011 OVC022 M01/M02 A3004 RMK AO2 VIS 2V4 P0000 FZRANO
0342720407004622022021400267+39928-074292FM-15+0025KMJX V0200105N00365003965MN0040235V5-00105-00205999999ADDAA101000021AU110030015AU200001015AW1105AW2715GA1025+002445999GA2075+003965999GA3085+006105999GD11991+0024459GD23991+0039659GD34991+0061059GE19AGL   +99999+99999GF199999999999002441999999MA1101735101435MW1715REMMET12302/13/22 19:26:01 METAR KMJX 140026Z 01007KT 2 1/2SM -SN BR FEW008 BKN013 OVC020 M01/M02 A3004 RMK AO2 VIS 2V4 P0000 FZRANO
0342720407004622022021400297+39928-074292FM-15+0025KMJX V0200105N00415002445MN0048285N5-00105-00205999999ADDAA101000021AU110030015AU200001015AW1105AW2715GA1075+002445999GA2075+003965999GA3085+006105999GD13991+0024451GD23991+0039659GD34991+0061059GE19AGL   +99999+99999GF199999999999002441999999MA1101735101435MW1715REMMET12302/13/22 19:29:01 METAR KMJX 140029Z 01008KT 3SM -SN BR BKN008 BKN013 OVC020 M01/M02 A3004 RMK AO2 CIG 006V011 P0000 FZRANO
0347720407004622022021400567+39928-074292FM-15+0025KMJX V0200105N00365006105MN0064375N5-00175-00285101795ADDAA101000021AU110030015AU200001015AW1105AW2715GA1025+002445999GA2075+006105999GA3085+009455999GD11991+0024459GD23991+0061059GD34991+0094559GE19AGL   +99999+99999GF199999999999002441999999MA1101765101465MW1715REMMET12802/13/22 19:56:01 METAR KMJX 140056Z 01007KT 4SM -SN BR FEW008 BKN020 OVC031 M02/M03 A3005 RMK AO2 SLP179 P0000 T10171028 FZRANO
0310720407004622022021401077+39928-074292FM-15+0025KMJX V0203605N00365009455MN0112655N5-00205-00305999999ADDAA101000021AU110030015AW1715GA1025+004575999GA2045+006105999GA3085+009455999GD11991+0045759GD22991+0061059GD34991+0094559GE19AGL   +99999+99999GF199999999999004571999999MA1101765101465MW1715REMMET10802/13/22 20:07:01 METAR KMJX 140107Z 36007KT 7SM -SN FEW015 SCT020 OVC031 M02/M03 A3005 RMK AO2 P0000 FZRANO
0234720407004622022021403217+39928-074292FM-15+0025KMJX V0203505N00315008535MN0144845N5-00205-00405999999ADDAA101000021AU110030015AW1715GA1085+008535999GD14991+0085359GE19AGL   +99999+99999GF199999999999008531999999MA1101765101465MW1715REMMET09402/13/22 22:21:01 METAR KMJX 140321Z 35006KT 9SM -SN OVC028 M02/M04 A3005 RMK AO2 P0000 FZRANO
0300720407004622022021403567+39928-074292FM-15+0025KMJX V0203305N00575007925MN0144845N5-00285-00445101805ADDAA101000021AU110030015AW1715GA1045+005795999GA2085+007925999GD12991+0057959GD24991+0079259GE19AGL   +99999+99999GF199999999999005791999999MA1101765101465MW1715OC100825REMMET12102/13/22 22:56:01 METAR KMJX 140356Z 33011G16KT 9SM -SN SCT019 OVC026 M03/M04 A3005 RMK AO2 SLP180 P0000 T10281044 FZRANO
005172040700462202202140459O+39928-074292SOD  +0025KMJX V020999999999999999999999999999+99999+99999999999ADDAT1AU16RA  5AT2AU18SN  5AT3AU13BR  5AT4AU19UP  5
0277720407004622022021405057+39928-074292FM-15+0025KMJX V0203305N00515016765MN0144845N5-00405-00605999999ADDAA101000021AU110030015AW1715GA1025+003965999GA2085+016765999GD11991+0039659GD24991+0167659GE19AGL   +99999+99999GF199999999999003961999999MA1101735101435MW1715REMMET10602/14/22 00:05:02 METAR KMJX 140505Z 33010KT 9SM -SN FEW013 OVC055 M04/M06 A3004 RMK AO2 P0000 FZRANO TSNO
0324720407004622022021405567+39928-074292FM-15+0025KMJX V0203305N00365018295MN0144845N5-00395-00615101795ADDAA101000021AA206000021GA1085+018295999GD14991+0182959GE19AGL   +99999+99999GF199999999999018291999999KA1060M-00111KA2060N-00391MA1101765101465MD1790019+9999REMMET13702/14/22 00:56:02 METAR KMJX 140556Z 33007KT 9SM OVC060 M04/M06 A3005 RMK AO2 SNE51 SLP179 P0000 60000 T10391061 11011 21039 57001 FZRANOEQDQ01  00008PRCP06
0183720407004622022021410567+39928-074292FM-15+0025KMJX V0203305N002652200059N0160935N5-00945-01285101975ADDGA1005+999999999GD10991+9999999GF100991999999999999999999MA1101935101635REMMET09902/14/22 05:56:02 METAR KMJX 141056Z 33005KT 10SM CLR M09/M13 A3010 RMK AO2 SLP197 T10941128 FZRANO
0318720407004622022021411567+39928-074292FM-15+0025KMJX V0203105N003152200059N0160935N5-01005-01335102075ADDAA124001591GA1045+024385999GD12991+0243859GE19AGL   +99999+99999GF104995999999024381999999KA1060M-00391KA2060N-01001MA1102035101735MD1390209+9999REMMET12602/14/22 06:56:02 METAR KMJX 141156Z 31006KT 10SM SCT080 M10/M13 A3013 RMK AO2 SLP207 70006 T11001133 11039 21100 53020 FZRANOEQDQ01  00158PRCP24D01      0ADE726
0208720407004622022021412567+39928-074292FM-15+0025KMJX V0203105N00315019815MN0160935N5-00835-01285102195ADDGA1075+019815999GD13991+0198159GE19AGL   +99999+99999GF199999999999019811999999MA1102135101835REMMET10202/14/22 07:56:02 METAR KMJX 141256Z 31006KT 10SM BKN065 M08/M13 A3016 RMK AO2 SLP219 T10831128 FZRANO
0194720407004622022021413567+39928-074292FM-15+0025KMJX V0203105N006252200059N0160935N5-00785-01395102245ADDGA1005+999999999GD10991+9999999GF100991999999999999999999MA1102205101905OC100885REMMET10202/14/22 08:56:02 METAR KMJX 141356Z 31012G17KT 10SM CLR M08/M14 A3018 RMK AO2 SLP224 T10781139 FZRANO
0194720407004622022021416567+39928-074292FM-15+0025KMJX V0203005N009352200059N0160935N5-00505-01335102305ADDGA1005+999999999GD10991+9999999GF100991999999999999999999MA1102275101975OC101245REMMET10202/14/22 11:56:02 METAR KMJX 141656Z 30018G24KT 10SM CLR M05/M13 A3020 RMK AO2 SLP230 T10501133 FZRANO
0252720407004622022021417567+39928-074292FM-15+0025KMJX V0202905N008852200059N0160935N5-00445-01335102265ADDGA1005+999999999GD10991+9999999GF100991999999999999999999KA1060M-00391KA2060N-01001MA1102245101935MD1890029+9999OC101245REMMET12002/14/22 12:56:02 METAR KMJX 141756Z 29017G24KT 10SM CLR M04/M13 A3019 RMK AO2 SLP226 T10441133 11039 21100 58002 FZRANO
0194720407004622022021418567+39928-074292FM-15+0025KMJX V0202805N009852200059N0160935N5-00335-01335102225ADDGA1005+999999999GD10991+9999999GF100991999999999999999999MA1102175101875OC101245REMMET10202/14/22 13:56:02 METAR KMJX 141856Z 28019G24KT 10SM CLR M03/M13 A3017 RMK AO2 SLP222 T10331133 FZRANO
0212720407004622022021419567+39928-074292FM-15+0025KMJX V0203105N005152200059N0160935N5-00335-01335102255ADDGA1005+999999999GD10991+9999999GF100991999999999999999999MA1102205101905OC100985REMMET12002/14/22 14:56:02 METAR KMJX 141956Z 31010G19KT 10SM CLR M03/M13 A3018 RMK AO2 PK WND 30026/1858 SLP225 T10331133 FZRANO
0258720407004622022021420567+39928-074292FM-15+0025KMJX V0202805N008252200059N0160935N5-00395-01395102335ADDGA1025+016765999GD11991+0167659GE19AGL   +99999+99999GF102995999999016761999999MA1102275101975MD1390069+9999OC101135REMMET11102/14/22 15:56:02 METAR KMJX 142056Z 28016G22KT 10SM FEW055 M04/M14 A3020 RMK AO2 SLP233 T10391139 53006 FZRANOEQDD01      0ADE726
0194720407004622022021421567+39928-074292FM-15+0025KMJX V0202905N004652200059N0160935N5-00395-01395102465ADDGA1005+999999999GD10991+9999999GF100991999999999999999999MA1102405102105OC100825REMMET10202/14/22 16:56:02 METAR KMJX 142156Z 29009G16KT 10SM CLR M04/M14 A3024 RMK AO2 SLP246 T10391139 FZRANO
0241720407004622022021423567+39928-074292FM-15+0025KMJX V0203005N002152200059N0160935N5-00615-01445102765ADDGA1005+999999999GD10991+9999999GF100991999999999999999999KA1060M-00281KA2060N-00611MA1102715102415MD1390439+9999REMMET11702/14/22 18:56:02 METAR KMJX 142356Z 30004KT 10SM CLR M06/M14 A3033 RMK AO2 SLP276 T10611144 11028 21061 53043 FZRANO
0183720407004622022021501567+39928-074292FM-15+0025KMJX V0202805N001552200059N0160935N5-01115-01445102965ADDGA1005+999999999GD10991+9999999GF100991999999999999999999MA1102915102615REMMET09902/14/22 20:56:01 METAR KMJX 150156Z 28003KT 10SM CLR M11/M14 A3039 RMK AO2 SLP296 T11111144 FZRANO
0183720407004622022021503567+39928-074292FM-15+0025KMJX V0209999C000052200059N0160935N5-01115-01445103115ADDGA1005+999999999GD10991+9999999GF100991999999999999999999MA1103055102745REMMET09902/14/22 22:56:01 METAR KMJX 150356Z 00000KT 10SM CLR M11/M14 A3043 RMK AO2 SLP311 T11111144 FZRANO
0219720407004622022021504567+39928-074292FM-15+0025KMJX V0209999C000052200059N0160935N5-01285-01565103185ADDGA1005+999999999GD10991+9999999GF100991999999999999999999KA1240M-00281KA2240N-01281MA1103125102815REMMET10902/14/22 23:56:02 METAR KMJX 150456Z 00000KT 10SM CLR M13/M16 A3045 RMK AO2 SLP318 T11281156 410281128 FZRANO
001572040700462202202150459O+39928-074292SOD  +0025KMJX V020999999999999999999999999999+99999+99999999999ADDAT1AU18SN  5
0241720407004622022021505567+39928-074292FM-15+0025KMJX V0209999C000052200059N0160935N5-01335-01565103255ADDGA1005+999999999GD10991+9999999GF100991999999999999999999KA1060M-00611KA2060N-01391MA1103185102885MD1390219+9999REMMET11702/15/22 00:56:02 METAR KMJX 150556Z 00000KT 10SM CLR M13/M16 A3047 RMK AO2 SLP325 T11331156 11061 21139 53021 FZRANO
0183720407004622022021506567+39928-074292FM-15+0025KMJX V0209999C000052200059N0160935N5-01395-01615103285ADDGA1005+999999999GD10991+9999999GF100991999999999999999999MA1103225102915REMMET09902/15/22 01:56:02 METAR KMJX 150656Z 00000KT 10SM CLR M14/M16 A3048 RMK AO2 SLP328 T11391161 FZRANO
0203720407004622022021508567+39928-074292FM-15+0025KMJX V0202205N001552200059N0160935N5-01505-01675103425ADDGA1005+999999999GD10991+9999999GF100991999999999999999999MA1103355103055MD1390169+9999REMMET10502/15/22 03:56:02 METAR KMJX 150856Z 22003KT 10SM CLR M15/M17 A3052 RMK AO2 SLP342 T11501167 53016 FZRANO
0183720407004622022021509567+39928-074292FM-15+0025KMJX V0209999C000052200059N0160935N5-01505-01725103535ADDGA1005+999999999GD10991+9999999GF100991999999999999999999MA1103495103185REMMET09902/15/22 04:56:02 METAR KMJX 150956Z 00000KT 10SM CLR M15/M17 A3056 RMK AO2 SLP353 T11501172 FZRANO
0183720407004622022021513567+39928-074292FM-15+0025KMJX V0203405N006252200059N0160935N5-00615-01395103865ADDGA1005+999999999GD10991+9999999GF100991999999999999999999MA1103795103495REMMET09902/15/22 08:56:02 METAR KMJX 151356Z 34012KT 10SM CLR M06/M14 A3065 RMK AO2 SLP386 T10611139 FZRANO
0194720407004622022021515567+39928-074292FM-15+0025KMJX V0203405N004152200059N0160935N5-00395-01505103945ADDGA1005+999999999GD10991+9999999GF100991999999999999999999MA1103895103595OC100825REMMET10202/15/22 10:56:02 METAR KMJX 151556Z 34008G16KT 10SM CLR M04/M15 A3068 RMK AO2 SLP394 T10391150 FZRANO
0241720407004622022021517567+39928-074292FM-15+0025KMJX V0203005N004152200059N0160935N5-00115-01505103915ADDGA1005+999999999GD10991+9999999GF100991999999999999999999KA1060M-00111KA2060N-01331MA1103865103555MD1890039+9999REMMET11702/15/22 12:56:02 METAR KMJX 151756Z 30008KT 10SM CLR M01/M15 A3067 RMK AO2 SLP391 T10111150 11011 21133 58003 FZRANO
0183720407004622022021518567+39928-074292FM-15+0025KMJX V0203205N004152200059N0160935N5-00065-01505103865ADDGA1005+999999999GD10991+9999999GF100991999999999999999999MA1103835103525REMMET09902/15/22 13:56:02 METAR KMJX 151856Z 32008KT 10SM CLR M01/M15 A3066 RMK AO2 SLP386 T10061150 FZRANO
0203720407004622022021520567+39928-074292FM-15+0025KMJX V0202705N003652200059N0160935N5-00115-01395103895ADDGA1005+999999999GD10991+9999999GF100991999999999999999999MA1103835103525MD1590029+9999REMMET10502/15/22 15:56:02 METAR KMJX 152056Z 27007KT 10SM CLR M01/M14 A3066 RMK AO2 SLP389 T10111139 55002 FZRANO
0188720407004622022021522567+39928-074292FM-15+0025KMJX V0201205N002152200059N0160935N5-00395-01445104005ADDGA1005+999999999GD10991+9999999GF100991999999999999999999MA1103935103625REMMET10402/15/22 17:56:02 METAR KMJX 152256Z 12004KT 10SM CLR M04/M14 A3069 RMK AO2 SLP400 T10391144 FZRANO TSNO
0203720407004622022021602567+39928-074292FM-15+0025KMJX V0209999C000052200059N0160935N5-01065-01285104175ADDGA1005+999999999GD10991+9999999GF100991999999999999999999MA1104135103825MD1190099+9999REMMET10502/15/22 21:56:01 METAR KMJX 160256Z 00000KT 10SM CLR M11/M13 A3075 RMK AO2 SLP417 T11061128 51009 FZRANO
0183720407004622022021603567+39928-074292FM-15+0025KMJX V0209999C000052200059N0160935N5-01115-01335104195ADDGA1005+999999999GD10991+9999999GF100991999999999999999999MA1104135103825REMMET09902/15/22 22:56:02 METAR KMJX 160356Z 00000KT 10SM CLR M11/M13 A3075 RMK AO2 SLP419 T11111133 FZRANO
0219720407004622022021604567+39928-074292FM-15+0025KMJX V0209999C000052200059N0160935N5-01175-01335104185ADDGA1005+999999999GD10991+9999999GF100991999999999999999999KA1240M+00061KA2240N-01561MA1104135103825REMMET10902/15/22 23:56:02 METAR KMJX 160456Z 00000KT 10SM CLR M12/M13 A3075 RMK AO2 SLP418 T11171133 400061156 FZRANO
0241720407004622022021605567+39928-074292FM-15+0025KMJX V0209999C000052200059N0160935N5-01175-01335104175ADDGA1005+999999999GD10991+9999999GF100991999999999999999999KA1060M-00611KA2060N-01171MA1104135103825MD1090019+9999REMMET11702/16/22 00:56:02 METAR KMJX 160556Z 00000KT 10SM CLR M12/M13 A3075 RMK AO2 SLP417 T11171133 11061 21117 50001 FZRANO
0188720407004622022021606567+39928-074292FM-15+0025KMJX V0209999C000052200059N0160935N5-01115-01335104175ADDGA1005+999999999GD10991+9999999GF100991999999999999999999MA1104135103825REMMET10402/16/22 01:56:02 METAR KMJX 160656Z 00000KT 10SM CLR M11/M13 A3075 RMK AO2 SLP417 T11111133 FZRANO TSNO
0183720407004622022021607567+39928-074292FM-15+0025KMJX V0209999C000052200059N0160935N5-01175-01335104105ADDGA1005+999999999GD10991+9999999GF100991999999999999999999MA1104065103765REMMET09902/16/22 02:56:02 METAR KMJX 160756Z 00000KT 10SM CLR M12/M13 A3073 RMK AO2 SLP410 T11171133 FZRANO
0183720407004622022021610567+39928-074292FM-15+0025KMJX V0202905N001552200059N0160935N5-01175-01395104115ADDGA1005+999999999GD10991+9999999GF100991999999999999999999MA1104065103765REMMET09902/16/22 05:56:02 METAR KMJX 161056Z 29003KT 10SM CLR M12/M14 A3073 RMK AO2 SLP411 T11171139 FZRANO
0241720407004622022021611567+39928-074292FM-15+0025KMJX V0209999C000052200059N0160935N5-01115-01285104115ADDGA1005+999999999GD10991+9999999GF100991999999999999999999KA1060M-01111KA2060N-01221MA1104065103765MD1090019+9999REMMET11702/16/22 06:56:02 METAR KMJX 161156Z 00000KT 10SM CLR M11/M13 A3073 RMK AO2 SLP411 T11111128 11111 21122 50001 FZRANO
0183720407004622022021612567+39928-074292FM-15+0025KMJX V0209999C000052200059N0160935N5-00725-00945104135ADDGA1005+999999999GD10991+9999999GF100991999999999999999999MA1104105103795REMMET09902/16/22 07:56:02 METAR KMJX 161256Z 00000KT 10SM CLR M07/M09 A3074 RMK AO2 SLP413 T10721094 FZRANO
0205720407004622022021616567+39928-074292FM-15+0025KMJX V0201705N005152200059N0160935N5+00726-00065103905ADDGA1005+999999999GD10991+9999999GF100991999999999999999999MA1103865103555OC100985REMMET09402/16/22 11:56:02 METAR KMJX 161656Z 17010G19KT 10SM CLR 07/M01 A3067 RMK AO2 SLP390 T00721006EQDR01  00727TMP028
0232720407004622022021617567+39928-074292FM-15+0025KMJX V0201805N006252200059N0160935N5+00895+00065103755ADDGA1005+999999999GD10991+9999999GF100991999999999999999999KA1060M+00891KA2060N-01111MA1103695103395MD1890329+9999REMMET10802/16/22 12:56:02 METAR KMJX 161756Z 18012KT 10SM CLR 09/01 A3062 RMK AO2 SLP375 T00890006 10089 21111 58032
0185720407004622022021618567+39928-074292FM-15+0025KMJX V0201805N005752200059N0160935N5+00895+00115103625ADDGA1005+999999999GD10991+9999999GF100991999999999999999999MA1103595103285OC100775REMMET09302/16/22 13:56:02 METAR KMJX 161856Z 18011G15KT 10SM CLR 09/01 A3059 RMK AO2 SLP362 T00890011
0199720407004622022021619567+39928-074292FM-15+0025KMJX V0201705N00315009755MN0160935N5+00835+00175103505ADDGA1085+009755999GD14991+0097559GE19AGL   +99999+99999GF199999999999009751999999MA1103455103155REMMET09302/16/22 14:56:02 METAR KMJX 161956Z 17006KT 10SM OVC032 08/02 A3055 RMK AO2 SLP350 T00830017
0219720407004622022021620567+39928-074292FM-15+0025KMJX V0201705N00415010365MN0160935N5+00895+00225103425ADDGA1075+010365999GD13991+0103659GE19AGL   +99999+99999GF199999999999010361999999MA1103395103085MD1690339+9999REMMET09902/16/22 15:56:02 METAR KMJX 162056Z 17008KT 10SM BKN034 09/02 A3053 RMK AO2 SLP342 T00890022 56033
0174720407004622022021622567+39928-074292FM-15+0025KMJX V0201705N002652200059N0160935N5+00725+00225103275ADDGA1005+999999999GD10991+9999999GF100991999999999999999999MA1103225102915REMMET09002/16/22 17:56:02 METAR KMJX 162256Z 17005KT 10SM CLR 07/02 A3048 RMK AO2 SLP327 T00720022
0174720407004622022021700567+39928-074292FM-15+0025KMJX V0201805N003652200059N0160935N5+00445+00285103175ADDGA1005+999999999GD10991+9999999GF100991999999999999999999MA1103125102815REMMET09002/16/22 19:56:01 METAR KMJX 170056Z 18007KT 10SM CLR 04/03 A3045 RMK AO2 SLP317 T00440028
0199720407004622022021703567+39928-074292FM-15+0025KMJX V0202005N00365018295MN0160935N5+00785+00285103105ADDGA1085+018295999GD14991+0182959GE19AGL   +99999+99999GF199999999999018291999999MA1103085102785REMMET09302/16/22 22:56:02 METAR KMJX 170356Z 20007KT 10SM OVC060 08/03 A3044 RMK AO2 SLP310 T00780028
0210720407004622022021704567+39928-074292FM-15+0025KMJX V0202005N004152200059N0160935N5+00785+00395103005ADDGA1005+999999999GD10991+9999999GF100991999999999999999999KA1240M+00941KA2240N-01221MA1102985102685REMMET10002/16/22 23:56:02 METAR KMJX 170456Z 20008KT 10SM CLR 08/04 A3041 RMK AO2 SLP300 T00780039 400941122
0243720407004622022021705567+39928-074292FM-15+0025KMJX V0202005N006252200059N0160935N5+00945+00565102965ADDGA1005+999999999GD10991+9999999GF100991999999999999999999KA1060M+00941KA2060N+00391MA1102955102645MD1790189+9999OC100885REMMET11102/17/22 00:56:02 METAR KMJX 170556Z 20012G17KT 10SM CLR 09/06 A3040 RMK AO2 SLP296 T00940056 10094 20039 57018
0218720407004622022021706567+39928-074292FM-15+0025KMJX V0202005N004152200059N0160935N5+01005+00565102915ADDGA1025+018295999GD11991+0182959GE19AGL   +99999+99999GF102995999999018291999999MA1102885102575REMMET09302/17/22 01:56:02 METAR KMJX 170656Z 20008KT 10SM FEW060 10/06 A3038 RMK AO2 SLP291 T01000056EQDD01      0ADE726
0242720407004622022021710567+39928-074292FM-15+0025KMJX V0201905N00315019815MN0160935N5+01175+00615102655ADDGA1075+019815999GA2085+024385999GD13991+0198159GD24991+0243859GE19AGL   +99999+99999GF199999999999019811999999MA1102615102305REMMET10502/17/22 05:56:02 METAR KMJX 171056Z 19006KT 10SM BKN065 OVC080 12/06 A3030 RMK AO2 SLP265 T01170061 TSNO
0190720407004622022021721567+39928-074292FM-15+0025KMJX V0201805N006252200059N0160935N5+01565+01175101505ADDGA1005+999999999GD10991+9999999GF100991999999999999999999MA1101465101165OC101035REMMET09802/17/22 16:56:02 METAR KMJX 172156Z 18012G20KT 10SM CLR 16/12 A2996 RMK AO2 SLP150 T01560117 TSNO
0234720407004622022021801567+39928-074292FM-15+0025KMJX V0201905N008252200059N0160935N5+01335+01175100925ADDGA1045+003965999GD12991+0039659GE19AGL   +99999+99999GF104995999999003961999999MA1100885100585OC101185REMMET10102/17/22 20:56:01 METAR KMJX 180156Z 19016G23KT 10SM SCT013 13/12 A2979 RMK AO2 SLP092 T01330117 TSNOEQDD01      0ADE726
0243720407004622022021815567+39928-074292FM-15+0025KMJX V0203205N00985012195MN0160935N5+00835-00115100875ADDGA1075+012195999GD13991+0121959GE19AGL   +99999+99999GF199999999999012191999999MA1100855100555OC101805OD149901801310REMMET11502/18/22 10:56:02 METAR KMJX 181556Z 32019G35KT 10SM BKN040 08/M01 A2978 RMK AO2 PK WND 31035/1548 SLP087 T00831011
0183720407004622022021900567+39928-074292FM-15+0025KMJX V0203405N001552200059N0160935N5-00065-00945101875ADDGA1005+999999999GD10991+9999999GF100991999999999999999999MA1101835101535REMMET09902/18/22 19:56:01 METAR KMJX 190056Z 34003KT 10SM CLR M01/M09 A3007 RMK AO2 SLP187 T10061094 FZRANO
0217720407004622022022000567+39928-074292FM-15+0025KMJX V0202905N011852200059N0160935N5-00225-01505102285ADDGA1005+999999999GD10991+9999999GF100991999999999999999999MA1102245101935OC101495REMMET12502/19/22 19:56:01 METAR KMJX 200056Z 29023G29KT 10SM CLR M02/M15 A3019 RMK AO2 PK WND 30031/0042 SLP228 T10221150 FZRANO TSNO
0257720407004622022022005567+39928-074292FM-15+0025KMJX V0203105N006752200059N0160935N5-00505-01565102885ADDGA1005+999999999GD10991+9999999GF100991999999999999999999KA1060M-00111KA2060N-00501MA1102845102545MD1190249+9999OC101035REMMET12502/20/22 00:56:01 METAR KMJX 200556Z 31013G20KT 10SM CLR M05/M16 A3037 RMK AO2 SLP288 T10501156 11011 21050 51024 FZRANO TSNO
0183720407004622022022009567+39928-074292FM-15+0025KMJX V0202805N002152200059N0160935N5-00835-01395103185ADDGA1005+999999999GD10991+9999999GF100991999999999999999999MA1103155102845REMMET09902/20/22 04:56:01 METAR KMJX 200956Z 28004KT 10SM CLR M08/M14 A3046 RMK AO2 SLP318 T10831139 FZRANO
0188720407004622022022107567+39928-074292FM-15+0025KMJX V0209999C000052200059N0160935N5-00445-00675102835ADDGA1005+999999999GD10991+9999999GF100991999999999999999999MA1102785102475REMMET10402/21/22 02:56:01 METAR KMJX 210756Z 00000KT 10SM CLR M04/M07 A3035 RMK AO2 SLP283 T10441067 FZRANO TSNO
0198720407004622022022121567+39928-074292FM-15+0025KMJX V0201605N004152200059N0160935N5+01226+00175102625ADDGA1005+999999999GD10991+9999999GF100991999999999999999999MA1102575102275REMMET09502/21/22 16:56:02 METAR KMJX 212156Z 16008KT 10SM CLR 12/02 A3029 RMK AO2 SLP262 T01220017 TSNOEQDR01  01227TMP028
0207720407004622022022206567+39928-074292FM-15+0025KMJX V0209999C000052200059N0160935N5-00116-00285102795ADDGA1005+999999999GD10991+9999999GF100991999999999999999999MA1102745102445REMMET10402/22/22 01:56:01 METAR KMJX 220656Z 00000KT 10SM CLR M01/M03 A3034 RMK AO2 SLP279 T10111028 FZRANO TSNOEQDR01  -0117TMP028
0183720407004622022022207567+39928-074292FM-15+0025KMJX V0209999C000052200059N0160935N5-00115-00285102735ADDGA1005+999999999GD10991+9999999GF100991999999999999999999MA1102715102415REMMET09902/22/22 02:56:01 METAR KMJX 220756Z 00000KT 10SM CLR M01/M03 A3033 RMK AO2 SLP273 T10111028 FZRANO
0451720407004622022022217567+39928-074292FM-15+0025KMJX V0201905N00675016765MN0160935N5+01616+01175102335ADDAA101000021AA206000021AU110020015AW1615GA1025+012505999GA2075+016765999GA3085+021345999GD11991+0125059GD23991+0167659GD34991+0213459GE19AGL   +99999+99999GF199999999999012501999999KA1060M+01891KA2060N+00221MA1102305102005MD1890319+9999MW1615OC100985REMMET15502/22/22 12:56:02 METAR KMJX 221756Z 19013G19KT 10SM -RA FEW041 BKN055 OVC070 16/12 A3021 RMK AO2 RAB48 SLP233 P0000 60000 T01610117 10189 20022 58031 TSNOEQDQ01  00008PRCP06R01  01617TMP028
0336720407004622022022300567+39928-074292FM-15+0025KMJX V0201905N00985033535MN0160935N5+01335+01175101685ADDAA101000021AU110020015AW1615GA1025+024385999GA2075+033535999GD11991+0243859GD23991+0335359GE19AGL   +99999+99999GF199999999999024381999999MA1101665101365MW1615OC101395OD149901391170REMMET14302/22/22 19:56:01 METAR KMJX 230056Z 19019G27KT 10SM -RA FEW080 BKN110 13/12 A3002 RMK AO2 PK WND 17027/0055 PRESFR SLP168 P0000 T01330117 TSNO
001572040700462202202230459O+39928-074292SOD  +0025KMJX V020999999999999999999999999999+99999+99999999999ADDAT1AU16RA  5
0215720407004622022022312567+39928-074292FM-15+0025KMJX V0202305N00575028965MN0160935N5+01615+01285101595ADDGA1075+028965999GD13991+0289659GE19AGL   +99999+99999GF199999999999028961999999MA1101565101265OC100825REMMET10102/23/22 07:56:02 METAR KMJX 231256Z 23011G16KT 10SM BKN095 16/13 A2999 RMK AO2 SLP159 T01610128 TSNO
0268720407004622022022317567+39928-074292FM-15+0025KMJX V0202605N00825016765MN0160935N5+02065+01225101525ADDGA1075+016765999GD13991+0167659GE19AGL   +99999+99999GF199999999999016761999999KA1060M+02111KA2060N+01561MA1101495101195MD1890069+9999OC101295REMMET11402/23/22 12:56:02 METAR KMJX 231756Z 26016G25KT 10SM BKN055 21/12 A2997 RMK AO2 SLP152 T02060122 10211 20156 58006
0208720407004622022022322567+39928-074292FM-15+0025KMJX V0203105N005152200059N0160935N5+01785+00675101725ADDGA1005+999999999GD10991+9999999GF100991999999999999999999MA1101695101395OC101035REMMET11602/23/22 17:56:02 METAR KMJX 232256Z 31010G20KT 10SM CLR 18/07 A3003 RMK AO2 PK WND 28027/2159 SLP172 T01780067 TSNO
0248720407004622022022323567+39928-074292FM-15+0025KMJX V0203005N008252200059N0160935N5+01445+00005101955ADDGA1005+999999999GD10991+9999999GF100991999999999999999999KA1060M+02221KA2060N+01441MA1101935101635MD1390469+9999OC101085REMMET11602/23/22 18:56:02 METAR KMJX 232356Z 30016G21KT 10SM CLR 14/00 A3010 RMK AO2 SLP195 T01440000 10222 20144 53046 TSNO
0269720407004622022022415567+39928-074292FM-15+0025KMJX V0200605N00365028965MN0160935N5+00116-00785103165ADDGA1025+024385999GA2075+028965999GD11991+0243859GD23991+0289659GE19AGL   +99999+99999GF199999999999024381999999MA1103125102815REMMET11302/24/22 10:56:02 METAR KMJX 241556Z 06007KT 10SM FEW080 BKN095 01/M08 A3045 RMK AO2 SLP316 T00111078 FZRANO TSNOEQDR01  00117TMP028
0212720407004622022022422567+39928-074292FM-15+0025KMJX V0200505N00465011585MN0160935N5+00065-00675103105ADDGA1085+011585999GD14991+0115859GE19AGL   +99999+99999GF199999999999011581999999MA1103055102745REMMET10602/24/22 17:56:02 METAR KMJX 242256Z 05009KT 10SM OVC038 01/M07 A3043 RMK AO2 SLP310 T00061067 FZRANO TSNO
0307720407004622022022503197+39928-074292FM-15+0025KMJX V0200505N00365002135MN0064375N5+00005-00105999999ADDAA101000395AU120090015AU200001015AW1105AW2401AW3415GA1075+002135999GA2085+004575999GD13991+0021351GD24991+0045759GE19AGL   +99999+99999GF199999999999002131999999MA1102985102685REMMET11902/24/22 22:19:01 METAR KMJX 250319Z 05007KT 4SM UP BR BKN007 OVC015 00/M01 A3041 RMK AO2 CIG 005V011 P0001 FZRANO TSNO
002772040700462202202250459O+39928-074292SOD  +0025KMJX V020999999999999999999999999999+99999+99999999999ADDAT1AU13BR  5AT2AU19UP  5
0273720407004622022022505197+39928-074292FM-15+0025KMJX V0200605N00315001525MN0040235N5+00105+00005999999ADDAA101001231AU110030015AU200001015AW1105AW2715GA1085+001525999GD14991+0015251GE19AGL   +99999+99999GF199999999999001521999999MA1102745102445MW1715REMMET11602/25/22 00:19:02 METAR KMJX 250519Z 06006KT 2 1/2SM -SN BR OVC005 01/00 A3034 RMK AO2 CIG 004V009 P0005 FZRANO TSNO
0409720407004622022022505567+39928-074292FM-15+0025KMJX V0200605N00315001525MN0080475N5+00065+00005102735ADDAA101003695AA206006191AU110030015AU200001015AW1105AW2715GA1085+001525999GD14991+0015251GE19AGL   +99999+99999GF199999999999001521999999KA1060M+00111KA2060N+00001MA1102685102375MD1690379+9999MW1715REMMET18202/25/22 00:56:02 METAR KMJX 250556Z 06006KT 5SM -SN BR OVC005 01/00 A3032 RMK AO2 UPB26E28B49E54SNE26B28E49B54 CIG 003V008 SLP273 P0014 60024 T00060000 10011 20000 56037 FZRANO TSNOEQDQ01  00608PRCP06
0342720407004622022022508567+39928-074292FM-15+0025KMJX V0200705N00365001525MN0160935N5+00225+00175102215ADDAA101002095AA203007991AU120020015AW1625GA1085+001525999GD14991+0015259GE19AGL   +99999+99999GF199999999999001521999999MA1102175101875MD1890529+9999MW1655REMMET15802/25/22 03:56:02 METAR KMJX 250856Z 07007KT 10SM RA OVC005 02/02 A3017 RMK AO2 UPB13E21RAB39SNE13B21E39 PRESFR SLP221 P0008 60031 T00220017 58052 FZRANO TSNOEQDQ01  00788PRCP03
0257720407004622022022511187+39928-074292FM-15+0025KMJX V0200905N00265001525MN0048285N5+00405+00305999999ADDAA101000395AU110020015AU200001015AW1105AW2615GA1085+001525999GD14991+0015259GE19AGL   +99999+99999GF199999999999001521999999MA1101735101435MW1615REMMET10002/25/22 06:18:02 METAR KMJX 251118Z 09005KT 3SM -RA BR OVC005 04/03 A3004 RMK AO2 PRESFR P0001 TSNO
0389720407004622022022511567+39928-074292FM-15+0025KMJX V0209999V00155001525MN0048285N5+00395+00335101755ADDAA101000595AA206009191AA324015291AU110020015AU200001015AW1105AW2615GA1085+001525999GD14991+0015259GE19AGL   +99999+99999GF199999999999001521999999KA1060M+00391KA2060N+00061MA1101735101435MD1690459+9999MW1615REMMET13502/25/22 06:56:02 METAR KMJX 251156Z VRB03KT 3SM -RA BR OVC005 04/03 A3004 RMK AO2 SLP175 P0002 60036 70060 T00390033 10039 20006 56045EQDQ01  00918PRCP06Q02  01528PRCP24
0317720407004622022022513567+39928-074292FM-15+0025KMJX V0209999V00265001525MN0064375N5+00505+00445101675ADDAA101003895AU110020015AU200001015AW1105AW2615GA1075+001525999GA2085+003965999GD13991+0015251GD24991+0039659GE19AGL   +99999+99999GF199999999999001521999999MA1101635101325MW1615REMMET12902/25/22 08:56:02 METAR KMJX 251356Z VRB05KT 4SM -RA BR BKN005 OVC013 05/04 A3001 RMK AO2 CIG 004V009 SLP167 P0015 T00500044 TSNO
0248720407004622022022521567+39928-074292FM-15+0025KMJX V0203105N00775012805MN0160935N5+00675-00065101895ADDGA1075+012805999GD13991+0128059GE19AGL   +99999+99999GF199999999999012801999999MA1101865101565OC101445OD149901691300REMMET12002/25/22 16:56:02 METAR KMJX 252156Z 31015G28KT 10SM BKN042 07/M01 A3008 RMK AO2 PK WND 30033/2103 SLP189 T00671006 TSNO
0209720407004622022022522567+39928-074292FM-15+0025KMJX V0203105N007252200059N0160935N5+00565-00225102085ADDGA1005+999999999GD10991+9999999GF100991999999999999999999MA1102035101735OC101185REMMET11702/25/22 17:56:02 METAR KMJX 252256Z 31014G23KT 10SM CLR 06/M02 A3013 RMK AO2 PK WND 29029/2242 SLP208 T00561022 TSNO
0231720407004622022022603567+39928-074292FM-15+0025KMJX V0203305N003152200059N0160935N5+00005-00675102765ADDGA1025+013725999GD11991+0137259GE19AGL   +99999+99999GF102995999999013721999999MA1102715102415REMMET10602/25/22 22:56:02 METAR KMJX 260356Z 33006KT 10SM FEW045 00/M07 A3033 RMK AO2 SLP276 T00001067 FZRANO TSNOEQDD01      0ADE726
003972040700462202202260459O+39928-074292SOD  +0025KMJX V020999999999999999999999999999+99999+99999999999ADDAT1AU16RA  5AT2AU18SN  5AT3AU13BR  5
0246720407004622022022605567+39928-074292FM-15+0025KMJX V0203505N005152200059N0160935N5-00175-00785102885ADDGA1005+999999999GD10991+9999999GF100991999999999999999999KA1060M+00441KA2060N-00171MA1102845102545MD1190209+9999REMMET12202/26/22 00:56:02 METAR KMJX 260556Z 35010KT 10SM CLR M02/M08 A3037 RMK AO2 SLP288 T10171078 10044 21017 51020 FZRANO TSNO
0187720407004622022022622567+39928-074292FM-15+0025KMJX V0209999C000052200059N0160935N5+00065-00785102735ADDGA1005+999999999GD10991+9999999GF100991999999999999999999MA1102685102375REMMET10302/26/22 17:56:02 METAR KMJX 262256Z 00000KT 10SM CLR 01/M08 A3032 RMK AO2 SLP273 T00061078 FZRANO TSNO
0246720407004622022022711567+39928-074292FM-15+0025KMJX V0202305N002152200059N0160935N5-00615-00785102245ADDGA1005+999999999GD10991+9999999GF100991999999999999999999KA1060M-00561KA2060N-00781MA1102205101905MD1890089+9999REMMET12202/27/22 06:56:02 METAR KMJX 271156Z 23004KT 10SM CLR M06/M08 A3018 RMK AO2 SLP224 T10611078 11056 21078 58008 FZRANO TSNO
0230720407004622022022714567+39928-074292FM-15+0025KMJX V0202605N006752200059N0160935N5+00446-00835102025ADDGA1005+999999999GD10991+9999999GF100991999999999999999999MA1101965101665MD1890229+9999OC101185REMMET10502/27/22 09:56:02 METAR KMJX 271456Z 26013G23KT 10SM CLR 04/M08 A3011 RMK AO2 SLP202 T00441083 58022 TSNOEQDR01  00447TMP028
0188720407004622022022809567+39928-074292FM-15+0025KMJX V0203205N002152200059N0160935N5-00175-01005102185ADDGA1005+999999999GD10991+9999999GF100991999999999999999999MA1102135101835REMMET10402/28/22 04:56:02 METAR KMJX 280956Z 32004KT 10SM CLR M02/M10 A3016 RMK AO2 SLP218 T10171100 FZRANO TSNO
0232720407004622022030109567+39928-074292FM-15+0025KMJX V0209999C000052200059N0160935N5-00505-00785102625ADDGA1045+036585999GD12991+0365859GE19AGL   +99999+99999GF104995999999036581999999MA1102575102275REMMET10703/01/22 04:56:02 METAR KMJX 010956Z 00000KT 10SM SCT120 M05/M08 A3029 RMK AO2 SLP262 T10501078 FZRANO TSNOEQDD01      0ADE726
0369720407004622022030308567+39928-074292FM-15+0025KMJX V0203205N00625022865MN0160935N5+00836+00335101035ADDAA101000021AA203000021AU110020015AW1615GA1075+022865999GA2085+027435999GD13991+0228659GD24991+0274359GE19AGL   +99999+99999GF199999999999022861999999MA1101025100725MD1590149+9999MW1615REMMET13803/03/22 03:56:02 METAR KMJX 030856Z 32012KT 10SM -RA BKN075 OVC090 08/03 A2983 RMK AO2 RAE22B44 PRESRR SLP103 P0000 60000 T00830033 55014EQDQ01  00008PRCP03R01  00837TMP028
0298720407004622022030311567+39928-074292FM-15+0025KMJX V0203005N00515028965MN0160935N5+00725+00335101405ADDAA106000021GA1085+028965999GD14991+0289659GE19AGL   +99999+99999GF199999999999028961999999KA1060M+00831KA2060N+00561MA1101355101055MD1190369+9999REMMET12203/03/22 06:56:02 METAR KMJX 031156Z 30010KT 10SM OVC095 07/03 A2993 RMK AO2 SLP140 60000 T00720033 10083 20056 51036 TSNOEQDQ01  00008PRCP06
0187720407004622022030400567+39928-074292FM-15+0025KMJX V0203405N005752200059N0160935N5+00115-01445102615ADDGA1005+999999999GD10991+9999999GF100991999999999999999999MA1102575102275REMMET10303/03/22 19:56:01 METAR KMJX 040056Z 34011KT 10SM CLR 01/M14 A3029 RMK AO2 SLP261 T00111144 FZRANO TSNO
001572040700462202203040459O+39928-074292SOD  +0025KMJX V020999999999999999999999999999+99999+99999999999ADDAT1AU16RA  5
0187720407004622022030501567+39928-074292FM-15+0025KMJX V0209999C000052200059N0160935N5-00505-01175999999ADDGA1005+999999999GD10991+9999999GF100991999999999999999999MA1103225102915REMMET10303/04/22 20:56:01 METAR KMJX 050156Z 00000KT 10SM CLR M05/M12 A3048 RMK AO2 SLPNO T10501117 FZRANO TSNO
0259720407004622022030604567+39928-074292FM-15+0025KMJX V0209999C00005002445MN0160935N5+00786+00445102565ADDGA1085+002445999GD14991+0024459GE19AGL   +99999+99999GF199999999999002441999999KA1240M+00941KA2240N-00831MA1102545102245REMMET10803/05/22 23:56:02 METAR KMJX 060456Z 00000KT 10SM OVC008 08/04 A3028 RMK AO2 SLP256 T00780044 400941083 TSNOEQDR01  00787TMP028
0204720407004622022030609567+39928-074292FM-15+0025KMJX V0202005N00215010675MN0160935N5+00565+00395102115ADDGA1075+010675999GD13991+0106759GE19AGL   +99999+99999GF199999999999010671999999MA1102075101765REMMET09803/06/22 04:56:02 METAR KMJX 060956Z 20004KT 10SM BKN035 06/04 A3014 RMK AO2 SLP211 T00560039 TSNO
0179720407004622022030710567+39928-074292FM-15+0025KMJX V0201905N002152200059N0160935N5+01505+01175101355ADDGA1005+999999999GD10991+9999999GF100991999999999999999999MA1101325101025REMMET09503/07/22 05:56:02 METAR KMJX 071056Z 19004KT 10SM CLR 15/12 A2992 RMK AO2 SLP135 T01500117 TSNO
0267720407004622022030813567+39928-074292FM-15+0025KMJX V0203205N006752200059N0160935N5+00565-00565101985ADDGA1025+013415999GD11991+0134159GE19AGL   +99999+99999GF102995999999013411999999MA1101965101665OC101295OD149901391300REMMET12003/08/22 08:56:02 METAR KMJX 081356Z 32013G25KT 10SM FEW044 06/M06 A3011 RMK AO2 PK WND 30027/1342 SLP198 T00561056 TSNOEQDD01      0ADE726
0191720407004622022030816567+39928-074292FM-15+0025KMJX V0203305N007252200059N0160935N5+00835-00505102045ADDGA1005+999999999GD10991+9999999GF100991999999999999999999MA1102005101705OC101035REMMET09903/08/22 11:56:02 METAR KMJX 081656Z 33014G20KT 10SM CLR 08/M05 A3012 RMK AO2 SLP204 T00831050 TSNO
0187720407004622022030903567+39928-074292FM-15+0025KMJX V0209999C000052200059N0160935N5+00005-00225102365ADDGA1005+999999999GD10991+9999999GF100991999999999999999999MA1102345102035REMMET10303/08/22 22:56:02 METAR KMJX 090356Z 00000KT 10SM CLR 00/M02 A3022 RMK AO2 SLP236 T00001022 FZRANO TSNO
0307720407004622022030912367+39928-074292FM-15+0025KMJX V0201505N00415003965MN0160935N5+00305+00205999999ADDAA101000021AU110020015AW1615GA1075+003965999GA2075+007925999GA3085+013725999GD13991+0039659GD23991+0079259GD34991+0137259GE19AGL   +99999+99999GF199999999999003961999999MA1101965101665MW1615REMMET10503/09/22 07:36:02 METAR KMJX 091236Z 15008KT 10SM -RA BKN013 BKN026 OVC045 03/02 A3011 RMK AO2 P0000 TSNO
0359720407004622022030917567+39928-074292FM-15+0025KMJX V0200805N00415002135MN0144845N5+00445+00395101175ADDAA101000395AA206004191AU110020015AW1615GA1085+002135999GD14991+0021359GE19AGL   +99999+99999GF199999999999002131999999KA1060M+00561KA2060N+00221MA1101125100825MD1690699+9999MW1615OC100775REMMET14103/09/22 12:56:02 METAR KMJX 091756Z 08008G15KT 9SM -RA OVC007 04/04 A2986 RMK AO2 PRESFR SLP117 P0001 60016 T00440039 10056 20022 56069 TSNOEQDQ01  00408PRCP06
0264720407004622022030923327+39928-074292FM-15+0025KMJX V0200105N00365001525MN0048285N5+00205+00205999999ADDAA101000395AU110020015AU200001015AW1105AW2615GA1085+001525999GD14991+0015251GE19AGL   +99999+99999GF199999999999001521999999MA1101355101055MW1615REMMET10703/09/22 18:32:02 METAR KMJX 092332Z 01007KT 3SM -RA BR OVC005 02/02 A2993 RMK AO2 CIG 004V009 P0001 FZRANO
002772040700462202203100459O+39928-074292SOD  +0025KMJX V020999999999999999999999999999+99999+99999999999ADDAT1AU16RA  5AT2AU13BR  5
0299720407004622022031005567+39928-074292FM-15+0025KMJX V0203305N00215008235MN0128755N5+00225+00175101895ADDAA106000391GA1085+008235999GD14991+0082359GE19AGL   +99999+99999GF199999999999008231999999KA1060M+00281KA2060N+00221MA1101835101535MD1190159+9999REMMET12303/10/22 00:56:02 METAR KMJX 100556Z 33004KT 8SM OVC027 02/02 A3007 RMK AO2 SLP189 60001 T00220017 10028 20022 51015 FZRANOEQDQ01  00028PRCP06
0207720407004622022031006277+39928-074292FM-15+0025KMJX V0203205N001552200059N0112655N5+00105+00105999999ADDGA1045+008235999GD12991+0082359GE19AGL   +99999+99999GF104995999999008231999999MA1101865101565REMMET08203/10/22 01:27:02 METAR KMJX 100627Z 32003KT 7SM SCT027 01/01 A3008 RMK AO2 FZRANOEQDD01      0ADE726
0200720407004622022031006567+39928-074292FM-15+0025KMJX V0203205N001552200059N0064375N5+00065+00065101915ADDAU100001015AW1105GA1005+999999999GD10991+9999999GF100991999999999999999999MA1101865101565REMMET09903/10/22 01:56:02 METAR KMJX 100656Z 32003KT 4SM BR CLR 01/01 A3008 RMK AO2 SLP191 T00060006 FZRANO
0250720407004622022031008387+39928-074292FM-15+0025KMJX V0209999C00005008535MN0012075N5-00105-00205999999ADDAU100001015AW1105GA1045+000305999GA2075+008535999GD12991+0003059GD23991+0085359GE19AGL   +99999+99999GF199999999999000301999999MA1102005101705REMMET09603/10/22 03:38:02 METAR KMJX 100838Z 00000KT 3/4SM BR SCT001 BKN028 M01/M02 A3012 RMK AO2 FZRANO
0251720407004622022031008567+39928-074292FM-15+0025KMJX V0209999C00005000305MN0004025N5-00115-00175102095ADDAU108002015AW1355GA1085+000305999GD14991+0003059GE19AGL   +99999+99999GF199999999999000301999999MA1102035101735MD1390209+9999REMMET11403/10/22 03:56:02 METAR KMJX 100856Z 00000KT 1/4SM FZFG OVC001 M01/M02 A3013 RMK AO2 SLP209 T10111017 53020 FZRANO
0214720407004622022031009177+39928-074292FM-15+0025KMJX V0209999C00005000305MN0008055N5-00105-00205999999ADDAU108002015AW1355GA1085+000305999GD14991+0003059GE19AGL   +99999+99999GF199999999999000301999999MA1102035101735REMMET09103/10/22 04:17:02 METAR KMJX 100917Z 00000KT 1/2SM FZFG OVC001 M01/M02 A3013 RMK AO2 FZRANO
0212720407004622022031010167+39928-074292FM-15+0025KMJX V0209999C00005000305MN0012075N5-00205-00205999999ADDAU100001015AW1105GA1085+000305999GD14991+0003059GE19AGL   +99999+99999GF199999999999000301999999MA1102105101805REMMET08903/10/22 05:16:02 METAR KMJX 101016Z 00000KT 3/4SM BR OVC001 M02/M02 A3015 RMK AO2 FZRANO
0233720407004622022031010287+39928-074292FM-15+0025KMJX V0209999C000052200059N0020125N5-00205-00205999999ADDAU100001015AW1105GA1045+000305999GD12991+0003059GE19AGL   +99999+99999GF104995999999000301999999MA1102135101835REMMET09103/10/22 05:28:02 METAR KMJX 101028Z 00000KT 1 1/4SM BR SCT001 M02/M02 A3016 RMK AO2 FZRANOEQDD01      0ADE726
0182720407004622022031010567+39928-074292FM-15+0025KMJX V0209999C000052200059N0112655N5-00225-00285102235ADDGA1005+999999999GD10991+9999999GF100991999999999999999999MA1102205101905REMMET09803/10/22 05:56:02 METAR KMJX 101056Z 00000KT 7SM CLR M02/M03 A3018 RMK AO2 SLP223 T10221028 FZRANO
0277720407004622022031011567+39928-074292FM-15+0025KMJX V0203105N002152200059N0160935N5-00175-00175102325ADDAA124007691GA1005+999999999GD10991+9999999GF100991999999999999999999KA1060M+00061KA2060N-00221MA1102275101975MD1390249+9999REMMET12303/10/22 06:56:02 METAR KMJX 101156Z 31004KT 10SM CLR M02/M02 A3020 RMK AO2 SLP232 70030 T10171017 10006 21022 53024 FZRANOEQDQ01  00768PRCP24
0174720407004622022031013567+39928-074292FM-15+0025KMJX V0203305N003652200059N0160935N5+00285+00225102375ADDGA1005+999999999GD10991+9999999GF100991999999999999999999MA1102345102035REMMET09003/10/22 08:56:02 METAR KMJX 101356Z 33007KT 10SM CLR 03/02 A3022 RMK AO2 SLP237 T00280022
0238720407004622022031014567+39928-074292FM-15+0025KMJX V0203605N003152200059N0160935N5+00395+00225102395ADDGA1025+002745999GD11991+0027459GE19AGL   +99999+99999GF102995999999002741999999MA1102345102035MD1390069+9999REMMET09903/10/22 09:56:02 METAR KMJX 101456Z 36006KT 10SM FEW009 04/02 A3022 RMK AO2 SLP239 T00390022 53006EQDD01      0ADE726
0201720407004622022031017137+39928-074292FM-15+0025KMJX V0200805N003152200059N0160935N5+00705+00205999999ADDGA1045+005795999GD12991+0057959GE19AGL   +99999+99999GF104995999999005791999999MA1102205101905REMMET07603/10/22 12:13:02 METAR KMJX 101713Z 08006KT 10SM SCT019 07/02 A3018 RMK AO2EQDD01      0ADE726
0182720407004622022031017387+39928-074292FM-15+0025KMJX V0200805N00365006405MN0160935N5+00805+00205999999ADDGA1075+006405999GD13991+0064059GE19AGL   +99999+99999GF199999999999006401999999MA1102205101905REMMET07603/10/22 12:38:02 METAR KMJX 101738Z 08007KT 10SM BKN021 08/02 A3018 RMK AO2
0257720407004622022031017567+39928-074292FM-15+0025KMJX V0201205N00315006405MN0160935N5+00785+00175102245ADDGA1075+006405999GD13991+0064059GE19AGL   +99999+99999GF199999999999006401999999KA1060M+00781KA2060N-00171MA1102205101905MD1690159+9999REMMET11103/10/22 12:56:02 METAR KMJX 101756Z 12006KT 10SM BKN021 08/02 A3018 RMK AO2 SLP224 T00780017 10078 21017 56015
0201720407004622022031018087+39928-074292FM-15+0025KMJX V0201205N003152200059N0160935N5+00805+00105999999ADDGA1045+006405999GD12991+0064059GE19AGL   +99999+99999GF104995999999006401999999MA1102175101875REMMET07603/10/22 13:08:02 METAR KMJX 101808Z 12006KT 10SM SCT021 08/01 A3017 RMK AO2EQDD01      0ADE726
0174720407004622022031018567+39928-074292FM-15+0025KMJX V0201805N002152200059N0160935N5+00835+00005102155ADDGA1005+999999999GD10991+9999999GF100991999999999999999999MA1102105101805REMMET09003/10/22 13:56:02 METAR KMJX 101856Z 18004KT 10SM CLR 08/00 A3015 RMK AO2 SLP215 T00830000
0175720407004622022031019567+39928-074292FM-15+0025KMJX V0201405N003652200059N0160935N5+00835-00285102145ADDGA1005+999999999GD10991+9999999GF100991999999999999999999MA1102105101805REMMET09103/10/22 14:56:02 METAR KMJX 101956Z 14007KT 10SM CLR 08/M03 A3015 RMK AO2 SLP214 T00831028
0175720407004622022031021567+39928-074292FM-15+0025KMJX V0200805N001552200059N0160935N5+00675-00395102135ADDGA1005+999999999GD10991+9999999GF100991999999999999999999MA1102105101805REMMET09103/10/22 16:56:02 METAR KMJX 102156Z 08003KT 10SM CLR 07/M04 A3015 RMK AO2 SLP213 T00671039
0182720407004622022031100567+39928-074292FM-15+0025KMJX V0209999C000052200059N0160935N5+00175-00065102165ADDGA1005+999999999GD10991+9999999GF100991999999999999999999MA1102135101835REMMET09803/10/22 19:56:01 METAR KMJX 110056Z 00000KT 10SM CLR 02/M01 A3016 RMK AO2 SLP216 T00171006 FZRANO
0183720407004622022031101567+39928-074292FM-15+0025KMJX V0209999C000052200059N0160935N5-00065-00225102175ADDGA1005+999999999GD10991+9999999GF100991999999999999999999MA1102135101835REMMET09903/10/22 20:56:01 METAR KMJX 110156Z 00000KT 10SM CLR M01/M02 A3016 RMK AO2 SLP217 T10061022 FZRANO
0233720407004622022031102567+39928-074292FM-15+0025KMJX V0209999C00005028965MN0160935N5-00065-00175102265ADDGA1085+028965999GD14991+0289659GE19AGL   +99999+99999GF199999999999028961999999MA1102205101905MD1290189+9999REMMET11303/10/22 21:56:01 METAR KMJX 110256Z 00000KT 10SM OVC095 M01/M02 A3018 RMK AO2 SLP226 T10061017 52018 FZRANO TSNO
0207720407004622022031103567+39928-074292FM-15+0025KMJX V0209999C00005028965MN0160935N5+00115-00065102145ADDGA1085+028965999GD14991+0289659GE19AGL   +99999+99999GF199999999999028961999999MA1102105101805REMMET10103/10/22 22:56:01 METAR KMJX 110356Z 00000KT 10SM OVC095 01/M01 A3015 RMK AO2 SLP214 T00111006 FZRANO
003972040700462202203110459O+39928-074292SOD  +0025KMJX V020999999999999999999999999999+99999+99999999999ADDAT1AU22FZFG5AT2AU13BR  5AT3AW01FG  5
0183720407004622022031106567+39928-074292FM-15+0025KMJX V0209999C000052200059N0160935N5-00285-00395102085ADDGA1005+999999999GD10991+9999999GF100991999999999999999999MA1102035101735REMMET09903/11/22 01:56:02 METAR KMJX 110656Z 00000KT 10SM CLR M03/M04 A3013 RMK AO2 SLP208 T10281039 FZRANO
0203720407004622022031108567+39928-074292FM-15+0025KMJX V0209999C000052200059N0160935N5-00445-00505102085ADDGA1005+999999999GD10991+9999999GF100991999999999999999999MA1102035101735MD1390029+9999REMMET10503/11/22 03:56:02 METAR KMJX 110856Z 00000KT 10SM CLR M04/M05 A3013 RMK AO2 SLP208 T10441050 53002 FZRANO
0183720407004622022031109567+39928-074292FM-15+0025KMJX V0209999C000052200059N0160935N5-00505-00615102085ADDGA1005+999999999GD10991+9999999GF100991999999999999999999MA1102035101735REMMET09903/11/22 04:56:02 METAR KMJX 110956Z 00000KT 10SM CLR M05/M06 A3013 RMK AO2 SLP208 T10501061 FZRANO
0174720407004622022031112567+39928-074292FM-15+0025KMJX V0209999C000052200059N0160935N5+00395+00115102065ADDGA1005+999999999GD10991+9999999GF100991999999999999999999MA1102035101735REMMET09003/11/22 07:56:02 METAR KMJX 111256Z 00000KT 10SM CLR 04/01 A3013 RMK AO2 SLP206 T00390011
0175720407004622022031113567+39928-074292FM-15+0025KMJX V0209999C000052200059N0160935N5+00725-00445102145ADDGA1005+999999999GD10991+9999999GF100991999999999999999999MA1102105101805REMMET09103/11/22 08:56:02 METAR KMJX 111356Z 00000KT 10SM CLR 07/M04 A3015 RMK AO2 SLP214 T00721044
0232720407004622022031117567+39928-074292FM-15+0025KMJX V0201105N004152200059N0160935N5+01335+00065101855ADDGA1005+999999999GD10991+9999999GF100991999999999999999999KA1060M+01391KA2060N-00331MA1101795101495MD1890239+9999REMMET10803/11/22 12:56:02 METAR KMJX 111756Z 11008KT 10SM CLR 13/01 A3006 RMK AO2 SLP185 T01330006 10139 21033 58023
0174720407004622022031118567+39928-074292FM-15+0025KMJX V0201405N005152200059N0160935N5+01225+00065101695ADDGA1005+999999999GD10991+9999999GF100991999999999999999999MA1101665101365REMMET09003/11/22 13:56:02 METAR KMJX 111856Z 14010KT 10SM CLR 12/01 A3002 RMK AO2 SLP169 T01220006
0173720407004622022031119567+39928-074292FM-15+0025KMJX V0201405N006252200059N0128755N5+01175+00065101595ADDGA1005+999999999GD10991+9999999GF100991999999999999999999MA1101565101265REMMET08903/11/22 14:56:02 METAR KMJX 111956Z 14012KT 8SM CLR 12/01 A2999 RMK AO2 SLP159 T01170006
0224720407004622022031120567+39928-074292FM-15+0025KMJX V0201605N004652200059N0096565N5+01005+00175101555ADDAU100007015AW1051GA1005+999999999GD10991+9999999GF100991999999999999999999MA1101525101225MD1690309+9999MW1055REMMET10303/11/22 15:56:02 METAR KMJX 112056Z 16009KT 6SM HZ CLR 10/02 A2998 RMK AO2 SLP155 T01000017 56030 TSNO
0199720407004622022031121567+39928-074292FM-15+0025KMJX V0201605N004152200059N0096565N5+00835+00285101535ADDAU100007015AW1051GA1005+999999999GD10991+9999999GF100991999999999999999999MA1101495101195MW1055REMMET09203/11/22 16:56:02 METAR KMJX 112156Z 16008KT 6SM HZ CLR 08/03 A2997 RMK AO2 SLP153 T00830028
0179720407004622022031122567+39928-074292FM-15+0025KMJX V0201505N003152200059N0160935N5+00725+00395101525ADDGA1005+999999999GD10991+9999999GF100991999999999999999999MA1101495101195REMMET09503/11/22 17:56:02 METAR KMJX 112256Z 15006KT 10SM CLR 07/04 A2997 RMK AO2 SLP152 T00720039 TSNO
0232720407004622022031123567+39928-074292FM-15+0025KMJX V0201505N003152200059N0160935N5+00565+00395101435ADDGA1005+999999999GD10991+9999999GF100991999999999999999999KA1060M+01331KA2060N+00561MA1101395101095MD1890129+9999REMMET10803/11/22 18:56:02 METAR KMJX 112356Z 15006KT 10SM CLR 06/04 A2994 RMK AO2 SLP143 T00560039 10133 20056 58012
0201720407004622022031202297+39928-074292FM-15+0025KMJX V0201505N002152200059N0160935N5+00505+00405999999ADDGA1045+001225999GD12991+0012259GE19AGL   +99999+99999GF104995999999001221999999MA1101195100895REMMET07603/11/22 21:29:01 METAR KMJX 120229Z 15004KT 10SM SCT004 05/04 A2988 RMK AO2EQDD01      0ADE726
0182720407004622022031202377+39928-074292FM-15+0025KMJX V0201405N00265001225MN0160935N5+00505+00405999999ADDGA1075+001225999GD13991+0012259GE19AGL   +99999+99999GF199999999999001221999999MA1101155100855REMMET07603/11/22 21:37:01 METAR KMJX 120237Z 14005KT 10SM BKN004 05/04 A2987 RMK AO2
0238720407004622022031202567+39928-074292FM-15+0025KMJX V0201405N00365000615MN0096565N5+00615+00565101135ADDAU100001015AW1105GA1085+000615999GD14991+0006159GE19AGL   +99999+99999GF199999999999000611999999MA1101125100825MD1890299+9999REMMET10103/11/22 21:56:01 METAR KMJX 120256Z 14007KT 6SM BR OVC002 06/06 A2986 RMK AO2 SLP113 T00610056 58029
0213720407004622022031203367+39928-074292FM-15+0025KMJX V0201605N00365000615MN0032195V5+00605+00605999999ADDAU100001015AW1105GA1085+000615999GD14991+0006159GE19AGL   +99999+99999GF199999999999000611999999MA1101055100755REMMET09003/11/22 22:36:01 METAR KMJX 120336Z 16007KT 2SM BR OVC002 06/06 A2984 RMK AO2 VIS 1 1/4V3
0181720407004622022031203487+39928-074292FM-15+0025KMJX V0201605N00365000615MN0112655N5+00605+00605999999ADDGA1085+000615999GD14991+0006159GE19AGL   +99999+99999GF199999999999000611999999MA1101055100755REMMET07503/11/22 22:48:01 METAR KMJX 120348Z 16007KT 7SM OVC002 06/06 A2984 RMK AO2
0199720407004622022031203567+39928-074292FM-15+0025KMJX V0201605N00365000615MN0160935N5+00675+00615101065ADDGA1085+000615999GD14991+0006159GE19AGL   +99999+99999GF199999999999000611999999MA1101025100725REMMET09303/11/22 22:56:02 METAR KMJX 120356Z 16007KT 10SM OVC002 07/06 A2983 RMK AO2 SLP106 T00670061
0182720407004622022031204137+39928-074292FM-15+0025KMJX V0201505N00265001225MN0160935N5+00705+00605999999ADDGA1085+001225999GD14991+0012259GE19AGL   +99999+99999GF199999999999001221999999MA1100985100685REMMET07603/11/22 23:13:02 METAR KMJX 120413Z 15005KT 10SM OVC004 07/06 A2982 RMK AO2
002772040700462202203120459O+39928-074292SOD  +0025KMJX V020999999999999999999999999999+99999+99999999999ADDAT1AU13BR  5AT2AU08HZ  5
0182720407004622022031205377+39928-074292FM-15+0025KMJX V0201905N00215001835MN0160935N5+00805+00705999999ADDGA1085+001835999GD14991+0018359GE19AGL   +99999+99999GF199999999999001831999999MA1100815100515REMMET07603/12/22 00:37:02 METAR KMJX 120537Z 19004KT 10SM OVC006 08/07 A2977 RMK AO2
0257720407004622022031205567+39928-074292FM-15+0025KMJX V0202005N00265001835MN0160935N5+00785+00725100785ADDGA1085+001835999GD14991+0018359GE19AGL   +99999+99999GF199999999999001831999999KA1060M+00781KA2060N+00391MA1100755100455MD1890369+9999REMMET11103/12/22 00:56:02 METAR KMJX 120556Z 20005KT 10SM OVC006 08/07 A2975 RMK AO2 SLP078 T00780072 10078 20039 58036
0199720407004622022031206567+39928-074292FM-15+0025KMJX V0202005N00315001835MN0160935N5+00835+00725100665ADDGA1085+001835999GD14991+0018359GE19AGL   +99999+99999GF199999999999001831999999MA1100645100345REMMET09303/12/22 01:56:02 METAR KMJX 120656Z 20006KT 10SM OVC006 08/07 A2972 RMK AO2 SLP066 T00830072
0249720407004622022031211117+39928-074292FM-15+0025KMJX V0209999C00005001225MN0028165N5+00805+00705999999ADDAA101000021AU110020015AU200001015AW1105AW2615GA1085+001225999GD14991+0012259GE19AGL   +99999+99999GF199999999999001221999999MA1099805099505MW1615REMMET09203/12/22 06:11:02 METAR KMJX 121111Z 00000KT 1 3/4SM -RA BR OVC004 08/07 A2947 RMK AO2 P0000
0247720407004622022031211357+39928-074292FM-15+0025KMJX V0209999C00005000615MN0012075N5+00805+00705999999ADDAA101000021AU110020015AU200001015AW1105AW2615GA1085+000615999GD14991+0006159GE19AGL   +99999+99999GF199999999999000611999999MA1099705099405MW1615REMMET09003/12/22 06:35:02 METAR KMJX 121135Z 00000KT 3/4SM -RA BR OVC002 08/07 A2944 RMK AO2 P0000
0249720407004622022031212157+39928-074292FM-15+0025KMJX V0200805N00215000615MN0028165N5+00805+00705999999ADDAA101000021AU110020015AU200001015AW1105AW2615GA1085+000615999GD14991+0006159GE19AGL   +99999+99999GF199999999999000611999999MA1099595099305MW1615REMMET09203/12/22 07:15:02 METAR KMJX 121215Z 08004KT 1 3/4SM -RA BR OVC002 08/07 A2941 RMK AO2 P0000
0252720407004622022031212247+39928-074292FM-15+0025KMJX V0200805N00215000615MN0032195N5+00805+00705999999ADDAA101000021AU110020015AU200001015AW1105AW2615GA1085+000615999GD14991+0006159GE19AGL   +99999+99999GF199999999999000611999999MA1099565099265MW1615REMMET09503/12/22 07:24:02 METAR KMJX 121224Z 08004KT 2SM -RA BR OVC002 08/07 A2940 RMK AO2 PRESFR P0000
0267720407004622022031212387+39928-074292FM-15+0025KMJX V0200705N00215000615MN0020125N5+00805+00705999999ADDAA101000395AU120020015AU200001015AW1105AW2625GA1085+000615999GD14991+0006159GE19AGL   +99999+99999GF199999999999000611999999MA1099465099165MW1655REMMET11003/12/22 07:38:02 METAR KMJX 121238Z 07004KT 1 1/4SM RA BR OVC002 08/07 A2937 RMK AO2 LTG DSNT SE PRESFR P0001
0249720407004622022031213207+39928-074292FM-15+0025KMJX V0203605N00215000615MN0024145N5+00805+00705999999ADDAA101001095AU130020015AU200001015AW1105AW2635GA1085+000615999GD14991+0006159GE19AGL   +99999+99999GF199999999999000611999999MA1099295098995MW1635REMMET09203/12/22 08:20:02 METAR KMJX 121320Z 36004KT 1 1/2SM +RA BR OVC002 08/07 A2932 RMK AO2 P0004
0333720407004622022031213467+39928-074292FM-15+0025KMJX V0203205N00415003055MN0048285N5+00805+00705999999ADDAA101006495AU130020015AU200001015AW1105AW2635GA1045+000615999GA2075+003055999GA3085+005185999GD12991+0006151GD23991+0030559GD34991+0051859GE19AGL   +99999+99999GF199999999999000611999999MA1099395099105MW1635REMMET11403/12/22 08:46:02 METAR KMJX 121346Z 32008KT 3SM +RA BR SCT002 BKN010 OVC017 08/07 A2935 RMK AO2 CIG 007V014 P0025
0305720407004622022031215567+39928-074292FM-15+0025KMJX V0203405N00935003055MN0160935N5+00225+00115099215ADDAA101002095AU110020015AW1615GA1085+003055999GD14991+0030551GE19AGL   +99999+99999GF199999999999003051999999MA1099155098865MW1615OC101295OD149901491350REMMET14303/12/22 10:56:02 METAR KMJX 121556Z 34018G25KT 10SM -RA OVC010 02/01 A2928 RMK AO2 PK WND 35029/1515 CIG 007V013 SLP921 P0008 T00220011 FZRANO
0349720407004622022031217167+39928-074292FM-15+0025KMJX V0203205N01085003665MN0028165N5+00005-00105999999ADDAA101000021AU110030015AU200001015AW1105AW2715GA1045+002445999GA2085+003665999GD12991+0024459GD24991+0036659GE19AGL   +99999+99999GF199999999999002441999999MA1099125098825MW1715OC101445OD149901441320REMMET13903/12/22 12:16:02 METAR KMJX 121716Z 32021G28KT 1 3/4SM -SN BR SCT008 OVC012 00/M01 A2927 RMK AO2 PK WND 32028/1710 RAE05SNB05 P0000 FZRANO
0399720407004622022031217467+39928-074292FM-15+0025KMJX V0203305N00675003355MN0020125N5+00005-00105999999ADDAA101000021AU110030015AU200001015AW1105AW2715GA1075+003355999GA2075+004275999GA3085+010065999GD13991+0033551GD23991+0042759GD34991+0100659GE19AGL   +99999+99999GF199999999999003351999999MA1099155098865MW1715OC101345OD149901441340REMMET15803/12/22 12:46:02 METAR KMJX 121746Z 33013G26KT 1 1/4SM -SN BR BKN011 BKN014 OVC033 00/M01 A2928 RMK AO2 PK WND 34028/1731 RAE05SNB05 CIG 008V012 P0000 FZRANO
0315720407004622022031218417+39928-074292FM-15+0025KMJX V0203205N00985004885MN0144845N5-00105-00205999999ADDAA101000021AU110030015AW1715GA1075+004885999GA2085+006405999GD13991+0048859GD24991+0064059GE19AGL   +99999+99999GF199999999999004881999999MA1099225098935MW1715OC101445OD149901441320REMMET12203/12/22 13:41:02 METAR KMJX 121841Z 32019G28KT 9SM -SN BKN016 OVC021 M01/M02 A2930 RMK AO2 PK WND 32028/1839 P0000 FZRANO
0303720407004622022031219077+39928-074292FM-15+0025KMJX V0203205N00935003965MN0048285N5-00105-00205999999ADDAA101000021AU110030015AU200001015AW1105AW2715GA1075+003965999GA2085+006105999GD13991+0039659GD24991+0061059GE19AGL   +99999+99999GF199999999999003961999999MA1099225098935MW1715OC101245REMMET10703/12/22 14:07:02 METAR KMJX 121907Z 32018G24KT 3SM -SN BR BKN013 OVC020 M01/M02 A2930 RMK AO2 P0000 FZRANO
0335720407004622022031219167+39928-074292FM-15+0025KMJX V0203205N01035004575MN0048285N5-00105-00205999999ADDAA101000021AU110030015AU200001015AW1105AW2715GA1075+004575999GA2085+006405999GD13991+0045759GD24991+0064059GE19AGL   +99999+99999GF199999999999004571999999MA1099225098935MW1715OC101345OD149901331330REMMET12503/12/22 14:16:02 METAR KMJX 121916Z 32020G26KT 3SM -SN BR BKN015 OVC021 M01/M02 A2930 RMK AO2 PK WND 33026/1916 P0000 FZRANO
0335720407004622022031219357+39928-074292FM-15+0025KMJX V0203205N00775003965MN0032195N5-00105-00205999999ADDAA101000021AU110030015AU200001015AW1105AW2715GA1075+003965999GA2085+005795999GD13991+0039659GD24991+0057959GE19AGL   +99999+99999GF199999999999003961999999MA1099295098995MW1715OC101295OD149901331330REMMET12503/12/22 14:35:02 METAR KMJX 121935Z 32015G25KT 2SM -SN BR BKN013 OVC019 M01/M02 A2932 RMK AO2 PK WND 33026/1916 P0000 FZRANO
0369720407004622022031219567+39928-074292FM-15+0025KMJX V0203005N01185007925MN0112655N5+00005-00225099345ADDAA101000021AU110030015AW1715GA1025+003965999GA2075+007925999GA3085+010365999GD11991+0039659GD23991+0079259GD34991+0103659GE19AGL   +99999+99999GF199999999999003961999999MA1099295098995MW1715OC101545OD149901541290REMMET14503/12/22 14:56:02 METAR KMJX 121956Z 30023G30KT 7SM -SN FEW013 BKN026 OVC034 00/M02 A2932 RMK AO2 PK WND 29030/1956 SLP934 P0000 T00001022 FZRANO
0358720407004622022031221377+39928-074292FM-15+0025KMJX V0203205N01085007625MN0048285N5-00305-00705999999ADDAA101000021AU110030015AW1715GA1025+005795999GA2075+007625999GA3085+012505999GD11991+0057959GD23991+0076259GD34991+0125059GE19AGL   +99999+99999GF199999999999005791999999MA1099735099435MW1715OC101905OD149902001300REMMET13403/12/22 16:37:02 METAR KMJX 122137Z 32021G37KT 3SM -SN FEW019 BKN025 OVC041 M03/M07 A2945 RMK AO2 PK WND 30039/2100 P0000 FZRANO TSNO
0357720407004622022031221407+39928-074292FM-15+0025KMJX V0203305N00885007625MN0028165N5-00305-00605999999ADDAA101000021AU110030015AW1715GA1045+005185999GA2075+007625999GA3085+012505999GD12991+0051859GD23991+0076259GD34991+0125059GE19AGL   +99999+99999GF199999999999005181999999MA1099805099505MW1715OC101495OD149902001300REMMET13303/12/22 16:40:02 METAR KMJX 122140Z 33017G29KT 1 3/4SM -SN SCT017 BKN025 OVC041 M03/M06 A2947 RMK AO2 PK WND 30039/2100 P0000 FZRANO
0301720407004622022031222047+39928-074292FM-15+0025KMJX V0203105N00885004575MN0040235N5-00405-00605999999ADDAA101000021AU110030015AU200001015AW1105AW2715GA1085+004575999GD14991+0045759GE19AGL   +99999+99999GF199999999999004571999999MA1099865099575MW1715OC101395OD149901391310REMMET12203/12/22 17:04:02 METAR KMJX 122204Z 31017G27KT 2 1/2SM -SN BR OVC015 M04/M06 A2949 RMK AO2 PK WND 31027/2200 P0000 FZRANO
0362720407004622022031222537+39928-074292FM-15+0025KMJX V0203105N01035009755MN0144845N5-00405-00805999999ADDAA101000021AU110030015AW1715GA1025+007015999GA2075+009755999GA3085+018295999GD11991+0070159GD23991+0097559GD34991+0182959GE19AGL   +99999+99999GF199999999999007011999999MA1100075099775MW1715OC101705OD149901751320REMMET13803/12/22 17:53:02 METAR KMJX 122253Z 31020G33KT 9SM -SN FEW023 BKN032 OVC060 M04/M08 A2955 RMK AO2 PK WND 32034/2227 TSB45E46 P0000 FZRANO
0379720407004622022031222567+39928-074292FM-15+0025KMJX V0203005N01135015245MN0144845N5-00395-00895100085ADDAA101000021AU110030015AW1715GA1025+008535999GA2075+015245999GA3085+018295999GD11991+0085359GD23991+0152459GD34991+0182959GE19AGL   +99999+99999GF199999999999008531999999MA1100035099745MW1715OC101705OD149901751320REMMET15503/12/22 17:56:02 METAR KMJX 122256Z 30022G33KT 9SM -SN FEW028 BKN050 OVC060 M04/M09 A2954 RMK AO2 PK WND 32034/2227 TSB45E46 SLP008 P0000 T10391089 FZRANO
0219720407004622022031300567+39928-074292FM-15+0025KMJX V0203005N006752200059N0160935N5-00395-01005100495ADDGA1005+999999999GD10991+9999999GF100991999999999999999999MA1100445100145OC101445REMMET12703/12/22 19:56:01 METAR KMJX 130056Z 30013G28KT 10SM CLR M04/M10 A2966 RMK AO2 PK WND 29028/0047 PRESRR SLP049 T10391100 FZRANO
0289720407004622022031301567+39928-074292FM-15+0025KMJX V0203005N00885018295MN0160935N5-00395-01005100645ADDGA1045+014945999GA2075+018295999GD12991+0149459GD23991+0182959GE19AGL   +99999+99999GF199999999999014941999999MA1100615100315OC101185OD149901391300REMMET13003/12/22 20:56:01 METAR KMJX 130156Z 30017G23KT 10SM SCT049 BKN060 M04/M10 A2971 RMK AO2 PK WND 30027/0112 SLP064 T10391100 FZRANO
0364720407004622022031302567+39928-074292FM-15+0025KMJX V0202805N010852200059N0144845N5-00505-01005100865ADDAA101000021AA203000021GA1025+013115999GD11991+0131159GE19AGL   +99999+99999GF102995999999013111999999MA1100815100515MD1190599+9999OC101445OD149901851290REMMET14903/12/22 21:56:01 METAR KMJX 130256Z 28021G28KT 9SM FEW043 M05/M10 A2977 RMK AO2 PK WND 29036/0234 SNB02E51 SLP086 P0000 60000 T10501100 51059 FZRANOEQDQ01  00002PRCP03Q02  00008PRCP03D01      0ADE726
0270720407004622022031303567+39928-074292FM-15+0025KMJX V0202905N010352200059N0160935N5-00505-01335101025ADDGA1025+016765999GD11991+0167659GE19AGL   +99999+99999GF102995999999016761999999MA1100985100685OC101805OD149901801280REMMET12303/12/22 22:56:01 METAR KMJX 130356Z 29020G35KT 10SM FEW055 M05/M13 A2982 RMK AO2 PK WND 28035/0352 SLP102 T10501133 FZRANOEQDD01      0ADE726
0248720407004622022031304567+39928-074292FM-15+0025KMJX V0202805N012952200059N0160935N5-00565-01445101165ADDGA1005+999999999GD10991+9999999GF100991999999999999999999KA1240M+00831KA2240N-00561MA1101125100825OC101755REMMET13003/12/22 23:56:02 METAR KMJX 130456Z 28025G34KT 10SM CLR M06/M14 A2986 RMK AO2 PK WND 26035/0358 SLP116 T10561144 400831056 FZRANO
003972040700462202203130459O+39928-074292SOD  +0025KMJX V020999999999999999999999999999+99999+99999999999ADDAT1AU16RA  5AT2AU18SN  5AT3AU13BR  5
0322720407004622022031305567+39928-074292FM-15+0025KMJX V0202805N012452200059N0160935N5-00565-01395101325ADDAA106000021GA1005+999999999GD10991+9999999GF100991999999999999999999KA1060M-00391KA2060N-00561MA1101295100995MD1290469+9999OC101605REMMET14403/13/22 00:56:02 METAR KMJX 130556Z 28024G31KT 10SM CLR M06/M14 A2991 RMK AO2 PK WND 29038/0535 SLP132 60000 T10561139 11039 21056 52046 FZRANOEQDQ01  00002PRCP06Q02  00008PRCP06
0251720407004622022031307567+39928-074292FM-15+0025KMJX V0202805N01085015245MN0160935N5-00615-01395101625ADDGA1075+015245999GD13991+0152459GE19AGL   +99999+99999GF199999999999015241999999MA1101595101295OC101295OD149901691280REMMET12303/13/22 02:56:02 METAR KMJX 130756Z 28021G25KT 10SM BKN050 M06/M14 A3000 RMK AO2 PK WND 28033/0726 SLP162 T10611139 FZRANO
0297720407004622022031308567+39928-074292FM-15+0025KMJX V0202905N008252200059N0160935N5-00615-01395101825ADDGA1025+015245999GD11991+0152459GE19AGL   +99999+99999GF102995999999015241999999MA1101795101495MD1390509+9999OC101345OD149901441270REMMET13603/13/22 03:56:02 METAR KMJX 130856Z 29016G26KT 10SM FEW050 M06/M14 A3006 RMK AO2 PK WND 27028/0846 PRESRR SLP182 T10611139 53050 FZRANOEQDD01      0ADE726
0212720407004622022031309567+39928-074292FM-15+0025KMJX V0202805N006752200059N0160935N5-00615-01335101995ADDGA1005+999999999GD10991+9999999GF100991999999999999999999MA1101935101635OC101295REMMET12003/13/22 04:56:02 METAR KMJX 130956Z 28013G25KT 10SM CLR M06/M13 A3010 RMK AO2 PK WND 30028/0919 SLP199 T10611133 FZRANO
0194720407004622022031310567+39928-074292FM-15+0025KMJX V0202905N007252200059N0160935N5-00615-01335102155ADDGA1005+999999999GD10991+9999999GF100991999999999999999999MA1102105101805OC101085REMMET10203/13/22 05:56:02 METAR KMJX 131056Z 29014G21KT 10SM CLR M06/M13 A3015 RMK AO2 SLP215 T10611133 FZRANO
0194720407004622022031312567+39928-074292FM-15+0025KMJX V0203005N007252200059N0160935N5-00335-01225102435ADDGA1005+999999999GD10991+9999999GF100991999999999999999999MA1102405102105OC101085REMMET10203/13/22 07:56:02 METAR KMJX 131256Z 30014G21KT 10SM CLR M03/M12 A3024 RMK AO2 SLP243 T10331122 FZRANO
0193720407004622022031316567+39928-074292FM-15+0025KMJX V0202405V006752200059N0160935N5+00175-01225102595ADDGA1005+999999999GD10991+9999999GF100991999999999999999999MA1102545102245OC100935REMMET10103/13/22 11:56:02 METAR KMJX 131656Z 24013G18KT 10SM CLR 02/M12 A3028 RMK AO2 SLP259 T00171122 FZRANO
0251720407004622022031317567+39928-074292FM-15+0025KMJX V0202305N008852200059N0160935N5+00225-01335102515ADDGA1005+999999999GD10991+9999999GF100991999999999999999999KA1060M+00221KA2060N-00501MA1102475102175MD1890039+9999OC101035REMMET11903/13/22 12:56:02 METAR KMJX 131756Z 23017G20KT 10SM CLR 02/M13 A3026 RMK AO2 SLP251 T00221133 10022 21050 58003 FZRANO
0186720407004622022031319567+39928-074292FM-15+0025KMJX V0202205N006752200059N0160935N5+00285-01285102315ADDGA1005+999999999GD10991+9999999GF100991999999999999999999MA1102275101975OC100935REMMET09403/13/22 14:56:02 METAR KMJX 131956Z 22013G18KT 10SM CLR 03/M13 A3020 RMK AO2 SLP231 T00281128
0206720407004622022031320567+39928-074292FM-15+0025KMJX V0202305N006752200059N0160935N5+00285-01335102305ADDGA1005+999999999GD10991+9999999GF100991999999999999999999MA1102275101975MD1690219+9999OC100885REMMET10003/13/22 15:56:02 METAR KMJX 132056Z 23013G17KT 10SM CLR 03/M13 A3020 RMK AO2 SLP230 T00281133 56021
0207720407004622022031321567+39928-074292FM-15+0025KMJX V0202305N00515019815MN0160935N5+00175-01285102365ADDGA1085+019815999GD14991+0198159GE19AGL   +99999+99999GF199999999999019811999999MA1102305102005REMMET10103/13/22 16:56:02 METAR KMJX 132156Z 23010KT 10SM OVC065 02/M13 A3021 RMK AO2 SLP236 T00171128 FZRANO
0207720407004622022031400567+39928-074292FM-15+0025KMJX V0209999C00005022865MN0160935N5+00065-00945102635ADDGA1085+022865999GD14991+0228659GE19AGL   +99999+99999GF199999999999022861999999MA1102575102275REMMET10103/13/22 19:56:01 METAR KMJX 140056Z 00000KT 10SM OVC075 01/M09 A3029 RMK AO2 SLP263 T00061094 FZRANO
0207720407004622022031401567+39928-074292FM-15+0025KMJX V0209999C00005021345MN0160935N5+00065-00785102705ADDGA1085+021345999GD14991+0213459GE19AGL   +99999+99999GF199999999999021341999999MA1102645102345REMMET10103/13/22 20:56:01 METAR KMJX 140156Z 00000KT 10SM OVC070 01/M08 A3031 RMK AO2 SLP270 T00061078 FZRANO
0182720407004622022031407567+39928-074292FM-15+0025KMJX V0202305N004152200059N0160935N5+00005-00395102785ADDGA1005+999999999GD10991+9999999GF100991999999999999999999MA1102745102445REMMET09803/14/22 02:56:02 METAR KMJX 140756Z 23008KT 10SM CLR 00/M04 A3034 RMK AO2 SLP278 T00001039 FZRANO
0241720407004622022031411567+39928-074292FM-15+0025KMJX V0209999C000052200059N0160935N5-00175-00445103015ADDGA1005+999999999GD10991+9999999GF100991999999999999999999KA1060M+00061KA2060N-00331MA1102985102685MD1390209+9999REMMET11703/14/22 06:56:02 METAR KMJX 141156Z 00000KT 10SM CLR M02/M04 A3041 RMK AO2 SLP301 T10171044 10006 21033 53020 FZRANO
0174720407004622022031413567+39928-074292FM-15+0025KMJX V0202405N004659999999N0080475N5+00835-00505103135ADDAU100007015AW1051MA1103085102785MW1055REMMET08903/14/22 08:56:02 METAR KMJX 141356Z 24009KT 5SM HZ 08/M05 A3044 RMK AO2 SLP313 T00831050EQDR01      7SKY009R02      7GAS009
0175720407004622022031415567+39928-074292FM-15+0025KMJX V0202705N005752200059N0160935N5+01225-00285103175ADDGA1005+999999999GD10991+9999999GF100991999999999999999999MA1103125102815REMMET09103/14/22 10:56:02 METAR KMJX 141556Z 27011KT 10SM CLR 12/M03 A3045 RMK AO2 SLP317 T01221028
0186720407004622022031416567+39928-074292FM-15+0025KMJX V0202505N003152200059N0160935N5+01395-00225103105ADDGA1005+999999999GD10991+9999999GF100991999999999999999999MA1103055102745OC100885REMMET09403/14/22 11:56:02 METAR KMJX 141656Z 25006G17KT 10SM CLR 14/M02 A3043 RMK AO2 SLP310 T01391022
0195720407004622022031420567+39928-074292FM-15+0025KMJX V0202405N006252200059N0160935N5+01615-00175102815ADDGA1005+999999999GD10991+9999999GF100991999999999999999999MA1102785102475MD1690199+9999REMMET09703/14/22 15:56:02 METAR KMJX 142056Z 24012KT 10SM CLR 16/M02 A3035 RMK AO2 SLP281 T01611017 56019
0174720407004622022031421567+39928-074292FM-15+0025KMJX V0201805N003152200059N0160935N5+01335+00065102825ADDGA1005+999999999GD10991+9999999GF100991999999999999999999MA1102785102475REMMET09003/14/22 16:56:02 METAR KMJX 142156Z 18006KT 10SM CLR 13/01 A3035 RMK AO2 SLP282 T01330006
0175720407004622022031422567+39928-074292FM-15+0025KMJX V0201805N004652200059N0160935N5+01005-00115102885ADDGA1005+999999999GD10991+9999999GF100991999999999999999999MA1102845102545REMMET09103/14/22 17:56:02 METAR KMJX 142256Z 18009KT 10SM CLR 10/M01 A3037 RMK AO2 SLP288 T01001011
0233720407004622022031423567+39928-074292FM-15+0025KMJX V0202005N004652200059N0160935N5+00895-00225102915ADDGA1005+999999999GD10991+9999999GF100991999999999999999999KA1060M+01671KA2060N+00891MA1102885102575MD1390099+9999REMMET10903/14/22 18:56:02 METAR KMJX 142356Z 20009KT 10SM CLR 09/M02 A3038 RMK AO2 SLP291 T00891022 10167 20089 53009
0175720407004622022031500567+39928-074292FM-15+0025KMJX V0202005N004152200059N0160935N5+00785-00285102965ADDGA1005+999999999GD10991+9999999GF100991999999999999999999MA1102915102615REMMET09103/14/22 19:56:01 METAR KMJX 150056Z 20008KT 10SM CLR 08/M03 A3039 RMK AO2 SLP296 T00781028
0175720407004622022031503567+39928-074292FM-15+0025KMJX V0202105N003152200059N0160935N5+00565-00175102885ADDGA1005+999999999GD10991+9999999GF100991999999999999999999MA1102845102545REMMET09103/14/22 22:56:01 METAR KMJX 150356Z 21006KT 10SM CLR 06/M02 A3037 RMK AO2 SLP288 T00561017
0211720407004622022031504567+39928-074292FM-15+0025KMJX V0202105N002652200059N0160935N5+00565-00175102825ADDGA1005+999999999GD10991+9999999GF100991999999999999999999KA1240M+01671KA2240N-00331MA1102785102475REMMET10103/14/22 23:56:01 METAR KMJX 150456Z 21005KT 10SM CLR 06/M02 A3035 RMK AO2 SLP282 T00561017 401671033
001572040700462202203150459O+39928-074292SOD  +0025KMJX V020999999999999999999999999999+99999+99999999999ADDAT1AU08HZ  5
0233720407004622022031505567+39928-074292FM-15+0025KMJX V0202205N002152200059N0160935N5+00565-00225102795ADDGA1005+999999999GD10991+9999999GF100991999999999999999999KA1060M+00891KA2060N+00501MA1102745102445MD1690159+9999REMMET10903/15/22 00:56:01 METAR KMJX 150556Z 22004KT 10SM CLR 06/M02 A3034 RMK AO2 SLP279 T00561022 10089 20050 56015
0175720407004622022031506567+39928-074292FM-15+0025KMJX V0202205N003152200059N0160935N5+00505-00225102725ADDGA1005+999999999GD10991+9999999GF100991999999999999999999MA1102685102375REMMET09103/15/22 01:56:01 METAR KMJX 150656Z 22006KT 10SM CLR 05/M02 A3032 RMK AO2 SLP272 T00501022
0232720407004622022031511567+39928-074292FM-15+0025KMJX V0202205N002152200059N0160935N5+00335+00005102645ADDGA1005+999999999GD10991+9999999GF100991999999999999999999KA1060M+00561KA2060N+00111MA1102615102305MD1890029+9999REMMET10803/15/22 06:56:01 METAR KMJX 151156Z 22004KT 10SM CLR 03/00 A3030 RMK AO2 SLP264 T00330000 10056 20011 58002
0193720407004622022031515567+39928-074292FM-15+0025KMJX V0202705N002152200059N0160935N5+01726+00225102475ADDGA1005+999999999GD10991+9999999GF100991999999999999999999MA1102445102145REMMET09003/15/22 10:56:01 METAR KMJX 151556Z 27004KT 10SM CLR 17/02 A3025 RMK AO2 SLP247 T01720022EQDR01  01727TMP028
0174720407004622022031516567+39928-074292FM-15+0025KMJX V0200105N001552200059N0160935N5+01895+00175102395ADDGA1005+999999999GD10991+9999999GF100991999999999999999999MA1102375102075REMMET09003/15/22 11:56:02 METAR KMJX 151656Z 01003KT 10SM CLR 19/02 A3023 RMK AO2 SLP239 T01890017
0201720407004622022031517267+39928-074292FM-15+0025KMJX V0203605N002152200059N0160935N5+01905+00105999999ADDGA1025+000305999GD11991+0003059GE19AGL   +99999+99999GF102995999999000301999999MA1102305102005REMMET07603/15/22 12:26:02 METAR KMJX 151726Z 36004KT 10SM FEW001 19/01 A3021 RMK AO2EQDD01      0ADE726
0174720407004622022031519567+39928-074292FM-15+0025KMJX V0209999V002652200059N0160935N5+02065+00335102075ADDGA1005+999999999GD10991+9999999GF100991999999999999999999MA1102035101735REMMET09003/15/22 14:56:02 METAR KMJX 151956Z VRB05KT 10SM CLR 21/03 A3013 RMK AO2 SLP207 T02060033
0174720407004622022031521567+39928-074292FM-15+0025KMJX V0201705N004152200059N0160935N5+01785+00505101955ADDGA1005+999999999GD10991+9999999GF100991999999999999999999MA1101935101635REMMET09003/15/22 16:56:02 METAR KMJX 152156Z 17008KT 10SM CLR 18/05 A3010 RMK AO2 SLP195 T01780050
0174720407004622022031522567+39928-074292FM-15+0025KMJX V0201905N003652200059N0160935N5+01565+00395102015ADDGA1005+999999999GD10991+9999999GF100991999999999999999999MA1101965101665REMMET09003/15/22 17:56:02 METAR KMJX 152256Z 19007KT 10SM CLR 16/04 A3011 RMK AO2 SLP201 T01560039
0174720407004622022031600567+39928-074292FM-15+0025KMJX V0202005N003152200059N0160935N5+01285+00335102055ADDGA1005+999999999GD10991+9999999GF100991999999999999999999MA1102035101735REMMET09003/15/22 19:56:01 METAR KMJX 160056Z 20006KT 10SM CLR 13/03 A3013 RMK AO2 SLP205 T01280033
0194720407004622022031602567+39928-074292FM-15+0025KMJX V0202205N002152200059N0160935N5+01005+00335102085ADDGA1005+999999999GD10991+9999999GF100991999999999999999999MA1102035101735MD1390029+9999REMMET09603/15/22 21:56:01 METAR KMJX 160256Z 22004KT 10SM CLR 10/03 A3013 RMK AO2 SLP208 T01000033 53002
0254720407004622022031604567+39928-074292FM-15+0025KMJX V0202405N002152200059N0160935N5+00675+00225102175ADDGA1025+028965999GD11991+0289659GE19AGL   +99999+99999GF102995999999028961999999KA1240M+02111KA2240N+00111MA1102135101835REMMET10303/15/22 23:56:01 METAR KMJX 160456Z 24004KT 10SM FEW095 07/02 A3016 RMK AO2 SLP217 T00670022 402110011EQDD01      0ADE726
0276720407004622022031605567+39928-074292FM-15+0025KMJX V0202205N001552200059N0160935N5+00615+00285102175ADDGA1045+025915999GD12991+0259159GE19AGL   +99999+99999GF104995999999025911999999KA1060M+01391KA2060N+00391MA1102135101835MD1190099+9999REMMET11103/16/22 00:56:01 METAR KMJX 160556Z 22003KT 10SM SCT085 06/03 A3016 RMK AO2 SLP217 T00610028 10139 20039 51009EQDD01      0ADE726
0182720407004622022031610567+39928-074292FM-15+0025KMJX V0209999C000052200059N0160935N5+00065-00175102295ADDGA1005+999999999GD10991+9999999GF100991999999999999999999MA1102275101975REMMET09803/16/22 05:56:01 METAR KMJX 161056Z 00000KT 10SM CLR 01/M02 A3020 RMK AO2 SLP229 T00061017 FZRANO
0239720407004622022031611567+39928-074292FM-15+0025KMJX V0209999C000052200059N0160935N5+00225+00005102395ADDGA1005+999999999GD10991+9999999GF100991999999999999999999KA1060M+00611KA2060N+00001MA1102375102075MD1390209+9999REMMET11503/16/22 06:56:01 METAR KMJX 161156Z 00000KT 10SM CLR 02/00 A3023 RMK AO2 SLP239 T00220000 10061 20000 53020 FZRANO
0174720407004622022031612567+39928-074292FM-15+0025KMJX V0209999C000052200059N0160935N5+00895+00395102395ADDGA1005+999999999GD10991+9999999GF100991999999999999999999MA1102375102075REMMET09003/16/22 07:56:01 METAR KMJX 161256Z 00000KT 10SM CLR 09/04 A3023 RMK AO2 SLP239 T00890039
0174720407004622022031613567+39928-074292FM-15+0025KMJX V0203405N002152200059N0160935N5+01505+00565102425ADDGA1005+999999999GD10991+9999999GF100991999999999999999999MA1102375102075REMMET09003/16/22 08:56:01 METAR KMJX 161356Z 34004KT 10SM CLR 15/06 A3023 RMK AO2 SLP242 T01500056
0193720407004622022031614567+39928-074292FM-15+0025KMJX V0203405N001552200059N0144845N5+01615+00505102415ADDGA1005+999999999GD10991+9999999GF100991999999999999999999MA1102375102075MD1090039+9999REMMET09503/16/22 09:56:01 METAR KMJX 161456Z 34003KT 9SM CLR 16/05 A3023 RMK AO2 SLP241 T01610050 50003
0201720407004622022031615127+39928-074292FM-15+0025KMJX V0203305N002152200059N0160935N5+01605+00505999999ADDGA1025+000615999GD11991+0006159GE19AGL   +99999+99999GF102995999999000611999999MA1102375102075REMMET07603/16/22 10:12:01 METAR KMJX 161512Z 33004KT 10SM FEW002 16/05 A3023 RMK AO2EQDD01      0ADE726
0218720407004622022031615567+39928-074292FM-15+0025KMJX V0209999V002152200059N0160935N5+01785+00565102425ADDGA1025+000615999GD11991+0006159GE19AGL   +99999+99999GF102995999999000611999999MA1102405102105REMMET09303/16/22 10:56:01 METAR KMJX 161556Z VRB04KT 10SM FEW002 18/06 A3024 RMK AO2 SLP242 T01780056EQDD01      0ADE726
0174720407004622022031616567+39928-074292FM-15+0025KMJX V0201205N003152200059N0160935N5+01896+00615102385ADDGA1005+999999999GD10991+9999999GF100991999999999999999999MA1102345102035REMMET09003/16/22 11:56:02 METAR KMJX 161656Z 12006KT 10SM CLR 19/06 A3022 RMK AO2 SLP238 T01890061
0185720407004622022031618567+39928-074292FM-15+0025KMJX V0201405N006252200059N0160935N5+01785+00615102235ADDGA1005+999999999GD10991+9999999GF100991999999999999999999MA1102205101905OC100885REMMET09303/16/22 13:56:02 METAR KMJX 161856Z 14012G17KT 10SM CLR 18/06 A3018 RMK AO2 SLP223 T01780061
0148720407004622022031619567+39928-074292FM-15+0025KMJX V0201205N005159999999N0160935N5+01615+00615102235ADDMA1102205101905REMMET08603/16/22 14:56:02 METAR KMJX 161956Z 12010KT 10SM 16/06 A3018 RMK AO2 SLP223 T01610061EQDR01      7SKY009R02      7GAS009
0194720407004622022031620567+39928-074292FM-15+0025KMJX V0201505N006252200059N0160935N5+01505+00565102215ADDGA1005+999999999GD10991+9999999GF100991999999999999999999MA1102175101875MD1690079+9999REMMET09603/16/22 15:56:02 METAR KMJX 162056Z 15012KT 10SM CLR 15/06 A3017 RMK AO2 SLP221 T01500056 56007
0174720407004622022031622567+39928-074292FM-15+0025KMJX V0201205N002652200059N0160935N5+01175+00565102255ADDGA1005+999999999GD10991+9999999GF100991999999999999999999MA1102205101905REMMET09003/16/22 17:56:02 METAR KMJX 162256Z 12005KT 10SM CLR 12/06 A3018 RMK AO2 SLP225 T01170056
0232720407004622022031623567+39928-074292FM-15+0025KMJX V0201605N001552200059N0160935N5+00895+00445102305ADDGA1005+999999999GD10991+9999999GF100991999999999999999999KA1060M+01891KA2060N+00891MA1102275101975MD1390089+9999REMMET10803/16/22 18:56:02 METAR KMJX 162356Z 16003KT 10SM CLR 09/04 A3020 RMK AO2 SLP230 T00890044 10189 20089 53008
0174720407004622022031700567+39928-074292FM-15+0025KMJX V0209999C000052200059N0160935N5+00615+00335102275ADDGA1005+999999999GD10991+9999999GF100991999999999999999999MA1102245101935REMMET09003/16/22 19:56:01 METAR KMJX 170056Z 00000KT 10SM CLR 06/03 A3019 RMK AO2 SLP227 T00610033
0194720407004622022031702567+39928-074292FM-15+0025KMJX V0209999C000052200059N0160935N5+00335+00115102235ADDGA1005+999999999GD10991+9999999GF100991999999999999999999MA1102205101905MD1890069+9999REMMET09603/16/22 21:56:01 METAR KMJX 170256Z 00000KT 10SM CLR 03/01 A3018 RMK AO2 SLP223 T00330011 58006
0218720407004622022031704567+39928-074292FM-15+0025KMJX V0209999C000052200059N0160935N5+00115-00065102135ADDGA1005+999999999GD10991+9999999GF100991999999999999999999KA1240M+01941KA2240N+00001MA1102105101805REMMET10803/16/22 23:56:01 METAR KMJX 170456Z 00000KT 10SM CLR 01/M01 A3015 RMK AO2 SLP213 T00111006 401940000 FZRANO
0239720407004622022031705567+39928-074292FM-15+0025KMJX V0209999C000052200059N0160935N5+00225+00005102095ADDGA1005+999999999GD10991+9999999GF100991999999999999999999KA1060M+00891KA2060N+00111MA1102075101765MD1690149+9999REMMET11503/17/22 00:56:01 METAR KMJX 170556Z 00000KT 10SM CLR 02/00 A3014 RMK AO2 SLP209 T00220000 10089 20011 56014 FZRANO
0199720407004622022031706567+39928-074292FM-15+0025KMJX V0209999C00005028965MN0160935N5+00335+00225102015ADDGA1085+028965999GD14991+0289659GE19AGL   +99999+99999GF199999999999028961999999MA1101965101665REMMET09303/17/22 01:56:01 METAR KMJX 170656Z 00000KT 10SM OVC095 03/02 A3011 RMK AO2 SLP201 T00330022
0249720407004622022031709567+39928-074292FM-15+0025KMJX V0200305N00155016765MN0160935N5+00785+00675101825ADDAA101000021AU110020015AW1615GA1085+016765999GD14991+0167659GE19AGL   +99999+99999GF199999999999016761999999MA1101795101495MW1615REMMET10903/17/22 04:56:01 METAR KMJX 170956Z 03003KT 10SM -RA OVC055 08/07 A3006 RMK AO2 RAB43 SLP182 P0000 T00780067
0273720407004622022031710567+39928-074292FM-15+0025KMJX V0200305N00365011585MN0096565N5+00835+00785101805ADDAA101000021AU110020015AU200001015AW1105AW2615GA1085+011585999GD14991+0115859GE19AGL   +99999+99999GF199999999999011581999999MA1101765101465MW1615REMMET11603/17/22 05:56:01 METAR KMJX 171056Z 03007KT 6SM -RA BR OVC038 08/08 A3005 RMK AO2 RAE0958B35 SLP180 P0000 T00830078
0334720407004622022031711547+39928-074292FM-15+0025KMJX V0200305N00215005495MN0040235N5+00905+00905999999ADDAA101000021AU110020015AU200001015AW1105AW2615GA1045+001225999GA2075+005495999GA3085+014025999GD12991+0012259GD23991+0054959GD34991+0140259GE19AGL   +99999+99999GF199999999999001221999999MA1101795101495MW1615REMMET11503/17/22 06:54:01 METAR KMJX 171154Z 03004KT 2 1/2SM -RA BR SCT004 BKN018 OVC046 09/09 A3006 RMK AO2 RAE07B30 P0000
0477720407004622022031711567+39928-074292FM-15+0025KMJX V0200205N00215005495MN0040235N5+00945+00895101825ADDAA101000021AA206000021AU110020015AU200001015AW1105AW2615GA1045+001225999GA2075+005495999GA3085+014025999GD12991+0012259GD23991+0054959GD34991+0140259GE19AGL   +99999+99999GF199999999999001221999999KA1060M+00941KA2060N+00171MA1101795101495MD1390009+9999MW1615REMMET15603/17/22 06:56:01 METAR KMJX 171156Z 02004KT 2 1/2SM -RA BR SCT004 BKN018 OVC046 09/09 A3006 RMK AO2 RAE07B30 SLP182 P0000 60000 T00940089 10094 20017 53000EQDQ013     3APCTENQ020     3APC3  Q03  00008PRCP06
0241720407004622022031712567+39928-074292FM-15+0025KMJX V0200305N00265001225MN0032195N5+01005+00945101805ADDAA101000395AU100001015AW1105GA1085+001225999GD14991+0012259GE19AGL   +99999+99999GF199999999999001221999999MA1101765101465REMMET10703/17/22 07:56:01 METAR KMJX 171256Z 03005KT 2SM BR OVC004 10/09 A3005 RMK AO2 RAE43 SLP180 P0001 T01000094
0255720407004622022031713307+39928-074292FM-15+0025KMJX V0200305N00265000615MN0028165N5+01005+00905999999ADDAA101000021AU110020015AU200001015AW1105AW2615GA1085+000615999GD14991+0006159GE19AGL   +99999+99999GF199999999999000611999999MA1101735101435MW1615REMMET09803/17/22 08:30:01 METAR KMJX 171330Z 03005KT 1 3/4SM -RA BR OVC002 10/09 A3004 RMK AO2 RAB13 P0000
0251720407004622022031713527+39928-074292FM-15+0025KMJX V0200405N00365000615MN0032195N5+01105+01005999999ADDAA101000021AU110020015AU200001015AW1105AW2615GA1085+000615999GD14991+0006159GE19AGL   +99999+99999GF199999999999000611999999MA1101695101395MW1615REMMET09403/17/22 08:52:01 METAR KMJX 171352Z 04007KT 2SM -RA BR OVC002 11/10 A3003 RMK AO2 RAB13 P0000
0224720407004622022031714167+39928-074292FM-15+0025KMJX V0200405N00365000615MN0032195N5+01105+01105999999ADDAA101000021AU100001015AW1105GA1085+000615999GD14991+0006159GE19AGL   +99999+99999GF199999999999000611999999MA1101695101395REMMET09003/17/22 09:16:01 METAR KMJX 171416Z 04007KT 2SM BR OVC002 11/11 A3003 RMK AO2 RAE05 P0000
0297720407004622022031714567+39928-074292FM-15+0025KMJX V0200305N00315000615MN0048285N5+01175+01175101705ADDAA101000021AA203000391AU100001015AW1105GA1085+000615999GD14991+0006159GE19AGL   +99999+99999GF199999999999000611999999MA1101665101365MD1690109+9999REMMET11903/17/22 09:56:01 METAR KMJX 171456Z 03006KT 3SM BR OVC002 12/12 A3002 RMK AO2 RAE05 SLP170 P0000 60001 T01170117 56010EQDQ01  00028PRCP03
0274720407004622022031715567+39928-074292FM-15+0025KMJX V0200505N00465001225MN0048285N5+01225+01175101645ADDAA101000395AU110020015AU200001015AW1105AW2615GA1085+001225999GD14991+0012259GE19AGL   +99999+99999GF199999999999001221999999MA1101635101325MW1615REMMET11703/17/22 10:56:01 METAR KMJX 171556Z 05009KT 3SM -RA BR OVC004 12/12 A3001 RMK AO2 RAB00E29B56 SLP164 P0001 T01220117
0249720407004622022031716397+39928-074292FM-15+0025KMJX V0200505N00465001225MN0040235N5+01205+01105999999ADDAA101000021AU110020015AU200001015AW1105AW2615GA1085+001225999GD14991+0012259GE19AGL   +99999+99999GF199999999999001221999999MA1101525101225MW1615REMMET09203/17/22 11:39:02 METAR KMJX 171639Z 05009KT 2 1/2SM -RA BR OVC004 12/11 A2998 RMK AO2 P0000
0245720407004622022031716567+39928-074292FM-15+0025KMJX V0200205N00515001225MN0040235N5+01115+01115101555ADDAA101000021AU100001015AW1105GA1085+001225999GD14991+0012259GE19AGL   +99999+99999GF199999999999001221999999MA1101525101225REMMET11103/17/22 11:56:02 METAR KMJX 171656Z 02010KT 2 1/2SM BR OVC004 11/11 A2998 RMK AO2 RAE55 SLP155 P0000 T01110111
0201720407004622022031717237+39928-074292FM-15+0025KMJX V0200305N00365001225MN0048285N5+01205+01105999999ADDAU100001015AW1105GA1085+001225999GD14991+0012259GE19AGL   +99999+99999GF199999999999001221999999MA1101465101165REMMET07803/17/22 12:23:02 METAR KMJX 171723Z 03007KT 3SM BR OVC004 12/11 A2996 RMK AO2
0362720407004622022031717567+39928-074292FM-15+0025KMJX V0200305N00365001225MN0064375N5+01175+01115101445ADDAA101000021AA206000591AU110020015AU200001015AW1105AW2615GA1085+001225999GD14991+0012259GE19AGL   +99999+99999GF199999999999001221999999KA1060M+01221KA2060N+00941MA1101425101125MD1890269+9999MW1615REMMET13503/17/22 12:56:02 METAR KMJX 171756Z 03007KT 4SM -RA BR OVC004 12/11 A2995 RMK AO2 RAB48 SLP144 P0000 60002 T01170111 10122 20094 58026EQDQ01  00058PRCP06
0241720407004622022031718567+39928-074292FM-15+0025KMJX V0200405N00315001225MN0064375N5+01225+01175101305ADDAA101000021AU100001015AW1105GA1085+001225999GD14991+0012259GE19AGL   +99999+99999GF199999999999001221999999MA1101295100995REMMET10703/17/22 13:56:02 METAR KMJX 171856Z 04006KT 4SM BR OVC004 12/12 A2991 RMK AO2 RAE36 SLP130 P0000 T01220117
0251720407004622022031719367+39928-074292FM-15+0025KMJX V0200205N00465001225MN0064375N5+01205+01205999999ADDAA101000021AU110020015AU200001015AW1105AW2615GA1085+001225999GD14991+0012259GE19AGL   +99999+99999GF199999999999001221999999MA1101225100925MW1615REMMET09403/17/22 14:36:02 METAR KMJX 171936Z 02009KT 4SM -RA BR OVC004 12/12 A2989 RMK AO2 RAB12 P0000
0268720407004622022031719567+39928-074292FM-15+0025KMJX V0200205N00365001225MN0080475N5+01225+01225101205ADDAA101000395AU110020015AU200001015AW1105AW2615GA1085+001225999GD14991+0012259GE19AGL   +99999+99999GF199999999999001221999999MA1101195100895MW1615REMMET11103/17/22 14:56:02 METAR KMJX 171956Z 02007KT 5SM -RA BR OVC004 12/12 A2988 RMK AO2 RAB12 SLP120 P0001 T01220122
0205720407004622022031721297+39928-074292FM-15+0025KMJX V0200105N00415001225MN0040235N5+01205+01205999999ADDAU100001015AW1105GA1085+001225999GD14991+0012259GE19AGL   +99999+99999GF199999999999001221999999MA1101125100825REMMET08203/17/22 16:29:02 METAR KMJX 172129Z 01008KT 2 1/2SM BR OVC004 12/12 A2986 RMK AO2
0231720407004622022031722407+39928-074292FM-15+0025KMJX V0200305N00415001225MN0028165N5+01205+01205999999ADDAA101000021AU100001015AW1105GA1085+001225999GD14991+0012259GE19AGL   +99999+99999GF199999999999001221999999MA1101225100925REMMET09703/17/22 17:40:02 METAR KMJX 172240Z 03008KT 1 3/4SM BR OVC004 12/12 A2989 RMK AO2 RAB02E32 P0000
0247720407004622022031723067+39928-074292FM-15+0025KMJX V0203505N00465000615MN0012075N5+01205+01205999999ADDAA101000021AU110020015AU200001015AW1105AW2615GA1085+000615999GD14991+0006159GE19AGL   +99999+99999GF199999999999000611999999MA1101225100925MW1615REMMET09003/17/22 18:06:02 METAR KMJX 172306Z 35009KT 3/4SM -RA BR OVC002 12/12 A2989 RMK AO2 P0000
0249720407004622022031723377+39928-074292FM-15+0025KMJX V0203505N00315000615MN0040235N5+01205+01105999999ADDAA101000395AU110020015AU200001015AW1105AW2615GA1085+000615999GD14991+0006159GE19AGL   +99999+99999GF199999999999000611999999MA1101255100955MW1615REMMET09203/17/22 18:37:02 METAR KMJX 172337Z 35006KT 2 1/2SM -RA BR OVC002 12/11 A2990 RMK AO2 P0001
0360720407004622022031723567+39928-074292FM-15+0025KMJX V0203405N00465000615MN0040235N5+01175+01115101315ADDAA101000395AA206000591AU110020015AU200001015AW1105AW2615GA1085+000615999GD14991+0006159GE19AGL   +99999+99999GF199999999999000611999999KA1060M+01281KA2060N+01171MA1101295100995MD1190149+9999MW1615REMMET13303/17/22 18:56:02 METAR KMJX 172356Z 34009KT 2 1/2SM -RA BR OVC002 12/11 A2991 RMK AO2 SLP131 P0001 60002 T01170111 10128 20117 51014EQDQ01  00058PRCP06
0245720407004622022031800277+39928-074292FM-15+0025KMJX V0203505N00365001225MN0048285N5+01105+01105999999ADDAA101000895AU110020015AU200001015AW1105AW2615GA1085+001225999GD14991+0012259GE19AGL   +99999+99999GF199999999999001221999999MA1101295100995MW1615REMMET08803/17/22 19:27:01 METAR KMJX 180027Z 35007KT 3SM -RA BR OVC004 11/11 A2991 RMK AO2 P0003
0241720407004622022031800567+39928-074292FM-15+0025KMJX V0203505N00365001225MN0096565N5+01175+01115101335ADDAA101000895AU100001015AW1105GA1085+001225999GD14991+0012259GE19AGL   +99999+99999GF199999999999001221999999MA1101295100995REMMET10703/17/22 19:56:01 METAR KMJX 180056Z 35007KT 6SM BR OVC004 12/11 A2991 RMK AO2 RAE55 SLP133 P0003 T01170111
0223720407004622022031801567+39928-074292FM-15+0025KMJX V0203605N00265001225MN0048285N5+01175+01115101365ADDAU100001015AW1105GA1085+001225999GD14991+0012259GE19AGL   +99999+99999GF199999999999001221999999MA1101325101025REMMET10003/17/22 20:56:01 METAR KMJX 180156Z 36005KT 3SM BR OVC004 12/11 A2992 RMK AO2 SLP136 T01170111 TSNO
0201720407004622022031802277+39928-074292FM-15+0025KMJX V0200105N00265001225MN0048285N5+01205+01105999999ADDAU100001015AW1105GA1085+001225999GD14991+0012259GE19AGL   +99999+99999GF199999999999001221999999MA1101325101025REMMET07803/17/22 21:27:01 METAR KMJX 180227Z 01005KT 3SM BR OVC004 12/11 A2992 RMK AO2
0274720407004622022031802567+39928-074292FM-15+0025KMJX V0200105N00215001225MN0048285N5+01175+01115101375ADDAA103000891AU100001015AW1105GA1085+001225999GD14991+0012259GE19AGL   +99999+99999GF199999999999001221999999MA1101355101055MD1190069+9999REMMET10703/17/22 21:56:02 METAR KMJX 180256Z 01004KT 3SM BR OVC004 12/11 A2993 RMK AO2 SLP137 60003 T01170111 51006EQDQ01  00078PRCP03
0258720407004622022031804567+39928-074292FM-15+0025KMJX V0203105N00265001225MN0040235N5+01175+01115101365ADDAU100001015AW1105GA1085+001225999GD14991+0012259GE19AGL   +99999+99999GF199999999999001221999999KA1240M+01281KA2240N+00111MA1101325101025REMMET10903/17/22 23:56:02 METAR KMJX 180456Z 31005KT 2 1/2SM BR OVC004 12/11 A2992 RMK AO2 SLP136 T01170111 401280011
002772040700462202203180459O+39928-074292SOD  +0025KMJX V020999999999999999999999999999+99999+99999999999ADDAT1AU16RA  5AT2AU13BR  5
0205720407004622022031805227+39928-074292FM-15+0025KMJX V0202705N00155000615MN0028165N5+01205+01105999999ADDAU100001015AW1105GA1085+000615999GD14991+0006159GE19AGL   +99999+99999GF199999999999000611999999MA1101325101025REMMET08203/18/22 00:22:02 METAR KMJX 180522Z 27003KT 1 3/4SM BR OVC002 12/11 A2992 RMK AO2
0312720407004622022031805567+39928-074292FM-15+0025KMJX V0202905N00315000615MN0016095N5+01175+01115101395ADDAA106000891AU100001015AW1105GA1085+000615999GD14991+0006159GE19AGL   +99999+99999GF199999999999000611999999KA1060M+01171KA2060N+01111MA1101355101055MD1390029+9999REMMET11903/18/22 00:56:02 METAR KMJX 180556Z 29006KT 1SM BR OVC002 12/11 A2993 RMK AO2 SLP139 60003 T01170111 10117 20111 53002EQDQ01  00078PRCP06
0203720407004622022031806067+39928-074292FM-15+0025KMJX V0202905N00415000615MN0012075N5+01205+01105999999ADDAU100001015AW1105GA1085+000615999GD14991+0006159GE19AGL   +99999+99999GF199999999999000611999999MA1101355101055REMMET08003/18/22 01:06:02 METAR KMJX 180606Z 29008KT 3/4SM BR OVC002 12/11 A2993 RMK AO2
0203720407004622022031806167+39928-074292FM-15+0025KMJX V0203005N00315000615MN0008055N5+01205+01105999999ADDAU100002015AW1305GA1085+000615999GD14991+0006159GE19AGL   +99999+99999GF199999999999000611999999MA1101355101055REMMET08003/18/22 01:16:02 METAR KMJX 180616Z 30006KT 1/2SM FG OVC002 12/11 A2993 RMK AO2
0220720407004622022031806567+39928-074292FM-15+0025KMJX V0203105N00315000615MN0008055N5+01175+01115101435ADDAU100002015AW1305GA1085+000615999GD14991+0006159GE19AGL   +99999+99999GF199999999999000611999999MA1101395101095REMMET09703/18/22 01:56:02 METAR KMJX 180656Z 31006KT 1/2SM FG OVC002 12/11 A2994 RMK AO2 SLP143 T01170111
0220720407004622022031807567+39928-074292FM-15+0025KMJX V0203005N00415000615MN0008055N5+01115+01115101475ADDAU100002015AW1305GA1085+000615999GD14991+0006159GE19AGL   +99999+99999GF199999999999000611999999MA1101425101125REMMET09703/18/22 02:56:02 METAR KMJX 180756Z 30008KT 1/2SM FG OVC002 11/11 A2995 RMK AO2 SLP147 T01110111
0201720407004622022031808067+39928-074292FM-15+0025KMJX V0203005N00365000615MN0016095N5+01105+01105999999ADDAU100001015AW1105GA1085+000615999GD14991+0006159GE19AGL   +99999+99999GF199999999999000611999999MA1101465101165REMMET07803/18/22 03:06:02 METAR KMJX 180806Z 30007KT 1SM BR OVC002 11/11 A2996 RMK AO2
0203720407004622022031808217+39928-074292FM-15+0025KMJX V0202705N00315000615MN0012075N5+01105+01105999999ADDAU100001015AW1105GA1085+000615999GD14991+0006159GE19AGL   +99999+99999GF199999999999000611999999MA1101465101165REMMET08003/18/22 03:21:02 METAR KMJX 180821Z 27006KT 3/4SM BR OVC002 11/11 A2996 RMK AO2
0240720407004622022031808567+39928-074292FM-15+0025KMJX V0202805N00265000615MN0012075N5+01115+01115101525ADDAU100001015AW1105GA1085+000615999GD14991+0006159GE19AGL   +99999+99999GF199999999999000611999999MA1101495101195MD1390139+9999REMMET10303/18/22 03:56:01 METAR KMJX 180856Z 28005KT 3/4SM BR OVC002 11/11 A2997 RMK AO2 SLP152 T01110111 53013
0201720407004622022031809377+39928-074292FM-15+0025KMJX V0202805N00315000615MN0016095N5+01105+01105999999ADDAU100001015AW1105GA1085+000615999GD14991+0006159GE19AGL   +99999+99999GF199999999999000611999999MA1101525101225REMMET07803/18/22 04:37:02 METAR KMJX 180937Z 28006KT 1SM BR OVC002 11/11 A2998 RMK AO2
0203720407004622022031809477+39928-074292FM-15+0025KMJX V0202905N00365000615MN0012075N5+01105+01105999999ADDAU100001015AW1105GA1085+000615999GD14991+0006159GE19AGL   +99999+99999GF199999999999000611999999MA1101525101225REMMET08003/18/22 04:47:02 METAR KMJX 180947Z 29007KT 3/4SM BR OVC002 11/11 A2998 RMK AO2
0220720407004622022031809567+39928-074292FM-15+0025KMJX V0202805N00315000615MN0012075N5+01115+01115101565ADDAU100001015AW1105GA1085+000615999GD14991+0006159GE19AGL   +99999+99999GF199999999999000611999999MA1101525101225REMMET09703/18/22 04:56:02 METAR KMJX 180956Z 28006KT 3/4SM BR OVC002 11/11 A2998 RMK AO2 SLP156 T01110111
0218720407004622022031810567+39928-074292FM-15+0025KMJX V0202805N00365000615MN0016095N5+01115+01115101615ADDAU100001015AW1105GA1085+000615999GD14991+0006159GE19AGL   +99999+99999GF199999999999000611999999MA1101595101295REMMET09503/18/22 05:56:02 METAR KMJX 181056Z 28007KT 1SM BR OVC002 11/11 A3000 RMK AO2 SLP161 T01110111
0203720407004622022031811077+39928-074292FM-15+0025KMJX V0202805N00265000615MN0008055N5+01105+01105999999ADDAU100002015AW1305GA1085+000615999GD14991+0006159GE19AGL   +99999+99999GF199999999999000611999999MA1101595101295REMMET08003/18/22 06:07:02 METAR KMJX 181107Z 28005KT 1/2SM FG OVC002 11/11 A3000 RMK AO2
0203720407004622022031812417+39928-074292FM-15+0025KMJX V0202605N00265000615MN0004025N5+01205+01205999999ADDAU100002015AW1305GA1085+000615999GD14991+0006159GE19AGL   +99999+99999GF199999999999000611999999MA1101695101395REMMET08003/18/22 07:41:02 METAR KMJX 181241Z 26005KT 1/4SM FG OVC002 12/12 A3003 RMK AO2
0220720407004622022031812567+39928-074292FM-15+0025KMJX V0202905N00315000615MN0012075N5+01175+01175101735ADDAU100001015AW1105GA1085+000615999GD14991+0006159GE19AGL   +99999+99999GF199999999999000611999999MA1101695101395REMMET09703/18/22 07:56:02 METAR KMJX 181256Z 29006KT 3/4SM BR OVC002 12/12 A3003 RMK AO2 SLP173 T01170117
0205720407004622022031813147+39928-074292FM-15+0025KMJX V0202605N00265000615MN0020125N5+01205+01205999999ADDAU100001015AW1105GA1085+000615999GD14991+0006159GE19AGL   +99999+99999GF199999999999000611999999MA1101695101395REMMET08203/18/22 08:14:02 METAR KMJX 181314Z 26005KT 1 1/4SM BR OVC002 12/12 A3003 RMK AO2
0201720407004622022031814097+39928-074292FM-15+0025KMJX V0202605N00365001225MN0080475N5+01305+01305999999ADDAU100001015AW1105GA1085+001225999GD14991+0012259GE19AGL   +99999+99999GF199999999999001221999999MA1101835101535REMMET07803/18/22 09:09:02 METAR KMJX 181409Z 26007KT 5SM BR OVC004 13/13 A3007 RMK AO2
0200720407004622022031814447+39928-074292FM-15+0025KMJX V0202505N002652200059N0128755N5+01505+01305999999ADDGA1045+001835999GD12991+0018359GE19AGL   +99999+99999GF104995999999001831999999MA1101835101535REMMET07503/18/22 09:44:02 METAR KMJX 181444Z 25005KT 8SM SCT006 15/13 A3007 RMK AO2EQDD01      0ADE726
0174720407004622022031815567+39928-074292FM-15+0025KMJX V0202405N003652200059N0160935N5+01945+01285101795ADDGA1005+999999999GD10991+9999999GF100991999999999999999999MA1101765101465REMMET09003/18/22 10:56:02 METAR KMJX 181556Z 24007KT 10SM CLR 19/13 A3005 RMK AO2 SLP179 T01940128
0174720407004622022031816567+39928-074292FM-15+0025KMJX V0202905N002652200059N0160935N5+02175+01285101755ADDGA1005+999999999GD10991+9999999GF100991999999999999999999MA1101735101435REMMET09003/18/22 11:56:02 METAR KMJX 181656Z 29005KT 10SM CLR 22/13 A3004 RMK AO2 SLP175 T02170128
0243720407004622022031817567+39928-074292FM-15+0025KMJX V0202105N003652200059N0160935N5+02285+01115101695ADDGA1005+999999999GD10991+9999999GF100991999999999999999999KA1060M+02331KA2060N+01111MA1101665101365MD1890159+9999OC100725REMMET11103/18/22 12:56:02 METAR KMJX 181756Z 21007G14KT 10SM CLR 23/11 A3002 RMK AO2 SLP169 T02280111 10233 20111 58015
0199720407004622022031819567+39928-074292FM-15+0025KMJX V0202205N00515018295MN0160935N5+02395+01005101575ADDGA1075+018295999GD13991+0182959GE19AGL   +99999+99999GF199999999999018291999999MA1101525101225REMMET09303/18/22 14:56:02 METAR KMJX 181956Z 22010KT 10SM BKN060 24/10 A2998 RMK AO2 SLP157 T02390100
0257720407004622022031820567+39928-074292FM-15+0025KMJX V0201705N00515021345MN0160935N5+02225+01225101585ADDGA1025+015245999GA2075+021345999GD11991+0152459GD23991+0213459GE19AGL   +99999+99999GF199999999999015241999999MA1101565101265MD1590109+9999REMMET10603/18/22 15:56:02 METAR KMJX 182056Z 17010KT 10SM FEW050 BKN070 22/12 A2999 RMK AO2 SLP158 T02220122 55010
0174720407004622022031821567+39928-074292FM-15+0025KMJX V0201605N005752200059N0160935N5+01945+01065101605ADDGA1005+999999999GD10991+9999999GF100991999999999999999999MA1101565101265REMMET09003/18/22 16:56:02 METAR KMJX 182156Z 16011KT 10SM CLR 19/11 A2999 RMK AO2 SLP160 T01940106
0174720407004622022031822567+39928-074292FM-15+0025KMJX V0201805N003652200059N0160935N5+01615+01175101675ADDGA1005+999999999GD10991+9999999GF100991999999999999999999MA1101635101325REMMET09003/18/22 17:56:02 METAR KMJX 182256Z 18007KT 10SM CLR 16/12 A3001 RMK AO2 SLP167 T01610117
0232720407004622022031823567+39928-074292FM-15+0025KMJX V0201805N003152200059N0160935N5+01445+01115101705ADDGA1005+999999999GD10991+9999999GF100991999999999999999999KA1060M+02391KA2060N+01441MA1101665101365MD1390129+9999REMMET10803/18/22 18:56:02 METAR KMJX 182356Z 18006KT 10SM CLR 14/11 A3002 RMK AO2 SLP170 T01440111 10239 20144 53012
0174720407004622022031901567+39928-074292FM-15+0025KMJX V0201705N004652200059N0160935N5+01175+01065101635ADDGA1005+999999999GD10991+9999999GF100991999999999999999999MA1101595101295REMMET09003/18/22 20:56:01 METAR KMJX 190156Z 17009KT 10SM CLR 12/11 A3000 RMK AO2 SLP163 T01170106
0238720407004622022031902567+39928-074292FM-15+0025KMJX V0201505N004152200059N0160935N5+01065+01005101475ADDGA1025+001525999GD11991+0015259GE19AGL   +99999+99999GF102995999999001521999999MA1101425101125MD1890239+9999REMMET09903/18/22 21:56:01 METAR KMJX 190256Z 15008KT 10SM FEW005 11/10 A2995 RMK AO2 SLP147 T01060100 58023EQDD01      0ADE726
0199720407004622022031903567+39928-074292FM-15+0025KMJX V0201705N00415001525MN0160935N5+01065+01005101635ADDGA1085+001525999GD14991+0015259GE19AGL   +99999+99999GF199999999999001521999999MA1101595101295REMMET09303/18/22 22:56:02 METAR KMJX 190356Z 17008KT 10SM OVC005 11/10 A3000 RMK AO2 SLP163 T01060100
0235720407004622022031904567+39928-074292FM-15+0025KMJX V0201805N00265001525MN0160935N5+01065+01005101605ADDGA1085+001525999GD14991+0015259GE19AGL   +99999+99999GF199999999999001521999999KA1240M+02391KA2240N+01001MA1101565101265REMMET10303/18/22 23:56:02 METAR KMJX 190456Z 18005KT 10SM OVC005 11/10 A2999 RMK AO2 SLP160 T01060100 402390100
002772040700462202203190459O+39928-074292SOD  +0025KMJX V020999999999999999999999999999+99999+99999999999ADDAT1AU01FG  5AT2AU13BR  5
0182720407004622022031905167+39928-074292FM-15+0025KMJX V0201705N00365000915MN0160935N5+01105+01105999999ADDGA1085+000915999GD14991+0009159GE19AGL   +99999+99999GF199999999999000911999999MA1101525101225REMMET07603/19/22 00:16:02 METAR KMJX 190516Z 17007KT 10SM OVC003 11/11 A2998 RMK AO2
0257720407004622022031905567+39928-074292FM-15+0025KMJX V0201605N00365000915MN0160935N5+01175+01115101505ADDGA1085+000915999GD14991+0009159GE19AGL   +99999+99999GF199999999999000911999999KA1060M+01441KA2060N+01001MA1101465101165MD1090039+9999REMMET11103/19/22 00:56:02 METAR KMJX 190556Z 16007KT 10SM OVC003 12/11 A2996 RMK AO2 SLP150 T01170111 10144 20100 50003
0199720407004622022031907567+39928-074292FM-15+0025KMJX V0201705N00415000915MN0160935N5+01225+01175101365ADDGA1085+000915999GD14991+0009159GE19AGL   +99999+99999GF199999999999000911999999MA1101325101025REMMET09303/19/22 02:56:02 METAR KMJX 190756Z 17008KT 10SM OVC003 12/12 A2992 RMK AO2 SLP136 T01220117
0232720407004622022031908367+39928-074292FM-15+0025KMJX V0201705N00365001525MN0160935N5+01205+01105999999ADDGA1075+001525999GA2085+025915999GD13991+0015251GD24991+0259159GE19AGL   +99999+99999GF199999999999001521999999MA1101295100995REMMET09503/19/22 03:36:02 METAR KMJX 190836Z 17007KT 10SM BKN005 OVC085 12/11 A2991 RMK AO2 CIG 003V008
0257720407004622022031908567+39928-074292FM-15+0025KMJX V0201705N00315025915MN0160935N5+01225+01175101305ADDGA1045+001525999GA2085+025915999GD12991+0015259GD24991+0259159GE19AGL   +99999+99999GF199999999999001521999999MA1101255100955MD1690209+9999REMMET10603/19/22 03:56:02 METAR KMJX 190856Z 17006KT 10SM SCT005 OVC085 12/12 A2990 RMK AO2 SLP130 T01220117 56020
0256720407004622022031910567+39928-074292FM-15+0025KMJX V0201805N003652200059N0160935N5+01285+01175101225ADDGA1025+021345999GA2045+025915999GD11991+0213459GD22991+0259159GE19AGL   +99999+99999GF104995999999021341999999MA1101195100895REMMET10003/19/22 05:56:02 METAR KMJX 191056Z 18007KT 10SM FEW070 SCT085 13/12 A2988 RMK AO2 SLP122 T01280117EQDD01      0ADE726
0198720407004622022031913567+39928-074292FM-15+0025KMJX V0202005N00465003055MN0160935N5+01725+01395999999ADDGA1075+003055999GD13991+0030559GE19AGL   +99999+99999GF199999999999003051999999MA1101155100855REMMET09203/19/22 08:56:02 METAR KMJX 191356Z 20009KT 10SM BKN010 17/14 A2987 RMK AO2 SLPNO T01720139
0223720407004622022031914567+39928-074292FM-15+0025KMJX V0202105N005752200059N0160935N5+02065+01395999999ADDGA1045+006405999GD12991+0064059GE19AGL   +99999+99999GF104995999999006401999999MA1101085100785REMMET09803/19/22 09:56:02 METAR KMJX 191456Z 21011KT 10SM SCT021 21/14 A2985 RMK AO2 SLPNO 6//// T02060139EQDD01      0ADE726
0217720407004622022031915567+39928-074292FM-15+0025KMJX V0202305N004652200059N0160935N5+02225+01395999999ADDGA1045+009755999GD12991+0097559GE19AGL   +99999+99999GF104995999999009751999999MA1100985100685REMMET09203/19/22 10:56:02 METAR KMJX 191556Z 23009KT 10SM SCT032 22/14 A2982 RMK AO2 SLPNO T02220139EQDD01      0ADE726
0210720407004622022031917567+39928-074292FM-15+0025KMJX V0202005N005152200059N0160935N5+02445+01395999999ADDGA1005+999999999GD10991+9999999GF100991999999999999999999MA1100785100485MD1890309+9999OC100935REMMET10403/19/22 12:56:02 METAR KMJX 191756Z 20010G18KT 10SM CLR 24/14 A2976 RMK AO2 SLPNO 6//// T02440139 58030
0228720407004622022031918567+39928-074292FM-15+0025KMJX V0201805N005152200059N0160935N5+02395+01505999999ADDGA1025+025915999GD11991+0259159GE19AGL   +99999+99999GF102995999999025911999999MA1100685100385OC100775REMMET09503/19/22 13:56:02 METAR KMJX 191856Z 18010G15KT 10SM FEW085 24/15 A2973 RMK AO2 SLPNO T02390150EQDD01      0ADE726
0184720407004622022031919567+39928-074292FM-15+0025KMJX V0201705N006252200059N0160935N5+02335+01505999999ADDGA1005+999999999GD10991+9999999GF100991999999999999999999MA1100615100315OC100935REMMET09203/19/22 14:56:02 METAR KMJX 191956Z 17012G18KT 10SM CLR 23/15 A2971 RMK AO2 SLPNO T02330150
0256720407004622022031920567+39928-074292FM-15+0025KMJX V0202105N00675012805MN0160935N5+02335+01505999999ADDGA1075+012805999GA2075+018295999GD13991+0128059GD23991+0182959GE19AGL   +99999+99999GF199999999999012801999999MA1100585100285MD1690229+9999REMMET10503/19/22 15:56:02 METAR KMJX 192056Z 21013KT 10SM BKN042 BKN060 23/15 A2970 RMK AO2 SLPNO T02330150 56022
0247720407004622022031921567+39928-074292FM-15+0025KMJX V0202205N00675016765MN0160935N5+02225+01395999999ADDGA1025+014335999GA2075+016765999GD11991+0143359GD23991+0167659GE19AGL   +99999+99999GF199999999999014331999999MA1100515100215OC101185REMMET10203/19/22 16:56:02 METAR KMJX 192156Z 22013G23KT 10SM FEW047 BKN055 22/14 A2968 RMK AO2 SLPNO T02220139
0173720407004622022031922567+39928-074292FM-15+0025KMJX V0201705N005152200059N0160935N5+01945+01395999999ADDGA1005+999999999GD10991+9999999GF100991999999999999999999MA1100475100185REMMET08903/19/22 17:56:02 METAR KMJX 192256Z 17010KT 10SM CLR 19/14 A2967 RMK AO2 SLPNO T01940139
0231720407004622022031923567+39928-074292FM-15+0025KMJX V0202005N004152200059N0160935N5+01675+01285999999ADDGA1005+999999999GD10991+9999999GF100991999999999999999999KA1060M+02501KA2060N+01671MA1100545100245MD1590029+9999REMMET10703/19/22 18:56:02 METAR KMJX 192356Z 20008KT 10SM CLR 17/13 A2969 RMK AO2 SLPNO T01670128 10250 20167 55002
0198720407004622022032001567+39928-074292FM-15+0025KMJX V0202005N00365033535MN0160935N5+01445+01175999999ADDGA1075+033535999GD13991+0335359GE19AGL   +99999+99999GF199999999999033531999999MA1100585100285REMMET09203/19/22 20:56:01 METAR KMJX 200156Z 20007KT 10SM BKN110 14/12 A2970 RMK AO2 SLPNO T01440117
0382720407004622022032002127+39928-074292FM-15+0025KMJX V0202905N00465025915MN0160935N5+01505+01305999999ADDAA101000021AU110020015AU200000215AW1185AW2615GA1025+004885999GA2075+025915999GA3085+033535999GD11991+0048859GD23991+0259159GD34991+0335359GE19AGL   +99999+99999GF199999999999004881999999MA1100755100455MW1615OC101395OD149901391290REMMET14103/19/22 21:12:01 METAR KMJX 200212Z 29009G27KT 10SM -RA SQ FEW016 BKN085 OVC110 15/13 A2975 RMK AO2 PK WND 29027/0204 LTG DSNT N RAB07 P0000
0330720407004622022032002407+39928-074292FM-15+0025KMJX V0209999C000052200059N0160935N5+01505+01205999999ADDAA101000395AU147000015AW1121GA1025+015245999GA2045+033535999GD11991+0152459GD22991+0335359GE19AGL   +99999+99999GF104995999999015241999999MA1100685100385MV1015OD149901391290REMMET12603/19/22 21:40:01 METAR KMJX 200240Z 00000KT 10SM VCTS FEW050 SCT110 15/12 A2973 RMK AO2 PK WND 29027/0204 TSB34RAB07E21 P0001EQDD01      0ADE726
0199720407004622022032003567+39928-074292FM-15+0025KMJX V0209999C00005016765MN0160935N5+01225+01175100725ADDGA1075+016765999GD13991+0167659GE19AGL   +99999+99999GF199999999999016761999999MA1100685100385REMMET09303/19/22 22:56:02 METAR KMJX 200356Z 00000KT 10SM BKN055 12/12 A2973 RMK AO2 SLP072 T01220117
0290720407004622022032004567+39928-074292FM-15+0025KMJX V0209999C00005016765MN0160935N5+01335+01225100815ADDAA101000021AU110020015AW1615GA1085+016765999GD14991+0167659GE19AGL   +99999+99999GF199999999999016761999999KA1240M+02501KA2240N+01221MA1100785100485MW1615REMMET12403/19/22 23:56:02 METAR KMJX 200456Z 00000KT 10SM -RA OVC055 13/12 A2976 RMK AO2 RAB46 SLP081 P0000 T01330122 402500122 TSNO
002772040700462202203200459O+39928-074292SOD  +0025KMJX V020999999999999999999999999999+99999+99999999999ADDAT1AU03TS  5AT2AU16RA  5
0271720407004622022032008567+39928-074292FM-15+0025KMJX V0203005N00515021345MN0160935N5+01285+00895100905ADDAA103000021GA1085+021345999GD14991+0213459GE19AGL   +99999+99999GF199999999999021341999999MA1100885100585MD1390069+9999REMMET10503/20/22 03:56:02 METAR KMJX 200856Z 30010KT 10SM OVC070 13/09 A2979 RMK AO2 SLP090 60000 T01280089 53006EQDQ01  00002PRCP03Q02  00008PRCP03
0174720407004622022032009567+39928-074292FM-15+0025KMJX V0203005N002152200059N0160935N5+01065+00785100925ADDGA1005+999999999GD10991+9999999GF100991999999999999999999MA1100885100585REMMET09003/20/22 04:56:02 METAR KMJX 200956Z 30004KT 10SM CLR 11/08 A2979 RMK AO2 SLP092 T01060078
0179720407004622022032010567+39928-074292FM-15+0025KMJX V0202705N001552200059N0160935N5+00785+00675100965ADDGA1005+999999999GD10991+9999999GF100991999999999999999999MA1100955100655REMMET09503/20/22 05:56:02 METAR KMJX 201056Z 27003KT 10SM CLR 08/07 A2981 RMK AO2 SLP096 T00780067 TSNO
0243720407004622022032014567+39928-074292FM-15+0025KMJX V0202905N008252200059N0160935N5+01565+00445100975ADDGA1045+012505999GD12991+0125059GE19AGL   +99999+99999GF104995999999012501999999MA1100955100655MD1890079+9999REMMET10403/20/22 09:56:02 METAR KMJX 201456Z 29016KT 10SM SCT041 16/04 A2981 RMK AO2 SLP097 T01560044 58007 TSNOEQDD01      0ADE726
0199720407004622022032015567+39928-074292FM-15+0025KMJX V0202805N00725013725MN0160935N5+01505+00395101015ADDGA1085+013725999GD14991+0137259GE19AGL   +99999+99999GF199999999999013721999999MA1100985100685REMMET09303/20/22 10:56:02 METAR KMJX 201556Z 28014KT 10SM OVC045 15/04 A2982 RMK AO2 SLP101 T01500039
0268720407004622022032017567+39928-074292FM-15+0025KMJX V0203005N00775012805MN0160935N5+01445+00445101015ADDGA1085+012805999GD14991+0128059GE19AGL   +99999+99999GF199999999999012801999999KA1060M+01611KA2060N+00721MA1100985100685MD1090049+9999OC101035REMMET11403/20/22 12:56:02 METAR KMJX 201756Z 30015G20KT 10SM OVC042 14/04 A2982 RMK AO2 SLP101 T01440044 10161 20072 50004
0210720407004622022032019567+39928-074292FM-15+0025KMJX V0202905N00985014635MN0160935N5+01395+00285100935ADDGA1085+014635999GD14991+0146359GE19AGL   +99999+99999GF199999999999014631999999MA1100915100625OC101185REMMET09603/20/22 14:56:02 METAR KMJX 201956Z 29019G23KT 10SM OVC048 14/03 A2980 RMK AO2 SLP093 T01390028
0262720407004622022032020567+39928-074292FM-15+0025KMJX V0202905N00575015245MN0160935N5+01285+00225100965ADDGA1085+015245999GD14991+0152459GE19AGL   +99999+99999GF199999999999015241999999MA1100955100655MD1590059+9999OC101395OD149901391290REMMET12003/20/22 15:56:02 METAR KMJX 202056Z 29011G27KT 10SM OVC050 13/02 A2981 RMK AO2 PK WND 29027/2048 SLP096 T01280022 55005
0261720407004622022032021567+39928-074292FM-15+0025KMJX V0202905N008852200059N0160935N5+01175+00225100985ADDGA1045+028965999GD12991+0289659GE19AGL   +99999+99999GF104995999999028961999999MA1100955100655OC101295OD149901491280REMMET11403/20/22 16:56:02 METAR KMJX 202156Z 29017G25KT 10SM SCT095 12/02 A2981 RMK AO2 PK WND 28029/2113 SLP098 T01170022EQDD01      0ADE726
0229720407004622022032022567+39928-074292FM-15+0025KMJX V0202905N006752200059N0160935N5+01065+00175101035ADDGA1025+030485999GD11991+0304859GE19AGL   +99999+99999GF102995999999030481999999MA1101025100725OC100985REMMET09603/20/22 17:56:02 METAR KMJX 202256Z 29013G19KT 10SM FEW100 11/02 A2983 RMK AO2 SLP103 T01060017EQDD01      0ADE726
0287720407004622022032023567+39928-074292FM-15+0025KMJX V0202905N006752200059N0160935N5+01005+00175101095ADDGA1025+030485999GD11991+0304859GE19AGL   +99999+99999GF102995999999030481999999KA1060M+01441KA2060N+01001MA1101055100755MD1390139+9999OC100935REMMET11403/20/22 18:56:02 METAR KMJX 202356Z 29013G18KT 10SM FEW100 10/02 A2984 RMK AO2 SLP109 T01000017 10144 20100 53013EQDD01      0ADE726
0280720407004622022032100567+39928-074292FM-15+0025KMJX V0203005N00515036585MN0160935N5+01005+00115101185ADDGA1025+014335999GA2085+036585999GD11991+0143359GD24991+0365859GE19AGL   +99999+99999GF199999999999014331999999MA1101155100855OC100935OD149901331290REMMET12103/20/22 19:56:01 METAR KMJX 210056Z 30010G18KT 10SM FEW047 OVC120 10/01 A2987 RMK AO2 PK WND 29026/0040 SLP118 T01000011
0242720407004622022032101567+39928-074292FM-15+0025KMJX V0203105N00675014335MN0160935N5+00945+00175101305ADDGA1085+014335999GD14991+0143359GE19AGL   +99999+99999GF199999999999014331999999MA1101255100955OC101135OD149901391290REMMET11403/20/22 20:56:01 METAR KMJX 210156Z 31013G22KT 10SM OVC047 09/02 A2990 RMK AO2 PK WND 29027/0142 SLP130 T00940017
0300720407004622022032102567+39928-074292FM-15+0025KMJX V0203205N00625012505MN0160935N5+00895+00115101395ADDGA1075+012505999GA2085+014635999GD13991+0125059GD24991+0146359GE19AGL   +99999+99999GF199999999999012501999999MA1101355101055MD1390309+9999OC101135OD149901641300REMMET12703/20/22 21:56:01 METAR KMJX 210256Z 32012G22KT 10SM BKN041 OVC048 09/01 A2993 RMK AO2 PK WND 30032/0230 SLP139 T00890011 53030
0344720407004622022032103567+39928-074292FM-15+0025KMJX V0203105N00625024385MN0160935N5+00895+00065101465ADDAA101000021GA1075+024385999GA2075+028965999GA3085+033535999GD13991+0243859GD23991+0289659GD34991+0335359GE19AGL   +99999+99999GF199999999999024381999999MA1101425101125OC101085OD149901391330REMMET14303/20/22 22:56:02 METAR KMJX 210356Z 31012G21KT 10SM BKN080 BKN095 OVC110 09/01 A2995 RMK AO2 PK WND 33027/0312 RAB06E17 SLP146 P0000 T00890006
0175720407004622022032106567+39928-074292FM-15+0025KMJX V0203005N005152200059N0160935N5+00725-00175101665ADDGA1005+999999999GD10991+9999999GF100991999999999999999999MA1101635101325REMMET09103/21/22 01:56:01 METAR KMJX 210656Z 30010KT 10SM CLR 07/M02 A3001 RMK AO2 SLP166 T00721017
0175720407004622022032107567+39928-074292FM-15+0025KMJX V0203005N003652200059N0160935N5+00725-00225101715ADDGA1005+999999999GD10991+9999999GF100991999999999999999999MA1101695101395REMMET09103/21/22 02:56:02 METAR KMJX 210756Z 30007KT 10SM CLR 07/M02 A3003 RMK AO2 SLP171 T00721022
0175720407004622022032109567+39928-074292FM-15+0025KMJX V0202805N002652200059N0160935N5+00505-00335101925ADDGA1005+999999999GD10991+9999999GF100991999999999999999999MA1101905101595REMMET09103/21/22 04:56:02 METAR KMJX 210956Z 28005KT 10SM CLR 05/M03 A3009 RMK AO2 SLP192 T00501033
0187720407004622022032110567+39928-074292FM-15+0025KMJX V0202405N001552200059N0160935N5+00115-00335102005ADDGA1005+999999999GD10991+9999999GF100991999999999999999999MA1101965101665REMMET10303/21/22 05:56:02 METAR KMJX 211056Z 24003KT 10SM CLR 01/M03 A3011 RMK AO2 SLP200 T00111033 FZRANO TSNO
0175720407004622022032112567+39928-074292FM-15+0025KMJX V0202805N006252200059N0160935N5+00895-00115102135ADDGA1005+999999999GD10991+9999999GF100991999999999999999999MA1102105101805REMMET09103/21/22 07:56:02 METAR KMJX 211256Z 28012KT 10SM CLR 09/M01 A3015 RMK AO2 SLP213 T00891011
0175720407004622022032113567+39928-074292FM-15+0025KMJX V0202805N006252200059N0160935N5+01065-00225102215ADDGA1005+999999999GD10991+9999999GF100991999999999999999999MA1102175101875REMMET09103/21/22 08:56:02 METAR KMJX 211356Z 28012KT 10SM CLR 11/M02 A3017 RMK AO2 SLP221 T01061022
0206720407004622022032114567+39928-074292FM-15+0025KMJX V0203005N004652200059N0160935N5+01225-00285102235ADDGA1005+999999999GD10991+9999999GF100991999999999999999999MA1102205101905MD1190169+9999OC101035REMMET10003/21/22 09:56:02 METAR KMJX 211456Z 30009G20KT 10SM CLR 12/M03 A3018 RMK AO2 SLP223 T01221028 51016
0186720407004622022032115567+39928-074292FM-15+0025KMJX V0202805N005752200059N0160935N5+01395-00395102195ADDGA1005+999999999GD10991+9999999GF100991999999999999999999MA1102175101875OC100985REMMET09403/21/22 10:56:02 METAR KMJX 211556Z 28011G19KT 10SM CLR 14/M04 A3017 RMK AO2 SLP219 T01391039
0186720407004622022032116567+39928-074292FM-15+0025KMJX V0202905N007752200059N0160935N5+01445-00395102095ADDGA1005+999999999GD10991+9999999GF100991999999999999999999MA1102075101765OC101085REMMET09403/21/22 11:56:02 METAR KMJX 211656Z 29015G21KT 10SM CLR 14/M04 A3014 RMK AO2 SLP209 T01441039
0262720407004622022032117567+39928-074292FM-15+0025KMJX V0202605N005752200059N0160935N5+01615-00395101955ADDGA1005+999999999GD10991+9999999GF100991999999999999999999KA1060M+01611KA2060N+00331MA1101935101635MD1890279+9999OC101035REMMET13003/21/22 12:56:02 METAR KMJX 211756Z 26011G20KT 10SM CLR 16/M04 A3010 RMK AO2 PK WND 28029/1723 SLP195 T01611039 10161 20033 58027
0204720407004622022032118567+39928-074292FM-15+0025KMJX V0203005N009852200059N0160935N5+01725-00395101805ADDGA1005+999999999GD10991+9999999GF100991999999999999999999MA1101765101465OC101135REMMET11203/21/22 13:56:02 METAR KMJX 211856Z 30019G22KT 10SM CLR 17/M04 A3005 RMK AO2 PK WND 28026/1828 SLP180 T01721039
0204720407004622022032119567+39928-074292FM-15+0025KMJX V0203005N010352200059N0160935N5+01725-00395101785ADDGA1005+999999999GD10991+9999999GF100991999999999999999999MA1101765101465OC101655REMMET11203/21/22 14:56:02 METAR KMJX 211956Z 30020G32KT 10SM CLR 17/M04 A3005 RMK AO2 PK WND 29032/1947 SLP178 T01721039
0224720407004622022032120567+39928-074292FM-15+0025KMJX V0202905N008852200059N0160935N5+01725-00285101725ADDGA1005+999999999GD10991+9999999GF100991999999999999999999MA1101695101395MD1690239+9999OC101345REMMET11803/21/22 15:56:02 METAR KMJX 212056Z 29017G26KT 10SM CLR 17/M03 A3003 RMK AO2 PK WND 31026/2056 SLP172 T01721028 56023
0204720407004622022032121567+39928-074292FM-15+0025KMJX V0202805N007252200059N0160935N5+01675-00225101745ADDGA1005+999999999GD10991+9999999GF100991999999999999999999MA1101735101435OC101035REMMET11203/21/22 16:56:02 METAR KMJX 212156Z 28014G20KT 10SM CLR 17/M02 A3004 RMK AO2 PK WND 29026/2102 SLP174 T01671022
0175720407004622022032122567+39928-074292FM-15+0025KMJX V0202905N005152200059N0160935N5+01565-00225101795ADDGA1005+999999999GD10991+9999999GF100991999999999999999999MA1101765101465REMMET09103/21/22 17:56:02 METAR KMJX 212256Z 29010KT 10SM CLR 16/M02 A3005 RMK AO2 SLP179 T01561022
0233720407004622022032123567+39928-074292FM-15+0025KMJX V0202505N001552200059N0160935N5+01065-00115101835ADDGA1005+999999999GD10991+9999999GF100991999999999999999999KA1060M+01781KA2060N+01061MA1101795101495MD1390119+9999REMMET10903/21/22 18:56:02 METAR KMJX 212356Z 25003KT 10SM CLR 11/M01 A3006 RMK AO2 SLP183 T01061011 10178 20106 53011
0175720407004622022032200567+39928-074292FM-15+0025KMJX V0209999C000052200059N0160935N5+00675-00065101885ADDGA1005+999999999GD10991+9999999GF100991999999999999999999MA1101865101565REMMET09103/21/22 19:56:01 METAR KMJX 220056Z 00000KT 10SM CLR 07/M01 A3008 RMK AO2 SLP188 T00671006
0175720407004622022032201567+39928-074292FM-15+0025KMJX V0209999C000052200059N0160935N5+00505-00115101915ADDGA1005+999999999GD10991+9999999GF100991999999999999999999MA1101905101595REMMET09103/21/22 20:56:01 METAR KMJX 220156Z 00000KT 10SM CLR 05/M01 A3009 RMK AO2 SLP191 T00501011
0218720407004622022032203567+39928-074292FM-15+0025KMJX V0209999C000052200059N0160935N5+00505+00005101965ADDGA1025+030485999GD11991+0304859GE19AGL   +99999+99999GF102995999999030481999999MA1101935101635REMMET09303/21/22 22:56:02 METAR KMJX 220356Z 00000KT 10SM FEW100 05/00 A3010 RMK AO2 SLP196 T00500000EQDD01      0ADE726
0284720407004622022032205567+39928-074292FM-15+0025KMJX V0209999C000052200059N0160935N5+00065-00225102015ADDGA1025+030485999GD11991+0304859GE19AGL   +99999+99999GF102995999999030481999999KA1060M+01061KA2060N+00061MA1101965101665MD1390059+9999REMMET11903/22/22 00:56:02 METAR KMJX 220556Z 00000KT 10SM FEW100 01/M02 A3011 RMK AO2 SLP201 T00061022 10106 20006 53005 FZRANOEQDD01      0ADE726
0226720407004622022032208567+39928-074292FM-15+0025KMJX V0209999C00005033535MN0160935N5+00225+00005102045ADDGA1085+033535999GD14991+0335359GE19AGL   +99999+99999GF199999999999033531999999MA1102005101705MD1390039+9999REMMET10603/22/22 03:56:02 METAR KMJX 220856Z 00000KT 10SM OVC110 02/00 A3012 RMK AO2 SLP204 T00220000 53003 FZRANO
0205720407004622022032209567+39928-074292FM-15+0025KMJX V0209999C00005033535MN0160935N5+00285-00065102105ADDGA1085+033535999GD14991+0335359GE19AGL   +99999+99999GF199999999999033531999999MA1102075101765REMMET09903/22/22 04:56:02 METAR KMJX 220956Z 00000KT 10SM OVC110 03/M01 A3014 RMK AO2 SLP210 T00281006 TSNO
0152720407004622022032210567+39928-074292FM-15+0025KMJX V0200405N001559999999N0160935N5+00335+00065999999ADDMA1102135101835REMMET09003/22/22 05:56:02 METAR KMJX 221056Z 04003KT 10SM 03/01 A3016 RMK AO2 SLPNO T00330006 TSNOEQDR01      7SKY009R02      7GAS009
0217720407004622022032212567+39928-074292FM-15+0025KMJX V0203505N002652200059N0160935N5+00945+00115999999ADDGA1045+024385999GD12991+0243859GE19AGL   +99999+99999GF104995999999024381999999MA1102275101975REMMET09203/22/22 07:56:02 METAR KMJX 221256Z 35005KT 10SM SCT080 09/01 A3020 RMK AO2 SLPNO T00940011EQDD01      0ADE726
0174720407004622022032213567+39928-074292FM-15+0025KMJX V0203605N005752200059N0160935N5+01115-00285999999ADDGA1005+999999999GD10991+9999999GF100991999999999999999999MA1102305102005REMMET09003/22/22 08:56:02 METAR KMJX 221356Z 36011KT 10SM CLR 11/M03 A3021 RMK AO2 SLPNO T01111028
0161720407004622022032215567+39928-074292FM-15+0025KMJX V0209999V003159999999N0160935N5+01335-00785999999ADDMA1102275101975OC100825REMMET09103/22/22 10:56:02 METAR KMJX 221556Z VRB06G16KT 10SM 13/M08 A3020 RMK AO2 SLPNO T01331078 $EQDR01      7SKY009R02      7GAS009
0161720407004622022032216567+39928-074292FM-15+0025KMJX V0203005N007259999999N0160935N5+01505-01005999999ADDMA1102245101935OC100935REMMET09103/22/22 11:56:02 METAR KMJX 221656Z 30014G18KT 10SM 15/M10 A3019 RMK AO2 SLPNO T01501100 $EQDR01      7SKY009R02      7GAS009
0161720407004622022032218567+39928-074292FM-15+0025KMJX V0202905N004659999999N0160935N5+01565-00835999999ADDMA1102135101835OC100885REMMET09103/22/22 13:56:02 METAR KMJX 221856Z 29009G17KT 10SM 16/M08 A3016 RMK AO2 SLPNO T01561083 $EQDR01      7SKY009R02      7GAS009
0150720407004622022032219567+39928-074292FM-15+0025KMJX V0203005N005159999999N0160935N5+01615-00785999999ADDMA1102075101765REMMET08803/22/22 14:56:02 METAR KMJX 221956Z 30010KT 10SM 16/M08 A3014 RMK AO2 SLPNO T01611078 $EQDR01      7SKY009R02      7GAS009
0150720407004622022032221567+39928-074292FM-15+0025KMJX V0202805N004659999999N0160935N5+01505-00785999999ADDMA1102075101765REMMET08803/22/22 16:56:02 METAR KMJX 222156Z 28009KT 10SM 15/M08 A3014 RMK AO2 SLPNO T01501078 $EQDR01      7SKY009R02      7GAS009
0151720407004622022032222567+39928-074292FM-15+0025KMJX V0202705N001559999999N0160935N5+01335-00615102115ADDMA1102075101765REMMET08903/22/22 17:56:02 METAR KMJX 222256Z 27003KT 10SM 13/M06 A3014 RMK AO2 SLP211 T01331061 $EQDR01      7SKY009R02      7GAS009
0209720407004622022032223567+39928-074292FM-15+0025KMJX V0209999C000059999999N0160935N5+00615-00115102175ADDKA1060M+01611KA2060N+00611MA1102135101835MD1290119+9999REMMET10703/22/22 18:56:02 METAR KMJX 222356Z 00000KT 10SM 06/M01 A3016 RMK AO2 SLP217 T00611011 10161 20061 52011 $EQDR01      7SKY009R02      7GAS009
0158720407004622022032301567+39928-074292FM-15+0025KMJX V0209999C000059999999N0160935N5+00225-00285102355ADDMA1102305102005REMMET09603/22/22 20:56:01 METAR KMJX 230156Z 00000KT 10SM 02/M03 A3021 RMK AO2 SLP235 T00221028 FZRANO $EQDR01      7SKY009R02      7GAS009
0178720407004622022032302567+39928-074292FM-15+0025KMJX V0209999C000059999999N0160935N5+00065-00395102355ADDMA1102305102005MD1190199+9999REMMET10203/22/22 21:56:02 METAR KMJX 230256Z 00000KT 10SM 01/M04 A3021 RMK AO2 SLP235 T00061039 51019 FZRANO $EQDR01      7SKY009R02      7GAS009
0159720407004622022032303567+39928-074292FM-15+0025KMJX V0200405N001559999999N0160935N5-00065-00335102345ADDMA1102305102005REMMET09703/22/22 22:56:02 METAR KMJX 230356Z 04003KT 10SM M01/M03 A3021 RMK AO2 SLP234 T10061033 FZRANO $EQDR01      7SKY009R02      7GAS009
0217720407004622022032305567+39928-074292FM-15+0025KMJX V0209999C000059999999N0160935N5-00115-00505102425ADDKA1060M+00611KA2060N-00171MA1102405102105MD1390089+9999REMMET11503/23/22 00:56:02 METAR KMJX 230556Z 00000KT 10SM M01/M05 A3024 RMK AO2 SLP242 T10111050 10061 21017 53008 FZRANO $EQDR01      7SKY009R02      7GAS009
0159720407004622022032306567+39928-074292FM-15+0025KMJX V0209999C000059999999N0160935N5-00175-00505102395ADDMA1102375102075REMMET09703/23/22 01:56:02 METAR KMJX 230656Z 00000KT 10SM M02/M05 A3023 RMK AO2 SLP239 T10171050 FZRANO $EQDR01      7SKY009R02      7GAS009
0178720407004622022032308567+39928-074292FM-15+0025KMJX V0200605N002159999999N0160935N5+00005-00395102375ADDMA1102345102035MD1690059+9999REMMET10203/23/22 03:56:02 METAR KMJX 230856Z 06004KT 10SM 00/M04 A3022 RMK AO2 SLP237 T00001039 56005 FZRANO $EQDR01      7SKY009R02      7GAS009
0151720407004622022032309567+39928-074292FM-15+0025KMJX V0200605N003659999999N0160935N5+00445-00335102365ADDMA1102345102035REMMET08903/23/22 04:56:02 METAR KMJX 230956Z 06007KT 10SM 04/M03 A3022 RMK AO2 SLP236 T00441033 $EQDR01      7SKY009R02      7GAS009
0162720407004622022032312567+39928-074292FM-15+0025KMJX V0200705N005759999999N0160935N5+00725-00115102455ADDMA1102405102105OC100725REMMET09203/23/22 07:56:02 METAR KMJX 231256Z 07011G14KT 10SM 07/M01 A3024 RMK AO2 SLP245 T00721011 $EQDR01      7SKY009R02      7GAS009
0171720407004622022032313517+39928-074292FM-15+0025KMJX V0200705V006259999999N0012075N5+00705+00005999999ADDAU100007015AW1051MA1102445102145MW1055OC100935REMMET07803/23/22 08:51:02 METAR KMJX 231351Z 07012G18KT 3/4SM HZ 07/00 A3025 RMK AO2 $EQDR01      7SKY009R02      7GAS009
0188720407004622022032313567+39928-074292FM-15+0025KMJX V0200805N005159999999N0012075N5+00725+00005102465ADDAU100007015AW1051MA1102405102105MW1055OC100935REMMET09503/23/22 08:56:02 METAR KMJX 231356Z 08010G18KT 3/4SM HZ 07/00 A3024 RMK AO2 SLP246 T00720000 $EQDR01      7SKY009R02      7GAS009
0144720407004622022032314067+39928-074292FM-15+0025KMJX V0201005N003159999999N0160935N5+00705+00105999999ADDMA1102445102145OC100985REMMET07403/23/22 09:06:02 METAR KMJX 231406Z 10006G19KT 10SM 07/01 A3025 RMK AO2 $EQDR01      7SKY009R02      7GAS009
0182720407004622022032314567+39928-074292FM-15+0025KMJX V0200805N004659999999N0160935N5+00675-00065102525ADDMA1102475102175MD1390119+9999OC100725REMMET09803/23/22 09:56:02 METAR KMJX 231456Z 08009G14KT 10SM 07/M01 A3026 RMK AO2 SLP252 T00671006 53011 $EQDR01      7SKY009R02      7GAS009
0162720407004622022032315566+39928-074292FM-15+0025KMJX V0200705N007259999999N0160935N5+00785-00115102475ADDMA1102445102145OC101035REMMET09203/23/22 10:56:02 METAR KMJX 231556Z 07014G20KT 10SM 08/M01 A3025 RMK AO2 SLP247 T00781011 $EQDR01      7SKY009R02      7GAS009
0151720407004622022032316566+39928-074292FM-15+0025KMJX V0200705N005159999999N0160935N5+00835-00065102415ADDMA1102375102075REMMET08903/23/22 11:56:02 METAR KMJX 231656Z 07010KT 10SM 08/M01 A3023 RMK AO2 SLP241 T00831006 $EQDR01      7SKY009R02      7GAS009
0223720407004622022032317567+39928-074292FM-15+0025KMJX V0200505N005759999999N0160935N5+00785-00115102385ADDKA1060M+00891KA2060N+00611MA1102345102035MD1690139+9999OC100825REMMET11303/23/22 12:56:02 METAR KMJX 231756Z 05011G16KT 10SM 08/M01 A3022 RMK AO2 SLP238 T00781011 10089 20061 56013 TSNOEQDR01      7SKY009R02      7GAS009
0224720407004622022032319567+39928-074292FM-15+0025KMJX V0200805V003652200059N0160935N5+00615+00115102255ADDAA101000021AU110020015AW1615GA1005+999999999GD10991+9999999GF100991999999999999999999MA1102205101905MW1615REMMET10603/23/22 14:56:02 METAR KMJX 231956Z 08007KT 10SM -RA CLR 06/01 A3018 RMK AO2 RAB09 SLP225 P0000 T00610011
0241720407004622022032321567+39928-074292FM-15+0025KMJX V0209999V002652200059N0160935N5+00505+00285102185ADDAA101000395GA1025+008845999GD11991+0088459GE19AGL   +99999+99999GF102995999999008841999999MA1102135101835REMMET10503/23/22 16:56:02 METAR KMJX 232156Z VRB05KT 10SM FEW029 05/03 A3016 RMK AO2 RAE56 SLP218 P0001 T00500028EQDD01      0ADE726
0237720407004622022032322567+39928-074292FM-15+0025KMJX V0200905V00515027435MN0160935N5+00615+00225102155ADDGA1045+016765999GA2075+027435999GD12991+0167659GD23991+0274359GE19AGL   +99999+99999GF199999999999016761999999MA1102105101805REMMET10003/23/22 17:56:02 METAR KMJX 232256Z 09010KT 10SM SCT055 BKN090 06/02 A3015 RMK AO2 SLP215 T00610022
0370720407004622022032323567+39928-074292FM-15+0025KMJX V0200805V004652200059N0160935N5+00615+00285102125ADDAA101000021AA206000391AU110020015AW1615GA1045+012195999GD12991+0121959GE19AGL   +99999+99999GF104995999999012191999999KA1060M+00781KA2060N+00501MA1102075101765MD1890069+9999MW1615OC100775REMMET13603/23/22 18:56:02 METAR KMJX 232356Z 08009G15KT 10SM -RA SCT040 06/03 A3014 RMK AO2 RAB32 SLP212 P0000 60001 T00610028 10078 20050 58006EQDQ01  00028PRCP06D01      0ADE726
0298720407004622022032400567+39928-074292FM-15+0025KMJX V0200805N00365006715MN0160935N5+00675+00285102105ADDAA101000021GA1075+006715999GA2075+012805999GA3085+014945999GD13991+0067159GD23991+0128059GD34991+0149459GE19AGL   +99999+99999GF199999999999006711999999MA1102075101765REMMET11903/23/22 19:56:01 METAR KMJX 240056Z 08007KT 10SM BKN022 BKN042 OVC049 07/03 A3014 RMK AO2 RAE01 SLP210 P0000 T00670028
0260720407004622022032401567+39928-074292FM-15+0025KMJX V0200805N00465006105MN0160935N5+00615+00445102025ADDAA101000395AU110020015AW1615GA1085+006105999GD14991+0061059GE19AGL   +99999+99999GF199999999999006101999999MA1102005101705MW1615OC100825REMMET11203/23/22 20:56:01 METAR KMJX 240156Z 08009G16KT 10SM -RA OVC020 06/04 A3012 RMK AO2 RAB40 SLP202 P0001 T00610044
0179720407004622022032403447+39928-074292FM-15+0025KMJX V0200705N004159999999N0112655N5+00705+00605999999ADDAA101000595AU110020015AW1615MA1101765101465MW1615REMMET08303/23/22 22:44:02 METAR KMJX 240344Z 07008KT 7SM -RA 07/06 A3005 RMK AO2 P0002 TSNOEQDR01      7SKY009R02      7GAS009
002772040700462202203240459O+39928-074292SOD  +0025KMJX V020999999999999999999999999999+99999+99999999999ADDAT1AU16RA  5AT2AU08HZ  5
0302720407004622022032405567+39928-074292FM-15+0025KMJX V0200805N003659999999N0048285N5+00895+00835101505ADDAA101004695AA206008691AU130020015AU200001015AW1105AW2635KA1060M+00891KA2060N+00561MA1101465101165MD1790419+9999MW1635REMMET12203/24/22 00:56:02 METAR KMJX 240556Z 08007KT 3SM +RA BR 09/08 A2996 RMK AO2 SLP150 P0018 60034 T00890083 10089 20056 57041EQDQ01  00868PRCP06R01      7SKY009R02      7GAS009
0280720407004622022032406567+39928-074292FM-15+0025KMJX V0200705N00265001225MN0080475N5+00945+00895101445ADDAA101005195AU130020015AU200001015AW1105AW2635GA1075+001225999GD13991+0012259GE19AGL   +99999+99999GF199999999999001221999999MA1101425101125MW1635REMMET12303/24/22 01:56:02 METAR KMJX 240656Z 07005KT 5SM +RA BR BKN004 09/09 A2995 RMK AO2 LTG DSNT SW AND W SLP144 P0020 T00940089
0380720407004622022032407147+39928-074292FM-15+0025KMJX V0200605N00315001835MN0096565N5+00905+00905999999ADDAA101003395AU147000015AU220020015AU300001015AW1105AW2121AW3625GA1075+001835999GA2075+003965999GA3085+005495999GD13991+0018351GD23991+0039659GD34991+0054959GE19AGL   +99999+99999GF199999999999001831999999MA1101355101055MV1015MW1655REMMET13803/24/22 02:14:02 METAR KMJX 240714Z 06006KT 6SM VCTS RA BR BKN006 BKN013 OVC018 09/09 A2993 RMK AO2 LTG DSNT S-NW TSB14 CIG 003V009 P0013
0338720407004622022032407347+39928-074292FM-15+0025KMJX V0200405N00415000915MN0128755N5+00905+00905999999ADDAA101005395AU107000025AU230020035AW1635AW2905AW3951GA1075+000915999GA2075+001835999GA3085+003665999GD13991+0009159GD23991+0018359GD34991+0036659GE19AGL   +99999+99999GF199999999999000911999999MA1101325101025MW1635REMMET11303/24/22 02:34:02 METAR KMJX 240734Z 04008KT 8SM +TSRA BKN003 BKN006 OVC012 09/09 A2992 RMK AO2 TSB14E32B34 P0021
0285720407004622022032407547+39928-074292FM-15+0025KMJX V0200205N00415000915MN0144845N5+00905+00905999999ADDAA101007195AU147000015AU230020015AW1121AW2635GA1085+000915999GD14991+0009159GE19AGL   +99999+99999GF199999999999000911999999MA1101295100995MV1015MW1635REMMET12203/24/22 02:54:02 METAR KMJX 240754Z 02008KT 9SM VCTS +RA OVC003 09/09 A2991 RMK AO2 LTG DSNT E-SW TSB14E32B34E52B54 P0028
0300720407004622022032408237+39928-074292FM-15+0025KMJX V0200405N00465000915MN0160935N5+00905+00905999999ADDAA101003395AU110020015AW1615GA1075+000915999GA2085+003665999GD13991+0009151GD24991+0036659GE19AGL   +99999+99999GF199999999999000911999999MA1101225100925MW1615REMMET12903/24/22 03:23:02 METAR KMJX 240823Z 04009KT 10SM -RA BKN003 OVC012 09/09 A2989 RMK AO2 LTG DSNT SE AND S TSE17 CIG 003V008 P0013
0228720407004622022032411157+39928-074292FM-15+0025KMJX V0200205N00465000915MN0028165N5+00805+00805999999ADDAA101000021AU100001015AW1105GA1085+000915999GD14991+0009159GE19AGL   +99999+99999GF199999999999000911999999MA1101255100955REMMET09403/24/22 06:15:02 METAR KMJX 241115Z 02009KT 1 3/4SM BR OVC003 08/08 A2990 RMK AO2 RAE11 P0000
0393720407004622022032411567+39928-074292FM-15+0025KMJX V0200205N00265000915MN0024145N5+00835+00835101305ADDAA101000021AA206016891AA324025791AU110020015AU200001015AW1105AW2615GA1085+000915999GD14991+0009159GE19AGL   +99999+99999GF199999999999000911999999KA1060M+00941KA2060N+00831MA1101295100995MD1390069+9999MW1615REMMET13903/24/22 06:56:02 METAR KMJX 241156Z 02005KT 1 1/2SM -RA BR OVC003 08/08 A2991 RMK AO2 SLP130 P0000 60066 70101 T00830083 10094 20083 53006EQDQ01  01678PRCP06Q02  02568PRCP24
0250720407004622022032412137+39928-074292FM-15+0025KMJX V0200205N00465000915MN0032195N5+00805+00805999999ADDAA101000021AU110020015AU200001015AW1105AW2615GA1085+000915999GD14991+0009159GE19AGL   +99999+99999GF199999999999000911999999MA1101295100995MW1615REMMET09303/24/22 07:13:02 METAR KMJX 241213Z 02009KT 2SM -RA BR OVC003 08/08 A2991 RMK AO2 P0000 TSNO
0228720407004622022032412257+39928-074292FM-15+0025KMJX V0200205N00465000915MN0028165N5+00805+00805999999ADDAA101000021AU100001015AW1105GA1085+000915999GD14991+0009159GE19AGL   +99999+99999GF199999999999000911999999MA1101295100995REMMET09403/24/22 07:25:02 METAR KMJX 241225Z 02009KT 1 3/4SM BR OVC003 08/08 A2991 RMK AO2 RAE16 P0000
0256720407004622022032414277+39928-074292FM-15+0025KMJX V0200205N00365000915MN0016095N5+00905+00805999999ADDAA101000021AU110020015AU200001015AW1105AW2615GA1085+000915999GD14991+0009159GE19AGL   +99999+99999GF199999999999000911999999MA1101325101025MW1615REMMET09903/24/22 09:27:02 METAR KMJX 241427Z 02007KT 1SM -RA BR OVC003 09/08 A2992 RMK AO2 RAB01 P0000 TSNO
0255720407004622022032414447+39928-074292FM-15+0025KMJX V0200105N00515000915MN0020125N5+00805+00805999999ADDAA101000021AU110020015AU200001015AW1105AW2615GA1085+000915999GD14991+0009159GE19AGL   +99999+99999GF199999999999000911999999MA1101325101025MW1615REMMET09803/24/22 09:44:02 METAR KMJX 241444Z 01010KT 1 1/4SM -RA BR OVC003 08/08 A2992 RMK AO2 RAB01 P0000
0324720407004622022032414567+39928-074292FM-15+0025KMJX V0203605N00365000915MN0016095N5+00835+00835101365ADDAA101000021AA203000021AU110020015AU200001015AW1105AW2615GA1085+000915999GD14991+0009159GE19AGL   +99999+99999GF199999999999000911999999MA1101325101025MD1190079+9999MW1615REMMET12303/24/22 09:56:02 METAR KMJX 241456Z 36007KT 1SM -RA BR OVC003 08/08 A2992 RMK AO2 RAB01 SLP136 P0000 60000 T00830083 51007EQDQ01  00008PRCP03
0255720407004622022032416417+39928-074292FM-15+0025KMJX V0200105N00315000915MN0020125N5+00905+00805999999ADDAA101000021AU110020015AU200001015AW1105AW2615GA1085+000915999GD14991+0009159GE19AGL   +99999+99999GF199999999999000911999999MA1101355101055MW1615REMMET09803/24/22 11:41:02 METAR KMJX 241641Z 01006KT 1 1/4SM -RA BR OVC003 09/08 A2993 RMK AO2 RAB25 P0000
0222720407004622022032418567+39928-074292FM-15+0025KMJX V0200205N00415000915MN0028165N5+00945+00945101135ADDAU100001015AW1105GA1085+000915999GD14991+0009159GE19AGL   +99999+99999GF199999999999000911999999MA1101085100785REMMET09903/24/22 13:56:02 METAR KMJX 241856Z 02008KT 1 3/4SM BR OVC003 09/09 A2985 RMK AO2 SLP113 T00940094
0201720407004622022032419077+39928-074292FM-15+0025KMJX V0200305N00465000915MN0032195N5+00905+00905999999ADDAU100001015AW1105GA1085+000915999GD14991+0009159GE19AGL   +99999+99999GF199999999999000911999999MA1101085100785REMMET07803/24/22 14:07:02 METAR KMJX 241907Z 03009KT 2SM BR OVC003 09/09 A2985 RMK AO2
0210720407004622022032420267+39928-074292FM-15+0025KMJX V0203605N00415000915MN0024145N5+00905+00805999999ADDAU100001015AW1105GA1085+000915999GD14991+0009159GE19AGL   +99999+99999GF199999999999000911999999MA1101085100785REMMET08703/24/22 15:26:02 METAR KMJX 242026Z 36008KT 1 1/2SM BR OVC003 09/08 A2985 RMK AO2 TSNO
0201720407004622022032421227+39928-074292FM-15+0025KMJX V0200405N00315000915MN0016095N5+00805+00805999999ADDAU100001015AW1105GA1085+000915999GD14991+0009159GE19AGL   +99999+99999GF199999999999000911999999MA1100955100655REMMET07803/24/22 16:22:02 METAR KMJX 242122Z 04006KT 1SM BR OVC003 08/08 A2981 RMK AO2
0218720407004622022032422567+39928-074292FM-15+0025KMJX V0200605N00215000915MN0016095N5+00785+00785100995ADDAU100001015AW1105GA1085+000915999GD14991+0009159GE19AGL   +99999+99999GF199999999999000911999999MA1100955100655REMMET09503/24/22 17:56:02 METAR KMJX 242256Z 06004KT 1SM BR OVC003 08/08 A2981 RMK AO2 SLP099 T00780078
0260720407004622022032423427+39928-074292FM-15+0025KMJX V0200405N00365000915MN0040235N5+00805+00805999999ADDAA101000021AU110020015AU200001015AW1105AW2615GA1085+000915999GD14991+0009159GE19AGL   +99999+99999GF199999999999000911999999MA1100915100625MW1615REMMET10303/24/22 18:42:02 METAR KMJX 242342Z 04007KT 2 1/2SM -RA BR OVC003 08/08 A2980 RMK AO2 RAB17 P0000 TSNO
0248720407004622022032500567+39928-074292FM-15+0025KMJX V0200705N00315000915MN0024145N5+00725+00725100755ADDAA101000395AU100001015AW1105GA1085+000915999GD14991+0009159GE19AGL   +99999+99999GF199999999999000911999999MA1100715100415REMMET11403/24/22 19:56:01 METAR KMJX 250056Z 07006KT 1 1/2SM BR OVC003 07/07 A2974 RMK AO2 RAB09E37 SLP075 P0001 T00720072
003972040700462202203250459O+39928-074292SOD  +0025KMJX V020999999999999999999999999999+99999+99999999999ADDAT1AU03TS  5AT2AU16RA  5AT3AU13BR  5
0268720407004622022032517567+39928-074292FM-15+0025KMJX V0202605N00775014945MN0160935N5+01615+00445100275ADDGA1075+014945999GD13991+0149459GE19AGL   +99999+99999GF199999999999014941999999KA1060M+01611KA2060N+00671MA1100245099945MD1690259+9999OC100935REMMET11403/25/22 12:56:02 METAR KMJX 251756Z 26015G18KT 10SM BKN049 16/04 A2960 RMK AO2 SLP027 T01610044 10161 20067 56025
0179720407004622022032522567+39928-074292FM-15+0025KMJX V0202705N002652200059N0160935N5+01225+00335100225ADDGA1005+999999999GD10991+9999999GF100991999999999999999999MA1100205099915REMMET09503/25/22 17:56:02 METAR KMJX 252256Z 27005KT 10SM CLR 12/03 A2959 RMK AO2 SLP022 T01220033 TSNO
0262720407004622022032605567+39928-074292FM-15+0025KMJX V0209999C00005022865MN0160935N5+00725+00445100285ADDGA1085+022865999GD14991+0228659GE19AGL   +99999+99999GF199999999999022861999999KA1060M+00891KA2060N+00501MA1100245099945MD1890159+9999REMMET11603/26/22 00:56:02 METAR KMJX 260556Z 00000KT 10SM OVC075 07/04 A2960 RMK AO2 SLP028 T00720044 10089 20050 58015 TSNO
0340720407004622022032614567+39928-074292FM-15+0025KMJX V0202405N00465018295MN0160935N5+01115+00225099965ADDAA101000021AA203000021GA1045+012195999GA2075+018295999GD12991+0121959GD23991+0182959GE19AGL   +99999+99999GF199999999999012191999999MA1099935099645MD1890139+9999REMMET13203/26/22 09:56:02 METAR KMJX 261456Z 24009KT 10SM SCT040 BKN060 11/02 A2951 RMK AO2 RAB23E36 SLP996 P0000 60000 T01110022 58013 TSNOEQDQ01  00002PRCP03Q02  00008PRCP03
0260720407004622022032619567+39928-074292FM-15+0025KMJX V0202805N006752200059N0160935N5+01005+00115099725ADDAA101000395GA1025+024385999GD11991+0243859GE19AGL   +99999+99999GF102995999999024381999999MA1099705099405OC100935REMMET11603/26/22 14:56:02 METAR KMJX 261956Z 28013G18KT 10SM FEW080 10/01 A2944 RMK AO2 RAB05E30 SLP972 P0001 T01000011 TSNOEQDD01      0ADE726
0224720407004622022032701567+39928-074292FM-15+0025KMJX V0202505N003652200059N0160935N5+00445-00175100185ADDGA1025+021345999GD11991+0213459GE19AGL   +99999+99999GF102995999999021341999999MA1100175099875REMMET09903/26/22 20:56:01 METAR KMJX 270156Z 25007KT 10SM FEW070 04/M02 A2958 RMK AO2 SLP018 T00441017 TSNOEQDD01      0ADE726
0216720407004622022032704567+39928-074292FM-15+0025KMJX V0202705N005752200059N0160935N5+00445-00065100255ADDGA1005+999999999GD10991+9999999GF100991999999999999999999KA1240M+01221KA2240N+00391MA1100245099945REMMET10603/26/22 23:56:02 METAR KMJX 270456Z 27011KT 10SM CLR 04/M01 A2960 RMK AO2 SLP025 T00441006 401220039 TSNO
0238720407004622022032705567+39928-074292FM-15+0025KMJX V0202705N005152200059N0160935N5+00395-00065100285ADDGA1005+999999999GD10991+9999999GF100991999999999999999999KA1060M+00671KA2060N+00391MA1100245099945MD1290079+9999REMMET11403/27/22 00:56:02 METAR KMJX 270556Z 27010KT 10SM CLR 04/M01 A2960 RMK AO2 SLP028 T00391006 10067 20039 52007 TSNO
0191720407004622022032706567+39928-074292FM-15+0025KMJX V0202705N006252200059N0160935N5+00335-00115100285ADDGA1005+999999999GD10991+9999999GF100991999999999999999999MA1100245099945OC100825REMMET09903/27/22 01:56:02 METAR KMJX 270656Z 27012G16KT 10SM CLR 03/M01 A2960 RMK AO2 SLP028 T00331011 TSNO
0186720407004622022032709567+39928-074292FM-15+0025KMJX V0202805N006252200059N0160935N5+00285-00225100435ADDGA1005+999999999GD10991+9999999GF100991999999999999999999MA1100375100075OC100825REMMET09403/27/22 04:56:02 METAR KMJX 270956Z 28012G16KT 10SM CLR 03/M02 A2964 RMK AO2 SLP043 T00281022
0243720407004622022032713567+39928-074292FM-15+0025KMJX V0203005N00935013725MN0160935N5+00565-00505100595ADDGA1085+013725999GD14991+0137259GE19AGL   +99999+99999GF199999999999013721999999MA1100545100245OC101295OD149901641300REMMET11503/27/22 08:56:02 METAR KMJX 271356Z 30018G25KT 10SM OVC045 06/M05 A2969 RMK AO2 PK WND 30032/1314 SLP059 T00561050
0268720407004622022032714567+39928-074292FM-15+0025KMJX V0202705N00775013725MN0160935N5+00675-00395100605ADDGA1085+013725999GD14991+0137259GE19AGL   +99999+99999GF199999999999013721999999MA1100545100245MD1190059+9999OC101135OD149901441280REMMET12603/27/22 09:56:02 METAR KMJX 271456Z 27015G22KT 10SM OVC045 07/M04 A2969 RMK AO2 PK WND 28028/1401 SLP060 T00671039 51005 TSNO
0243720407004622022032715567+39928-074292FM-15+0025KMJX V0202905N00825014945MN0160935N5+00725-00445100575ADDGA1085+014945999GD14991+0149459GE19AGL   +99999+99999GF199999999999014941999999MA1100545100245OC101245OD149901331290REMMET11503/27/22 10:56:02 METAR KMJX 271556Z 29016G24KT 10SM OVC049 07/M04 A2969 RMK AO2 PK WND 29026/1524 SLP057 T00721044
0374720407004622022032718567+39928-074292FM-15+0025KMJX V0202905N01085013115MN0160935N5+00445-00225100605ADDAA101000021AU110020015AW1615GA1025+008535999GA2045+009755999GA3085+013115999GD11991+0085359GD22991+0097559GD34991+0131159GE19AGL   +99999+99999GF199999999999008531999999MA1100545100245MW1615OC101705OD149901691280REMMET15003/27/22 13:56:02 METAR KMJX 271856Z 29021G33KT 10SM -RA FEW028 SCT032 OVC043 04/M02 A2969 RMK AO2 PK WND 28033/1850 RAB51 SLP060 P0000 T00441022 TSNO
0365720407004622022032720567+39928-074292FM-15+0025KMJX V0202905N00885021345MN0160935N5+00505-00725100605ADDAA101000021AA203000021GA1025+014335999GA2085+021345999GD11991+0143359GD24991+0213459GE19AGL   +99999+99999GF199999999999014331999999MA1100585100285MD1090059+9999OC101245OD149901441290REMMET15103/27/22 15:56:02 METAR KMJX 272056Z 29017G24KT 10SM FEW047 OVC070 05/M07 A2970 RMK AO2 PK WND 29028/2036 RAE01 SLP060 P0000 60000 T00501072 50005 TSNOEQDQ01  00008PRCP03
0256720407004622022032801567+39928-074292FM-15+0025KMJX V0202905N00935025915MN0160935N5+00115-01225101045ADDGA1045+019815999GA2075+025915999GD12991+0198159GD23991+0259159GE19AGL   +99999+99999GF199999999999019811999999MA1100985100685OC101245REMMET11103/27/22 20:56:01 METAR KMJX 280156Z 29018G24KT 10SM SCT065 BKN085 01/M12 A2982 RMK AO2 SLP104 T00111122 FZRANO
001572040700462202203280459O+39928-074292SOD  +0025KMJX V020999999999999999999999999999+99999+99999999999ADDAT1AU16RA  5
0215720407004622022032809567+39928-074292FM-15+0025KMJX V0203005N006252200059N0160935N5-00505-01565101435ADDGA1005+999999999GD10991+9999999GF100991999999999999999999MA1101395101095OD149901491300REMMET11703/28/22 04:56:02 METAR KMJX 280956Z 30012KT 10SM CLR M05/M16 A2994 RMK AO2 PK WND 30029/0907 SLP143 T10501156 FZRANO
0356720407004622022032819567+39928-074292FM-15+0025KMJX V0202805N00985021345MN0160935N5+00065-01395101325ADDAA101000021GA1025+016765999GA2075+021345999GA3075+025915999GD11991+0167659GD23991+0213459GD33991+0259159GE19AGL   +99999+99999GF199999999999016761999999MA1101295100995OC101495OD149901591300REMMET15503/28/22 14:56:02 METAR KMJX 281956Z 28019G29KT 10SM FEW055 BKN070 BKN085 01/M14 A2991 RMK AO2 PK WND 30031/1904 UPE1858 SLP132 P0000 T00061139 FZRANO TSNO
0219720407004622022032902567+39928-074292FM-15+0025KMJX V0203205N005752200059N0160935N5-00445-01565101935ADDGA1005+999999999GD10991+9999999GF100991999999999999999999MA1101905101595MD1190249+9999OC100935REMMET11303/28/22 21:56:01 METAR KMJX 290256Z 32011G18KT 10SM CLR M04/M16 A3009 RMK AO2 SLP193 T10441156 51024 FZRANO TSNO
0224720407004622022032906567+39928-074292FM-15+0025KMJX V0203205N00675014025MN0160935N5-00445-01335102055ADDGA1085+014025999GD14991+0140259GE19AGL   +99999+99999GF199999999999014021999999MA1102005101705OC101085REMMET11003/29/22 01:56:02 METAR KMJX 290656Z 32013G21KT 10SM OVC046 M04/M13 A3012 RMK AO2 SLP205 T10441133 FZRANO TSNO
0293720407004622022032917567+39928-074292FM-15+0025KMJX V0203005N009352200059N0160935N5+00285-01175102135ADDGA1025+018295999GD11991+0182959GE19AGL   +99999+99999GF102995999999018291999999KA1060M+00391KA2060N-00331MA1102105101805MD1790159+9999OC101245REMMET12003/29/22 12:56:02 METAR KMJX 291756Z 30018G24KT 10SM FEW060 03/M12 A3015 RMK AO2 SLP213 T00281117 10039 21033 57015 TSNOEQDD01      0ADE726
0248720407004622022032918567+39928-074292FM-15+0025KMJX V0202805N00625018295MN0160935N5+00335-01225102085ADDGA1075+018295999GD13991+0182959GE19AGL   +99999+99999GF199999999999018291999999MA1102035101735OC101395OD149901441290REMMET12003/29/22 13:56:02 METAR KMJX 291856Z 28012G27KT 10SM BKN060 03/M12 A3013 RMK AO2 PK WND 29028/1821 SLP208 T00331122 TSNO
0209720407004622022032921567+39928-074292FM-15+0025KMJX V0203205N006752200059N0160935N5+00335-01395102075ADDGA1005+999999999GD10991+9999999GF100991999999999999999999MA1102035101735OC101035REMMET11703/29/22 16:56:02 METAR KMJX 292156Z 32013G20KT 10SM CLR 03/M14 A3013 RMK AO2 PK WND 35026/2102 SLP207 T00331139 TSNO
0206720407004622022033010567+39928-074292FM-15+0025KMJX V0209999C000052200059N0112655N5-00896-01115102585ADDGA1005+999999999GD10991+9999999GF100991999999999999999999MA1102545102245REMMET10303/30/22 05:56:02 METAR KMJX 301056Z 00000KT 7SM CLR M09/M11 A3028 RMK AO2 SLP258 T10891111 FZRANO TSNOEQDR01  -0897TMP028
0244720407004622022033020567+39928-074292FM-15+0025KMJX V0201705N00365021345MN0160935N5+00726-00675102025ADDGA1085+021345999GD14991+0213459GE19AGL   +99999+99999GF199999999999021341999999MA1102005101705MD1690359+9999REMMET10503/30/22 15:56:02 METAR KMJX 302056Z 17007KT 10SM OVC070 07/M07 A3012 RMK AO2 SLP202 T00721067 56035 TSNOEQDR01  00727TMP028
0243720407004622022033021567+39928-074292FM-15+0025KMJX V0201905N00365018295MN0160935N5+00675-00615101995ADDGA1075+018295999GA2075+027435999GD13991+0182959GD23991+0274359GE19AGL   +99999+99999GF199999999999018291999999MA1101965101665REMMET10603/30/22 16:56:02 METAR KMJX 302156Z 19007KT 10SM BKN060 BKN090 07/M06 A3011 RMK AO2 SLP199 T00671061 TSNO
0224720407004622022033102567+39928-074292FM-15+0025KMJX V0201405N00215012195MN0160935N5+00675+00225101675ADDGA1085+012195999GD14991+0121959GE19AGL   +99999+99999GF199999999999012191999999MA1101635101325MD1890219+9999REMMET10403/30/22 21:56:01 METAR KMJX 310256Z 14004KT 10SM OVC040 07/02 A3001 RMK AO2 SLP167 T00670022 58021 TSNO
0263720407004622022033105217+39928-074292FM-15+0025KMJX V0201805N00415007625MN0160935N5+01005+00705999999ADDGA1075+007625999GA2075+010365999GA3085+014635999GD13991+0076259GD23991+0103659GD34991+0146359GE19AGL   +99999+99999GF199999999999007621999999MA1101395101095REMMET09503/31/22 00:21:01 METAR KMJX 310521Z 18008KT 10SM BKN025 BKN034 OVC048 10/07 A2994 RMK AO2 TSNO
0224720407004622022033108567+39928-074292FM-15+0025KMJX V0202005N00465004575MN0160935N5+01335+01175101095ADDGA1085+004575999GD14991+0045759GE19AGL   +99999+99999GF199999999999004571999999MA1101055100755MD1690129+9999REMMET10403/31/22 03:56:01 METAR KMJX 310856Z 20009KT 10SM OVC015 13/12 A2984 RMK AO2 SLP109 T01330117 56012 TSNO
0268720407004622022033117487+39928-074292FM-15+0025KMJX V0202005N00885010975MN0160935N5+01905+01405999999ADDGA1045+007015999GA2075+010975999GD12991+0070159GD23991+0109759GE19AGL   +99999+99999GF199999999999007011999999MA1100585100285OC101605OD149901591190REMMET10903/31/22 12:48:02 METAR KMJX 311748Z 20017G31KT 10SM SCT023 BKN036 19/14 A2970 RMK AO2 PK WND 19031/1741 TSNO
0205720407004622022040106287+39928-074292FM-15+0025KMJX V0202105N004152200059N0144845N5+01605+01605999999ADDGA1045+003055999GD12991+0030559GE19AGL   +99999+99999GF104995999999003051999999MA1099735099435REMMET08004/01/22 01:28:02 METAR KMJX 010628Z 21008KT 9SM SCT010 16/16 A2945 RMK AO2 TSNOEQDD01      0ADE726
0238720407004622022040106547+39928-074292FM-15+0025KMJX V0202105N004152200059N0128755N5+01605+01505999999ADDGA1025+002135999GA2045+006105999GD11991+0021359GD22991+0061059GE19AGL   +99999+99999GF104995999999002131999999MA1099735099435REMMET08204/01/22 01:54:02 METAR KMJX 010654Z 21008KT 8SM FEW007 SCT020 16/15 A2945 RMK AO2EQDD01      0ADE726
0255720407004622022040106567+39928-074292FM-15+0025KMJX V0202105N004652200059N0128755N5+01615+01505099765ADDGA1045+002135999GA2045+006105999GD12991+0021359GD22991+0061059GE19AGL   +99999+99999GF104995999999002131999999MA1099735099435REMMET09904/01/22 01:56:02 METAR KMJX 010656Z 21009KT 8SM SCT007 SCT020 16/15 A2945 RMK AO2 SLP976 T01610150EQDD01      0ADE726
0279720407004622022040107567+39928-074292FM-15+0025KMJX V0202905N00415011895MN0160935N5+01565+01445099865ADDAA101000021GA1075+011895999GA2075+015245999GD13991+0118959GD23991+0152459GE19AGL   +99999+99999GF199999999999011891999999MA1099835099535REMMET13104/01/22 02:56:02 METAR KMJX 010756Z 29008KT 10SM BKN039 BKN050 16/14 A2948 RMK AO2 WSHFT 0718 RAB19E37 SLP986 P0000 T01560144 TSNO
0269720407004622022040108387+39928-074292FM-15+0025KMJX V0203105N00625007925MN0160935N5+01405+01205999999ADDGA1045+004275999GA2075+007925999GA3085+014335999GD12991+0042759GD23991+0079259GD34991+0143359GE19AGL   +99999+99999GF199999999999004271999999MA1099935099645OC100985REMMET09304/01/22 03:38:02 METAR KMJX 010838Z 31012G19KT 10SM SCT014 BKN026 OVC047 14/12 A2951 RMK AO2
0408720407004622022040111567+39928-074292FM-15+0025KMJX V0202805N00415021345MN0160935N5+01175+00725100255ADDAA101000021AA206000021AA324000391GA1075+021345999GA2075+027435999GD13991+0213459GD23991+0274359GE19AGL   +99999+99999GF199999999999021341999999KA1060M+01671KA2060N+01111MA1100205099915MD1190289+9999REMMET14704/01/22 06:56:02 METAR KMJX 011156Z 28008KT 10SM BKN070 BKN090 12/07 A2959 RMK AO2 RAE10 SLP025 P0000 60000 70001 T01170072 10167 20111 51028 TSNOEQDQ01  00002PRCP06Q02  00008PRCP06Q03  00028PRCP24
0305720407004622022040117567+39928-074292FM-15+0025KMJX V0202805N00825021345MN0160935N5+01335+00005100445ADDGA1085+021345999GD14991+0213459GE19AGL   +99999+99999GF199999999999021341999999KA1060M+01501KA2060N+01171MA1100415100115MD1390039+9999OC101185OD149901641290REMMET13704/01/22 12:56:02 METAR KMJX 011756Z 28016G23KT 10SM OVC070 13/00 A2965 RMK AO2 PK WND 29032/1706 SLP044 T01330000 10150 20117 53003 TSNO
0324720407004622022040118567+39928-074292FM-15+0025KMJX V0202805N01245024385MN0160935N5+01225-00175100445ADDGA1025+021345999GA2075+024385999GA3085+028965999GD11991+0213459GD23991+0243859GD34991+0289659GE19AGL   +99999+99999GF199999999999021341999999MA1100415100115OC101755OD149901751280REMMET13404/01/22 13:56:02 METAR KMJX 011856Z 28024G34KT 10SM FEW070 BKN080 OVC095 12/M02 A2965 RMK AO2 PK WND 28034/1856 SLP044 T01221017 TSNO
0216720407004622022040206567+39928-074292FM-15+0025KMJX V0203105N00675016765MN0160935N5+00565-00615101695ADDGA1085+016765999GD14991+0167659GE19AGL   +99999+99999GF199999999999016761999999MA1101665101365OC100935REMMET10204/02/22 01:56:02 METAR KMJX 020656Z 31013G18KT 10SM OVC055 06/M06 A3002 RMK AO2 SLP169 T00561061 TSNO
0187720407004622022040210567+39928-074292FM-15+0025KMJX V0203105N003652200059N0160935N5+00225-00565101975ADDGA1005+999999999GD10991+9999999GF100991999999999999999999MA1101935101635REMMET10304/02/22 05:56:02 METAR KMJX 021056Z 31007KT 10SM CLR 02/M06 A3010 RMK AO2 SLP197 T00221056 FZRANO TSNO
0180720407004622022040219567+39928-074292FM-15+0025KMJX V0209999V003152200059N0160935N5+01225-00505101655ADDGA1005+999999999GD10991+9999999GF100991999999999999999999MA1101635101325REMMET09604/02/22 14:56:02 METAR KMJX 021956Z VRB06KT 10SM CLR 12/M05 A3001 RMK AO2 SLP165 T01221050 TSNO
0182720407004622022040300567+39928-074292FM-15+0025KMJX V0209999C000052200059N0160935N5+00225-00115101665ADDGA1005+999999999GD10991+9999999GF100991999999999999999999MA1101635101325REMMET09804/02/22 19:56:01 METAR KMJX 030056Z 00000KT 10SM CLR 02/M01 A3001 RMK AO2 SLP166 T00221011 FZRANO
0187720407004622022040303567+39928-074292FM-15+0025KMJX V0209999C000052200059N0160935N5+00115-00115101525ADDGA1005+999999999GD10991+9999999GF100991999999999999999999MA1101495101195REMMET10304/02/22 22:56:02 METAR KMJX 030356Z 00000KT 10SM CLR 01/M01 A2997 RMK AO2 SLP152 T00111011 FZRANO TSNO
0231720407004622022040314347+39928-074292FM-15+0025KMJX V0209999C00005008845MN0160935N5+00705+00605999999ADDAA101000395AU110020015AW1615GA1085+008845999GD14991+0088459GE19AGL   +99999+99999GF199999999999008841999999MA1100985100685MW1615REMMET09104/03/22 09:34:02 METAR KMJX 031434Z 00000KT 10SM -RA OVC029 07/06 A2982 RMK AO2 P0001 TSNO
0187720407004622022040315037+39928-074292FM-15+0025KMJX V0200905N00155009455MN0160935N5+00705+00605999999ADDGA1085+009455999GD14991+0094559GE19AGL   +99999+99999GF199999999999009451999999MA1100955100655REMMET08104/03/22 10:03:02 METAR KMJX 031503Z 09003KT 10SM OVC031 07/06 A2981 RMK AO2 TSNO
0273720407004622022040315457+39928-074292FM-15+0025KMJX V0209999C00005010065MN0128755N5+00705+00605999999ADDAA101000021AU120020015AW1625GA1025+001835999GA2085+010065999GD11991+0018359GD24991+0100659GE19AGL   +99999+99999GF199999999999001831999999MA1100915100625MW1655REMMET10204/03/22 10:45:02 METAR KMJX 031545Z 00000KT 8SM RA FEW006 OVC033 07/06 A2980 RMK AO2 RAB31 P0000 TSNO
0242720407004622022040317297+39928-074292FM-15+0025KMJX V0201505N00155004885MN0160935N5+00905+00605999999ADDAA101000395GA1045+003055999GA2085+004885999GD12991+0030559GD24991+0048859GE19AGL   +99999+99999GF199999999999003051999999MA1100855100555REMMET09404/03/22 12:29:02 METAR KMJX 031729Z 15003KT 10SM SCT010 OVC016 09/06 A2978 RMK AO2 P0001 TSNO
0286720407004622022040318567+39928-074292FM-15+0025KMJX V0209999V00265004885MN0160935N5+01005+00615100775ADDGA1075+004885999GA2075+007015999GA3085+016765999GD13991+0048859GD23991+0070159GD34991+0167659GE19AGL   +99999+99999GF199999999999004881999999MA1100755100455REMMET11804/03/22 13:56:02 METAR KMJX 031856Z VRB05KT 10SM BKN016 BKN023 OVC055 10/06 A2975 RMK AO2 LTG DSNT S SLP077 T01000061
001572040700462202204040459O+39928-074292SOD  +0025KMJX V020999999999999999999999999999+99999+99999999999ADDAT1AU16RA  5
0180720407004622022040407567+39928-074292FM-15+0025KMJX V0203005N003652200059N0160935N5+00335-00175101465ADDGA1005+999999999GD10991+9999999GF100991999999999999999999MA1101425101125REMMET09604/04/22 02:56:02 METAR KMJX 040756Z 30007KT 10SM CLR 03/M02 A2995 RMK AO2 SLP146 T00331017 TSNO
0208720407004622022040413567+39928-074292FM-15+0025KMJX V0203405N006752200059N0160935N5+00785-00115101665ADDAA101000395GA1005+999999999GD10991+9999999GF100991999999999999999999MA1101635101325OC100935REMMET10504/04/22 08:56:02 METAR KMJX 041356Z 34013G18KT 10SM CLR 08/M01 A3001 RMK AO2 SLP166 P0001 T00781011 TSNO
0272720407004622022040414567+39928-074292FM-15+0025KMJX V0203305N00625013115MN0160935N5+00835-00225101725ADDAA103000391GA1075+013115999GD13991+0131159GE19AGL   +99999+99999GF199999999999013111999999MA1101695101395MD1390019+9999OC101035REMMET11404/04/22 09:56:02 METAR KMJX 041456Z 33012G20KT 10SM BKN043 08/M02 A3003 RMK AO2 SLP172 60001 T00831022 53001 TSNOEQDQ01  00028PRCP03
0235720407004622022040415567+39928-074292FM-15+0025KMJX V0202905N006752200059N0160935N5+01005-00115101765ADDGA1025+013725999GD11991+0137259GE19AGL   +99999+99999GF102995999999013721999999MA1101735101435OC100935REMMET10204/04/22 10:56:02 METAR KMJX 041556Z 29013G18KT 10SM FEW045 10/M01 A3004 RMK AO2 SLP176 T01001011 TSNOEQDD01      0ADE726
0326720407004622022040417567+39928-074292FM-15+0025KMJX V0202705N005752200059N0160935N5+01225-00175101645ADDAA106000391GA1025+014945999GD11991+0149459GE19AGL   +99999+99999GF102995999999014941999999KA1060M+01221KA2060N+00671MA1101635101325MD1890089+9999REMMET13404/04/22 12:56:02 METAR KMJX 041756Z 27011KT 10SM FEW049 12/M02 A3001 RMK AO2 WSHFT 1730 SLP164 60001 T01221017 10122 20067 58008 TSNOEQDQ01  00028PRCP06D01      0ADE726
0179720407004622022040501567+39928-074292FM-15+0025KMJX V0209999C000052200059N0160935N5+00395+00175101765ADDGA1005+999999999GD10991+9999999GF100991999999999999999999MA1101735101435REMMET09504/04/22 20:56:01 METAR KMJX 050156Z 00000KT 10SM CLR 04/02 A3004 RMK AO2 SLP176 T00390017 TSNO
0242720407004622022040502567+39928-074292FM-15+0025KMJX V0209999C000052200059N0160935N5+00225+00005101795ADDAA103000391GA1005+999999999GD10991+9999999GF100991999999999999999999MA1101765101465MD1190169+9999REMMET11404/04/22 21:56:01 METAR KMJX 050256Z 00000KT 10SM CLR 02/00 A3005 RMK AO2 SLP179 60001 T00220000 51016 FZRANO TSNOEQDQ01  00028PRCP03
0267720407004622022040603567+39928-074292FM-15+0025KMJX V0200205N00315000915MN0080475N5+00835+00835101285ADDAA101000021AU110020015AU200001015AW1105AW2615GA1085+000915999GD14991+0009159GE19AGL   +99999+99999GF199999999999000911999999MA1101255100955MW1615REMMET11004/05/22 22:56:01 METAR KMJX 060356Z 02006KT 5SM -RA BR OVC003 08/08 A2990 RMK AO2 SLP128 P0000 T00830083 TSNO
002772040700462202204060459O+39928-074292SOD  +0025KMJX V020999999999999999999999999999+99999+99999999999ADDAT1AU16RA  5AT2AU13BR  5
0287720407004622022040606567+39928-074292FM-15+0025KMJX V0200405N00465000915MN0144845N5+00835+00835100925ADDAU120020015AW1625GA1075+000915999GA2085+003355999GD13991+0009159GD24991+0033559GE19AGL   +99999+99999GF199999999999000911999999MA1100885100585MW1655REMMET10804/06/22 01:56:01 METAR KMJX 060656Z 04009KT 9SM RA BKN003 OVC011 08/08 A2979 RMK AO2 SLP092 T00830083 PNO $EQDR01   PNO7AAP062
0250720407004622022040607567+39928-074292FM-15+0025KMJX V0200405N00575000915MN0160935N5+00895+00835100795ADDAU120020015AW1625GA1085+000915999GD14991+0009159GE19AGL   +99999+99999GF199999999999000911999999MA1100755100455MW1655REMMET10204/06/22 02:56:01 METAR KMJX 060756Z 04011KT 10SM RA OVC003 09/08 A2975 RMK AO2 SLP079 T00890083 PNO $EQDR01   PNO7AAP062
0275720407004622022040608567+39928-074292FM-15+0025KMJX V0200505N00415000915MN0144845N5+00945+00895100685ADDAU120020015AW1625GA1085+000915999GD14991+0009159GE19AGL   +99999+99999GF199999999999000911999999MA1100645100345MD1690389+9999MW1655REMMET11304/06/22 03:56:01 METAR KMJX 060856Z 05008KT 9SM RA OVC003 09/09 A2972 RMK AO2 SLP068 6//// T00940089 56038 PNO $EQDR01   PNO7AAP062
0250720407004622022040609567+39928-074292FM-15+0025KMJX V0200505N00465000915MN0144845N5+01005+00945100545ADDAU110020015AW1615GA1085+000915999GD14991+0009159GE19AGL   +99999+99999GF199999999999000911999999MA1100515100215MW1615REMMET10204/06/22 04:56:01 METAR KMJX 060956Z 05009KT 9SM -RA OVC003 10/09 A2968 RMK AO2 SLP054 T01000094 PNO $EQDR01   PNO7AAP062
0249720407004622022040611177+39928-074292FM-15+0025KMJX V0200505N00575000915MN0028165N5+01005+01005999999ADDAA101000021AU110020015AU200001015AW1105AW2615GA1085+000915999GD14991+0009159GE19AGL   +99999+99999GF199999999999000911999999MA1100475100185MW1615REMMET09204/06/22 06:17:01 METAR KMJX 061117Z 05011KT 1 3/4SM -RA BR OVC003 10/10 A2967 RMK AO2 P0000
0245720407004622022040611257+39928-074292FM-15+0025KMJX V0200505N00575000915MN0048285N5+01005+01005999999ADDAA101000021AU110020015AU200001015AW1105AW2615GA1085+000915999GD14991+0009159GE19AGL   +99999+99999GF199999999999000911999999MA1100475100185MW1615REMMET08804/06/22 06:25:01 METAR KMJX 061125Z 05011KT 3SM -RA BR OVC003 10/10 A2967 RMK AO2 P0000
0263720407004622022040617567+39928-074292FM-15+0025KMJX V0200205N00625002135MN0160935N5+01005+00895100845ADDGA1085+002135999GD14991+0021359GE19AGL   +99999+99999GF199999999999002131999999KA1060M+01061KA2060N+00941MA1100815100515MD1390159+9999REMMET11704/06/22 12:56:02 METAR KMJX 061756Z 02012KT 10SM OVC007 10/09 A2977 RMK AO2 SLP084 6//// T01000089 10106 20094 53015
0223720407004622022040618567+39928-074292FM-15+0025KMJX V0200205N00575002135MN0096565N5+01065+00945100915ADDAU100001015AW1105GA1085+002135999GD14991+0021359GE19AGL   +99999+99999GF199999999999002131999999MA1100885100585REMMET10004/06/22 13:56:02 METAR KMJX 061856Z 02011KT 6SM BR OVC007 11/09 A2979 RMK AO2 SLP091 T01060094 TSNO
0226720407004622022040620567+39928-074292FM-15+0025KMJX V0200405N00885002745MN0160935N5+01115+00895100945ADDGA1085+002745999GD14991+0027459GE19AGL   +99999+99999GF199999999999002741999999MA1100915100625MD1190109+9999REMMET10604/06/22 15:56:02 METAR KMJX 062056Z 04017KT 10SM OVC009 11/09 A2980 RMK AO2 PRESRR SLP094 T01110089 51010
0198720407004622022040621567+39928-074292FM-15+0025KMJX V0200505N00515002135MN0112655N5+00945+00835101145ADDGA1085+002135999GD14991+0021359GE19AGL   +99999+99999GF199999999999002131999999MA1101125100825REMMET09204/06/22 16:56:02 METAR KMJX 062156Z 05010KT 7SM OVC007 09/08 A2986 RMK AO2 SLP114 T00940083
0201720407004622022040623217+39928-074292FM-15+0025KMJX V0200605N00465001525MN0096565N5+00905+00805999999ADDAU100001015AW1105GA1085+001525999GD14991+0015259GE19AGL   +99999+99999GF199999999999001521999999MA1101195100895REMMET07804/06/22 18:21:02 METAR KMJX 062321Z 06009KT 6SM BR OVC005 09/08 A2988 RMK AO2
0263720407004622022040623437+39928-074292FM-15+0025KMJX V0200605N00415001525MN0040235V5+00905+00805999999ADDAA101000021AU110020015AU200001015AW1105AW2615GA1085+001525999GD14991+0015259GE19AGL   +99999+99999GF199999999999001521999999MA1101225100925MW1615REMMET10604/06/22 18:43:02 METAR KMJX 062343Z 06008KT 2 1/2SM -RA BR OVC005 09/08 A2989 RMK AO2 VIS 2V3 RAB36 P0000
0245720407004622022040700247+39928-074292FM-15+0025KMJX V0200705N00415000915MN0048285N5+00905+00805999999ADDAA101000021AU110020015AU200001015AW1105AW2615GA1085+000915999GD14991+0009159GE19AGL   +99999+99999GF199999999999000911999999MA1101225100925MW1615REMMET08804/06/22 19:24:01 METAR KMJX 070024Z 07008KT 3SM -RA BR OVC003 09/08 A2989 RMK AO2 P0000
0231720407004622022040701247+39928-074292FM-15+0025KMJX V0200705N00415001525MN0144845N5+00905+00805999999ADDAA101000021AU110020015AW1615GA1085+001525999GD14991+0015259GE19AGL   +99999+99999GF199999999999001521999999MA1101295100995MW1615REMMET09104/06/22 20:24:01 METAR KMJX 070124Z 07008KT 9SM -RA OVC005 09/08 A2991 RMK AO2 RAB14 P0000
0267720407004622022040702567+39928-074292FM-15+0025KMJX V0200705N00365002135MN0160935N5+00835+00785101385ADDAA103000021GA1085+002135999GD14991+0021351GE19AGL   +99999+99999GF199999999999002131999999MA1101355101055MD1190119+9999REMMET11704/06/22 21:56:01 METAR KMJX 070256Z 07007KT 10SM OVC007 08/08 A2993 RMK AO2 CIG 006V010 SLP138 60000 T00830078 51011EQDQ01  00008PRCP03
0199720407004622022040703567+39928-074292FM-15+0025KMJX V0200805N00315002135MN0160935N5+00785+00725101355ADDGA1085+002135999GD14991+0021359GE19AGL   +99999+99999GF199999999999002131999999MA1101325101025REMMET09304/06/22 22:56:01 METAR KMJX 070356Z 08006KT 10SM OVC007 08/07 A2992 RMK AO2 SLP135 T00780072
002772040700462202204070459O+39928-074292SOD  +0025KMJX V020999999999999999999999999999+99999+99999999999ADDAT1AU16RA  5AT2AU13BR  5
0182720407004622022040705297+39928-074292FM-15+0025KMJX V0200805N00215001525MN0160935N5+00805+00705999999ADDGA1085+001525999GD14991+0015259GE19AGL   +99999+99999GF199999999999001521999999MA1101295100995REMMET07604/07/22 00:29:01 METAR KMJX 070529Z 08004KT 10SM OVC005 08/07 A2991 RMK AO2
0201720407004622022040706297+39928-074292FM-15+0025KMJX V0200705N00215000915MN0064375N5+00805+00705999999ADDAU100001015AW1105GA1085+000915999GD14991+0009159GE19AGL   +99999+99999GF199999999999000911999999MA1101325101025REMMET07804/07/22 01:29:01 METAR KMJX 070629Z 07004KT 4SM BR OVC003 08/07 A2992 RMK AO2
0201720407004622022040706407+39928-074292FM-15+0025KMJX V0200805N00315000915MN0032195N5+00705+00705999999ADDAU100001015AW1105GA1085+000915999GD14991+0009159GE19AGL   +99999+99999GF199999999999000911999999MA1101325101025REMMET07804/07/22 01:40:01 METAR KMJX 070640Z 08006KT 2SM BR OVC003 07/07 A2992 RMK AO2
0222720407004622022040706567+39928-074292FM-15+0025KMJX V0200905N00315000915MN0040235N5+00725+00725101315ADDAU100001015AW1105GA1085+000915999GD14991+0009159GE19AGL   +99999+99999GF199999999999000911999999MA1101295100995REMMET09904/07/22 01:56:01 METAR KMJX 070656Z 09006KT 2 1/2SM BR OVC003 07/07 A2991 RMK AO2 SLP131 T00720072
0208720407004622022040707037+39928-074292FM-15+0025KMJX V0200905N00365000915MN0048285N5+00705+00705999999ADDAU100001015AW1105GA1085+000915999GD14991+0009159GE19AGL   +99999+99999GF199999999999000911999999MA1101225100925REMMET08504/07/22 02:03:01 METAR KMJX 070703Z 09007KT 3SM BR OVC003 07/07 A2989 RMK AO2 PRESFR
0205720407004622022040707157+39928-074292FM-15+0025KMJX V0209999V00265000915MN0040235N5+00705+00705999999ADDAU100001015AW1105GA1085+000915999GD14991+0009159GE19AGL   +99999+99999GF199999999999000911999999MA1101225100925REMMET08204/07/22 02:15:01 METAR KMJX 070715Z VRB05KT 2 1/2SM BR OVC003 07/07 A2989 RMK AO2
0201720407004622022040707297+39928-074292FM-15+0025KMJX V0200805N00365000915MN0048285N5+00705+00705999999ADDAU100001015AW1105GA1085+000915999GD14991+0009159GE19AGL   +99999+99999GF199999999999000911999999MA1101225100925REMMET07804/07/22 02:29:01 METAR KMJX 070729Z 08007KT 3SM BR OVC003 07/07 A2989 RMK AO2
0236720407004622022040709567+39928-074292FM-15+0025KMJX V0200705N00515000915MN0080475N5+00675+00615100955ADDAU100001015AW1105GA1085+000915999GD14991+0009159GE19AGL   +99999+99999GF199999999999000911999999MA1100915100625OC100775REMMET10504/07/22 04:56:01 METAR KMJX 070956Z 07010G15KT 5SM BR OVC003 07/06 A2980 RMK AO2 PRESFR SLP095 T00670061
0216720407004622022040710487+39928-074292FM-15+0025KMJX V0200805V00515000915MN0028165N5+00705+00605999999ADDAU100001015AW1105GA1085+000915999GD14991+0009159GE19AGL   +99999+99999GF199999999999000911999999MA1100985100685OC100885REMMET08504/07/22 05:48:01 METAR KMJX 071048Z 08010G17KT 1 3/4SM BR OVC003 07/06 A2982 RMK AO2
0272720407004622022040710567+39928-074292FM-15+0025KMJX V0200805N00415000915MN0020125N5+00675+00615101055ADDAA101000021AU110020015AU200001015AW1105AW2615GA1085+000915999GD14991+0009159GE19AGL   +99999+99999GF199999999999000911999999MA1101025100725MW1615REMMET11504/07/22 05:56:01 METAR KMJX 071056Z 08008KT 1 1/4SM -RA BR OVC003 07/06 A2983 RMK AO2 RAB55 SLP105 P0000 T00670061
0235720407004622022040711117+39928-074292FM-15+0025KMJX V0200905N00415000915MN0032195N5+00705+00705999999ADDAA101000021AU100001015AW1105GA1085+000915999GD14991+0009159GE19AGL   +99999+99999GF199999999999000911999999MA1101025100725OC100725REMMET09304/07/22 06:11:01 METAR KMJX 071111Z 09008G14KT 2SM BR OVC003 07/07 A2983 RMK AO2 RAE09 P0000
0228720407004622022040711227+39928-074292FM-15+0025KMJX V0200905N00365000915MN0024145N5+00705+00705999999ADDAA101000021AU100001015AW1105GA1085+000915999GD14991+0009159GE19AGL   +99999+99999GF199999999999000911999999MA1101055100755REMMET09404/07/22 06:22:01 METAR KMJX 071122Z 09007KT 1 1/2SM BR OVC003 07/07 A2984 RMK AO2 RAE09 P0000
0263720407004622022040712197+39928-074292FM-15+0025KMJX V0200805V00415000915MN0016095N5+00705+00705999999ADDAA101000021AU110020015AU200001015AW1105AW2615GA1085+000915999GD14991+0009159GE19AGL   +99999+99999GF199999999999000911999999MA1100985100685MW1615OC100885REMMET09804/07/22 07:19:02 METAR KMJX 071219Z 08008G17KT 1SM -RA BR OVC003 07/07 A2982 RMK AO2 PRESFR P0000
0260720407004622022040712317+39928-074292FM-15+0025KMJX V0200905N00515000915MN0020125N5+00705+00705999999ADDAA101000021AU110020015AU200001015AW1105AW2615GA1085+000915999GD14991+0009159GE19AGL   +99999+99999GF199999999999000911999999MA1100985100685MW1615OC100725REMMET09504/07/22 07:31:02 METAR KMJX 071231Z 09010G14KT 1 1/4SM -RA BR OVC003 07/07 A2982 RMK AO2 P0000
0263720407004622022040713087+39928-074292FM-15+0025KMJX V0200805N00575000915MN0016095N5+00705+00705999999ADDAA101000021AU110020015AU200001015AW1105AW2615GA1085+000915999GD14991+0009159GE19AGL   +99999+99999GF199999999999000911999999MA1100955100655MW1615OC100775REMMET09804/07/22 08:08:02 METAR KMJX 071308Z 08011G15KT 1SM -RA BR OVC003 07/07 A2981 RMK AO2 PRESFR P0000
0333720407004622022040714567+39928-074292FM-15+0025KMJX V0200905N00465000915MN0020125N5+00835+00785100925ADDAA101000021AA203000021AU110020015AU200001015AW1105AW2615GA1085+000915999GD14991+0009159GE19AGL   +99999+99999GF199999999999000911999999MA1100885100585MD1690229+9999MW1615OC100725REMMET12404/07/22 09:56:02 METAR KMJX 071456Z 09009G14KT 1 1/4SM -RA BR OVC003 08/08 A2979 RMK AO2 SLP092 P0000 60000 T00830078 56022EQDQ01  00008PRCP03
0260720407004622022040715227+39928-074292FM-15+0025KMJX V0200705N00415000915MN0020125N5+00805+00805999999ADDAA101000021AU110020015AU200001015AW1105AW2615GA1085+000915999GD14991+0009159GE19AGL   +99999+99999GF199999999999000911999999MA1100885100585MW1615OC100725REMMET09504/07/22 10:22:02 METAR KMJX 071522Z 07008G14KT 1 1/4SM -RA BR OVC003 08/08 A2979 RMK AO2 P0000
0197720407004622022040715336+39928-074292FM-15+0025KMJX V0200805V00365000915MN0016095N5+00805+00805999999ADDAA101000021AU110020015AU200001015AW1105AW2615GA1085+000915999GD14991+0009159MA1100885100585MW1615REMMET08804/07/22 10:33:02 METAR KMJX 071533Z 08007KT 1SM -RA BR OVC003 08/08 A2979 RMK AO2 P0000
0245720407004622022040717447+39928-074292FM-15+0025KMJX V0200905V00515000915MN0064375N5+00905+00905999999ADDAU110020015AU200001015AW1105AW2615GA1085+000915999GD14991+0009159GE19AGL   +99999+99999GF199999999999000911999999MA1100545100245MW1615OC100935REMMET09104/07/22 12:44:02 METAR KMJX 071744Z 09010G18KT 4SM -RA BR OVC003 09/09 A2969 RMK AO2 PNO $
0261720407004622022040717547+39928-074292FM-15+0025KMJX V0200905N00465000915MN0028165V5+00905+00905999999ADDAU110020015AU200001015AW1105AW2615GA1085+000915999GD14991+0009159GE19AGL   +99999+99999GF199999999999000911999999MA1100515100215MW1615OC100985REMMET10704/07/22 12:54:02 METAR KMJX 071754Z 09009G19KT 1 3/4SM -RA BR OVC003 09/09 A2968 RMK AO2 VIS 1 1/4V4 PNO $
0237720407004622022040718566+39928-074292FM-15+0025KMJX V0201105N00465000915MN0028165N5+01005+00945100485ADDAU110020015AU200001015AW1105AW2615GA1085+000915999GD14991+0009159MA1100445100145MW1615OC100885REMMET11204/07/22 13:56:02 METAR KMJX 071856Z 11009G17KT 1 3/4SM -RA BR OVC003 10/09 A2966 RMK AO2 SLP048 T01000094 PNO $EQDR01   PNO7AAP062
0245720407004622022040719197+39928-074292FM-15+0025KMJX V0201105N00675000915MN0048285N5+01005+01005999999ADDAU110020015AU200001015AW1105AW2615GA1085+000915999GD14991+0009159GE19AGL   +99999+99999GF199999999999000911999999MA1100415100115MW1615OC100985REMMET09104/07/22 14:19:02 METAR KMJX 071919Z 11013G19KT 3SM -RA BR OVC003 10/10 A2965 RMK AO2 PNO $
0224720407004622022040719377+39928-074292FM-15+0025KMJX V0201205N00575000915MN0032195N5+01105+01005999999ADDAU100001015AW1105GA1085+000915999GD14991+0009159GE19AGL   +99999+99999GF199999999999000911999999MA1100375100075OC101035REMMET09304/07/22 14:37:02 METAR KMJX 071937Z 12011G20KT 2SM BR OVC003 11/10 A2964 RMK AO2 RAE35 PNO $
0260720407004622022040719567+39928-074292FM-15+0025KMJX V0201205N00675000915MN0032195N5+01065+01065100385ADDAU100001015AW1105GA1085+000915999GD14991+0009159GE19AGL   +99999+99999GF199999999999000911999999MA1100345100045OC100985REMMET11004/07/22 14:56:02 METAR KMJX 071956Z 12013G19KT 2SM BR OVC003 11/11 A2963 RMK AO2 RAE35 SLP038 T01060106 PNO $EQDR01   PNO7AAP062
0222720407004622022040720097+39928-074292FM-15+0025KMJX V0201205N00575000915MN0028165N5+01105+01105999999ADDAU100001015AW1105GA1085+000915999GD14991+0009159GE19AGL   +99999+99999GF199999999999000911999999MA1100345100045OC101085REMMET09104/07/22 15:09:02 METAR KMJX 072009Z 12011G21KT 1 3/4SM BR OVC003 11/11 A2963 RMK AO2 PNO $
0322720407004622022040720567+39928-074292FM-15+0025KMJX V0201205N00675000915MN0028165N5+01175+01115100275ADDAU110020015AU200001015AW1105AW2615GA1085+000915999GD14991+0009159GE19AGL   +99999+99999GF199999999999000911999999MA1100245099945MD1890289+9999MW1615OC101035REMMET13504/07/22 15:56:02 METAR KMJX 072056Z 12013G20KT 1 3/4SM -RA BR OVC003 12/11 A2960 RMK AO2 RAB44 SLP027 6//// T01170111 58028 TSNO PNO $EQDR01   PNO7AAP062
0245720407004622022040722027+39928-074292FM-15+0025KMJX V0201205N00515000915MN0048285N5+01205+01205999999ADDAU110020015AU200001015AW1105AW2615GA1085+000915999GD14991+0009159GE19AGL   +99999+99999GF199999999999000911999999MA1100175099875MW1615OC100885REMMET09104/07/22 17:02:02 METAR KMJX 072202Z 12010G17KT 3SM -RA BR OVC003 12/12 A2958 RMK AO2 PNO $
0281720407004622022040722567+39928-074292FM-15+0025KMJX V0201305N00515000915MN0048285N5+01225+01225100115ADDAU110020015AU200001015AW1105AW2615GA1085+000915999GD14991+0009159GE19AGL   +99999+99999GF199999999999000911999999MA1100075099775MW1615OC100885REMMET10804/07/22 17:56:02 METAR KMJX 072256Z 13010G17KT 3SM -RA BR OVC003 12/12 A2955 RMK AO2 SLP011 T01220122 PNO $EQDR01   PNO7AAP062
0249720407004622022040723037+39928-074292FM-15+0025KMJX V0201205N00465000915MN0040235N5+01205+01205999999ADDAU110020015AU200001015AW1105AW2615GA1085+000915999GD14991+0009159GE19AGL   +99999+99999GF199999999999000911999999MA1100075099775MW1615OC100825REMMET09504/07/22 18:03:02 METAR KMJX 072303Z 12009G16KT 2 1/2SM -RA BR OVC003 12/12 A2955 RMK AO2 PNO $
0228720407004622022040723367+39928-074292FM-15+0025KMJX V0201305N00625000915MN0020125N5+01305+01205999999ADDAU100001015AW1105GA1085+000915999GD14991+0009159GE19AGL   +99999+99999GF199999999999000911999999MA1100005099705OC100935REMMET09704/07/22 18:36:02 METAR KMJX 072336Z 13012G18KT 1 1/4SM BR OVC003 13/12 A2953 RMK AO2 RAE33 PNO $
0340720407004622022040723567+39928-074292FM-15+0025KMJX V0201305N00625000915MN0020125N5+01285+01285099995ADDAU100001015AW1105GA1085+000915999GD14991+0009159GE19AGL   +99999+99999GF199999999999000911999999KA1060M+01281KA2060N+00941MA1099975099675MD1890289+9999OC101035REMMET15004/07/22 18:56:02 METAR KMJX 072356Z 13012G20KT 1 1/4SM BR OVC003 13/13 A2952 RMK AO2 LTG DSNT NW RAE33 SLP999 6//// T01280128 10128 20094 58028 PNO $EQDR01   PNO7AAP062
0263720407004622022040800567+39928-074292FM-15+0025KMJX V0201405N00775000915MN0048285N5+01395+01335100035ADDAU100001015AW1105GA1085+000915999GD14991+0009159GE19AGL   +99999+99999GF199999999999000911999999MA1100005099705OC101295REMMET11304/07/22 19:56:01 METAR KMJX 080056Z 14015G25KT 3SM BR OVC003 14/13 A2953 RMK AO2 RAB00E48 SLP003 T01390133 PNO $EQDR01   PNO7AAP062
0244720407004622022040801267+39928-074292FM-15+0025KMJX V0201505N00675000915MN0040235N5+01305+01305999999ADDAU110020015AU200001015AW1105AW2615GA1085+000915999GD14991+0009159GE19AGL   +99999+99999GF199999999999000911999999MA1100035099745MW1615REMMET09804/07/22 20:26:01 METAR KMJX 080126Z 15013KT 2 1/2SM -RA BR OVC003 13/13 A2954 RMK AO2 RAB09 PNO $
0216720407004622022040801357+39928-074292FM-15+0025KMJX V0201505N00515000915MN0048285N5+01405+01405999999ADDAU100001015AW1105GA1085+000915999GD14991+0009159GE19AGL   +99999+99999GF199999999999000911999999MA1100035099745REMMET09304/07/22 20:35:01 METAR KMJX 080135Z 15010KT 3SM BR OVC003 14/14 A2954 RMK AO2 RAB09E33 PNO $
0252720407004622022040803147+39928-074292FM-15+0025KMJX V0202605N00625001525MN0040235V5+01405+01305999999ADDAU110020015AU200001015AW1105AW2615GA1085+001525999GD14991+0015259GE19AGL   +99999+99999GF199999999999001521999999MA1099935099645MW1615REMMET10604/07/22 22:14:02 METAR KMJX 080314Z 26012KT 2 1/2SM -RA BR OVC005 14/13 A2951 RMK AO2 VIS 1V5 RAB09 PNO $
0233720407004622022040803567+39928-074292FM-15+0025KMJX V0202805N00465001525MN0160935N5+01175+01115099965ADDGA1085+001525999GD14991+0015259GE19AGL   +99999+99999GF199999999999001521999999MA1099935099645REMMET10804/07/22 22:56:02 METAR KMJX 080356Z 28009KT 10SM OVC005 12/11 A2951 RMK AO2 RAB09E27 SLP996 T01170111 PNO $EQDR01   PNO7AAP062
0293720407004622022040804567+39928-074292FM-15+0025KMJX V0202805N00415001525MN0160935N5+01065+01065099905ADDAU110020015AW1615GA1085+001525999GD14991+0015259GE19AGL   +99999+99999GF199999999999001521999999KA1240M+01501KA2240N+00671MA1099865099575MW1615REMMET11904/07/22 23:56:02 METAR KMJX 080456Z 28008KT 10SM -RA OVC005 11/11 A2949 RMK AO2 RAB45 SLP990 T01060106 401500067 PNO $EQDR01   PNO7AAP062
002772040700462202204080459O+39928-074292SOD  +0025KMJX V020999999999999999999999999999+99999+99999999999ADDAT1AU16RA  5AT2AU13BR  5
0243720407004622022040806567+39928-074292FM-15+0025KMJX V0202805N00575001525MN0096565N5+01005+00945100055ADDAU100001015AW1105GA1085+001525999GD14991+0015259GE19AGL   +99999+99999GF199999999999001521999999MA1100035099745REMMET10104/08/22 01:56:02 METAR KMJX 080656Z 28011KT 6SM BR OVC005 10/09 A2954 RMK AO2 SLP005 T01000094 PNO $EQDR01   PNO7AAP062
0262720407004622022040807567+39928-074292FM-15+0025KMJX V0202705N00465005495MN0160935N5+00945+00835100155ADDGA1025+003355999GA2085+005495999GD11991+0033559GD24991+0054959GE19AGL   +99999+99999GF199999999999003351999999MA1100145099845REMMET10604/08/22 02:56:02 METAR KMJX 080756Z 27009KT 10SM FEW011 OVC018 09/08 A2957 RMK AO2 SLP015 T00940083 PNO $EQDR01   PNO7AAP062
0207720407004622022040809277+39928-074292FM-15+0025KMJX V0202705N005752200059N0160935N5+00805+00705999999ADDGA1045+003055999GD12991+0030559GE19AGL   +99999+99999GF104995999999003051999999MA1100205099915REMMET08204/08/22 04:27:02 METAR KMJX 080927Z 27011KT 10SM SCT010 08/07 A2959 RMK AO2 PNO $EQDD01      0ADE726
0199720407004622022040810567+39928-074292FM-15+0025KMJX V0202705N004652200059N0160935N5+00725+00615100345ADDGA1005+999999999GD10991+9999999GF100991999999999999999999MA1100305100015REMMET09604/08/22 05:56:02 METAR KMJX 081056Z 27009KT 10SM CLR 07/06 A2962 RMK AO2 SLP034 T00720061 PNO $EQDR01   PNO7AAP062
0199720407004622022040812567+39928-074292FM-15+0025KMJX V0202805N005752200059N0160935N5+01115+00675100485ADDGA1005+999999999GD10991+9999999GF100991999999999999999999MA1100445100145REMMET09604/08/22 07:56:02 METAR KMJX 081256Z 28011KT 10SM CLR 11/07 A2966 RMK AO2 SLP048 T01110067 PNO $EQDR01   PNO7AAP062
0199720407004622022040813567+39928-074292FM-15+0025KMJX V0202805N004652200059N0160935N5+01285+00675100555ADDGA1005+999999999GD10991+9999999GF100991999999999999999999MA1100515100215REMMET09604/08/22 08:56:02 METAR KMJX 081356Z 28009KT 10SM CLR 13/07 A2968 RMK AO2 SLP055 T01280067 PNO $EQDR01   PNO7AAP062
0256720407004622022040815567+39928-074292FM-15+0025KMJX V0202605N006752200059N0160935N5+01615+00505100545ADDGA1045+011585999GD12991+0115859GE19AGL   +99999+99999GF104995999999011581999999MA1100515100215OC100935REMMET10704/08/22 10:56:02 METAR KMJX 081556Z 26013G18KT 10SM SCT038 16/05 A2968 RMK AO2 SLP054 T01610050 TSNO PNO $EQDR01   PNO7AAP062D01      0ADE726
0182720407004622022040818567+39928-074292FM-15+0025KMJX V0202305N003659999999N0160935N5+01785-00115100485ADDMA1100445100145OC100885REMMET09604/08/22 13:56:02 METAR KMJX 081856Z 23007G17KT 10SM 18/M01 A2966 RMK AO2 SLP048 T01781011 PNO $EQDR01      7SKY009R02   PNO7AAP062R03      7GAS009
0216720407004622022040819567+39928-074292FM-15+0025KMJX V0202205N006252200059N0160935N5+01835-00285100485ADDGA1005+999999999GD10991+9999999GF100991999999999999999999MA1100445100145OC100775REMMET10504/08/22 14:56:02 METAR KMJX 081956Z 22012G15KT 10SM CLR 18/M03 A2966 RMK AO2 SLP048 T01831028 TSNO PNO $EQDR01   PNO7AAP062
0278720407004622022040820567+39928-074292FM-15+0025KMJX V0202505N005152200059N0160935N5+01835-00225100505ADDGA1025+025915999GD11991+0259159GE19AGL   +99999+99999GF102995999999025911999999MA1100475100185MD1590019+9999OC101035REMMET11504/08/22 15:56:02 METAR KMJX 082056Z 25010G20KT 10SM FEW085 18/M02 A2967 RMK AO2 SLP050 6//// T01831022 55001 PNO $EQDR01   PNO7AAP062D01      0ADE726
0268720407004622022040823567+39928-074292FM-15+0025KMJX V0201805N004652200059N0160935N5+01175+00335100615ADDGA1005+999999999GD10991+9999999GF100991999999999999999999KA1060M+01831KA2060N+01171MA1100585100285MD1390109+9999REMMET12504/08/22 18:56:02 METAR KMJX 082356Z 18009KT 10SM CLR 12/03 A2970 RMK AO2 SLP061 6//// T01170033 10183 20117 53010 TSNO PNO $EQDR01   PNO7AAP062
0240720407004622022040900567+39928-074292FM-15+0025KMJX V0201905N002652200059N0160935N5+01065+00285100645ADDGA1045+036585999GD12991+0365859GE19AGL   +99999+99999GF104995999999036581999999MA1100615100315REMMET09904/08/22 19:56:01 METAR KMJX 090056Z 19005KT 10SM SCT120 11/03 A2971 RMK AO2 SLP064 T01060028 PNO $EQDR01   PNO7AAP062D01      0ADE726
001572040700462202204090459O+39928-074292SOD  +0025KMJX V020999999999999999999999999999+99999+99999999999ADDAT1AU13BR  5
0332720407004622022040905567+39928-074292FM-15+0025KMJX V0202605N00265033535MN0160935N5+00895+00615100525ADDGA1025+027435999GA2075+033535999GD11991+0274359GD23991+0335359GE19AGL   +99999+99999GF199999999999027431999999KA1060M+01171KA2060N+00781MA1100475100185MD1690099+9999REMMET13604/09/22 00:56:02 METAR KMJX 090556Z 26005KT 10SM FEW090 BKN110 09/06 A2967 RMK AO2 RAE48 SLP052 6//// T00890061 10117 20078 56009 PNO $EQDR01   PNO7AAP062
0224720407004622022040909567+39928-074292FM-15+0025KMJX V0209999C000052200059N0096565N5+00565+00505100435ADDAU100001015AW1105GA1005+999999999GD10991+9999999GF100991999999999999999999MA1100415100115REMMET10404/09/22 04:56:02 METAR KMJX 090956Z 00000KT 6SM BR CLR 06/05 A2965 RMK AO2 RAE04 SLP043 T00560050 PNO $EQDR01   PNO7AAP062
0229720407004622022040912567+39928-074292FM-15+0025KMJX V0201905N00265010065MN0160935N5+00895+00785100475ADDGA1085+010065999GD14991+0100659GE19AGL   +99999+99999GF199999999999010061999999MA1100445100145REMMET10404/09/22 07:56:02 METAR KMJX 091256Z 19005KT 10SM OVC033 09/08 A2966 RMK AO2 SLP047 T00890078 TSNO PNO $EQDR01   PNO7AAP062
0231720407004622022040913307+39928-074292FM-15+0025KMJX V0202505N00465008845MN0160935N5+00905+00805999999ADDGA1045+002745999GA2085+008845999GD12991+0027459GD24991+0088459GE19AGL   +99999+99999GF199999999999002741999999MA1100445100145REMMET09404/09/22 08:30:02 METAR KMJX 091330Z 25009KT 10SM SCT009 OVC029 09/08 A2966 RMK AO2 TSNO PNO $
0283720407004622022040913537+39928-074292FM-15+0025KMJX V0202205N004152200059N0160935N5+01105+00805999999ADDGA1025+002745999GA2045+008235999GA3045+018295999GD11991+0027459GD22991+0082359GD32991+0182959GE19AGL   +99999+99999GF104995999999002741999999MA1100445100145REMMET09604/09/22 08:53:02 METAR KMJX 091353Z 22008KT 10SM FEW009 SCT027 SCT060 11/08 A2966 RMK AO2 PNO $EQDD01      0ADE726
0229720407004622022040921567+39928-074292FM-15+0025KMJX V0202605N00415027435MN0160935N5+01335+00175100415ADDGA1075+027435999GD13991+0274359GE19AGL   +99999+99999GF199999999999027431999999MA1100375100075REMMET10404/09/22 16:56:02 METAR KMJX 092156Z 26008KT 10SM BKN090 13/02 A2964 RMK AO2 SLP041 T01330017 TSNO PNO $EQDR01   PNO7AAP062
0229720407004622022041001567+39928-074292FM-15+0025KMJX V0202505N00215030485MN0160935N5+00785+00395100615ADDGA1085+030485999GD14991+0304859GE19AGL   +99999+99999GF199999999999030481999999MA1100585100285REMMET10404/09/22 20:56:01 METAR KMJX 100156Z 25004KT 10SM OVC100 08/04 A2970 RMK AO2 SLP061 T00780039 TSNO PNO $EQDR01   PNO7AAP062
001572040700462202204100459O+39928-074292SOD  +0025KMJX V020999999999999999999999999999+99999+99999999999ADDAT1AU13BR  5
0288720407004622022041005567+39928-074292FM-15+0025KMJX V0209999C00005030485MN0160935N5+00565+00395100605ADDGA1075+030485999GD13991+0304859GE19AGL   +99999+99999GF199999999999030481999999KA1060M+00891KA2060N+00561MA1100585100285MD1890029+9999REMMET12304/10/22 00:56:02 METAR KMJX 100556Z 00000KT 10SM BKN100 06/04 A2970 RMK AO2 SLP060 6//// T00560039 10089 20056 58002 PNO $EQDR01   PNO7AAP062
0245720407004622022041006567+39928-074292FM-15+0025KMJX V0202705N001552200059N0160935N5+00615+00395100605ADDGA1025+021345999GD11991+0213459GE19AGL   +99999+99999GF102995999999021341999999MA1100585100285REMMET10404/10/22 01:56:02 METAR KMJX 100656Z 27003KT 10SM FEW070 06/04 A2970 RMK AO2 SLP060 T00610039 TSNO PNO $EQDR01   PNO7AAP062D01      0ADE726
0315720407004622022041008567+39928-074292FM-15+0025KMJX V0203105N005752200059N0160935N5+00675+00225100685ADDGA1025+011585999GA2045+027435999GD11991+0115859GD22991+0274359GE19AGL   +99999+99999GF104995999999011581999999MA1100645100345MD1390089+9999OC100885REMMET12104/10/22 03:56:02 METAR KMJX 100856Z 31011G17KT 10SM FEW038 SCT090 07/02 A2972 RMK AO2 SLP068 6//// T00670022 53008 PNO $EQDR01   PNO7AAP062D01      0ADE726
0224720407004622022041009567+39928-074292FM-15+0025KMJX V0203005N00465013415MN0160935N5+00675+00225100795ADDGA1085+013415999GD14991+0134159GE19AGL   +99999+99999GF199999999999013411999999MA1100755100455REMMET09904/10/22 04:56:02 METAR KMJX 100956Z 30009KT 10SM OVC044 07/02 A2975 RMK AO2 SLP079 T00670022 PNO $EQDR01   PNO7AAP062
0368720407004622022041017567+39928-074292FM-15+0025KMJX V0202805N00775015245MN0160935N5+00785-00175101025ADDAA101000021AU110020015AW1615GA1075+015245999GA2085+021345999GD13991+0152459GD24991+0213459GE19AGL   +99999+99999GF199999999999015241999999KA1060M+01001KA2060N+00671MA1100985100685MD1590039+9999MW1615OC101135REMMET14904/10/22 12:56:02 METAR KMJX 101756Z 28015G22KT 10SM -RA BKN050 OVC070 08/M02 A2982 RMK AO2 RAB48 SLP102 P0000 6//// T00781017 10100 20067 55003 TSNO
0277720407004622022041018567+39928-074292FM-15+0025KMJX V0202805N00575019815MN0160935N5+00895-00175100985ADDAA101000021GA1025+014635999GA2085+019815999GD11991+0146359GD24991+0198159GE19AGL   +99999+99999GF199999999999014631999999MA1100955100655OC101085REMMET12104/10/22 13:56:02 METAR KMJX 101856Z 28011G21KT 10SM FEW048 OVC065 09/M02 A2981 RMK AO2 RAE04 SLP098 P0000 T00891017 TSNO
0334720407004622022041019567+39928-074292FM-15+0025KMJX V0202905N00515021345MN0160935N5+00835-00175101025ADDAA101000021GA1045+015245999GA2075+021345999GA3085+025915999GD12991+0152459GD23991+0213459GD34991+0259159GE19AGL   +99999+99999GF199999999999015241999999MA1100985100685OD149901391310REMMET14104/10/22 14:56:02 METAR KMJX 101956Z 29010KT 10SM SCT050 BKN070 OVC085 08/M02 A2982 RMK AO2 PK WND 31027/1934 RAB25E50 SLP102 P0000 T00831017
0310720407004622022041020567+39928-074292FM-15+0025KMJX V0202905N00675027435MN0160935N5+00895-00175101065ADDAA103000021GA1025+018295999GA2085+027435999GD11991+0182959GD24991+0274359GE19AGL   +99999+99999GF199999999999018291999999MA1101025100725MD1390059+9999OC101135REMMET12104/10/22 15:56:02 METAR KMJX 102056Z 29013G22KT 10SM FEW060 OVC090 09/M02 A2983 RMK AO2 SLP106 60000 T00891017 53005 TSNOEQDQ01  00008PRCP03
0254720407004622022041021567+39928-074292FM-15+0025KMJX V0203005N00725021345MN0160935N5+00835-00225101155ADDGA1075+021345999GA2085+025915999GD13991+0213459GD24991+0259159GE19AGL   +99999+99999GF199999999999021341999999MA1101125100825OC101035REMMET10904/10/22 16:56:02 METAR KMJX 102156Z 30014G20KT 10SM BKN070 OVC085 08/M02 A2986 RMK AO2 SLP115 T00831022 TSNO
0200720407004622022041101567+39928-074292FM-15+0025KMJX V0203105N00265021345MN0160935N5+00725-00285101555ADDGA1085+021345999GD14991+0213459GE19AGL   +99999+99999GF199999999999021341999999MA1101525101225REMMET09404/10/22 20:56:01 METAR KMJX 110156Z 31005KT 10SM OVC070 07/M03 A2998 RMK AO2 SLP155 T00721028
001572040700462202204110459O+39928-074292SOD  +0025KMJX V020999999999999999999999999999+99999+99999999999ADDAT1AU16RA  5
0263720407004622022041105567+39928-074292FM-15+0025KMJX V0203105N00465015245MN0160935N5+00615-00395101765ADDGA1075+015245999GD13991+0152459GE19AGL   +99999+99999GF199999999999015241999999KA1060M+00781KA2060N+00611MA1101735101435MD1190159+9999REMMET11704/11/22 00:56:02 METAR KMJX 110556Z 31009KT 10SM BKN050 06/M04 A3004 RMK AO2 SLP176 T00611039 10078 20061 51015 TSNO
0179720407004622022041122567+39928-074292FM-15+0025KMJX V0201605N003652200059N0160935N5+01225+00285101835ADDGA1005+999999999GD10991+9999999GF100991999999999999999999MA1101795101495REMMET09504/11/22 17:56:02 METAR KMJX 112256Z 16007KT 10SM CLR 12/03 A3006 RMK AO2 SLP183 T01220028 TSNO
0262720407004622022041211567+39928-074292FM-15+0025KMJX V0202505N00215025915MN0160935N5+00835+00565101635ADDGA1085+025915999GD14991+0259159GE19AGL   +99999+99999GF199999999999025911999999KA1060M+00831KA2060N+00611MA1101595101295MD1390099+9999REMMET11604/12/22 06:56:02 METAR KMJX 121156Z 25004KT 10SM OVC085 08/06 A3000 RMK AO2 SLP163 T00830056 10083 20061 53009 TSNO
0209720407004622022041219567+39928-074292FM-15+0025KMJX V0202705V004652200059N0160935N5+02286+00835101635ADDGA1005+999999999GD10991+9999999GF100991999999999999999999MA1101595101295OC100725REMMET09804/12/22 14:56:02 METAR KMJX 121956Z 27009G14KT 10SM CLR 23/08 A3000 RMK AO2 SLP163 T02280083 TSNOEQDR01  02287TMP028
0193720407004622022041300567+39928-074292FM-15+0025KMJX V0209999C000052200059N0160935N5+01176+00785101975ADDGA1005+999999999GD10991+9999999GF100991999999999999999999MA1101935101635REMMET09004/12/22 19:56:01 METAR KMJX 130056Z 00000KT 10SM CLR 12/08 A3010 RMK AO2 SLP197 T01170078EQDR01  01177TMP028
0215720407004622022041304567+39928-074292FM-15+0025KMJX V0209999C000052200059N0160935N5+00615+00445101945ADDGA1005+999999999GD10991+9999999GF100991999999999999999999KA1240M+02331KA2240N+00561MA1101905101595REMMET10504/12/22 23:56:02 METAR KMJX 130456Z 00000KT 10SM CLR 06/04 A3009 RMK AO2 SLP194 T00610044 402330056 TSNO
0174720407004622022041306567+39928-074292FM-15+0025KMJX V0209999C000052200059N0160935N5+00615+00445101885ADDGA1005+999999999GD10991+9999999GF100991999999999999999999MA1101865101565REMMET09004/13/22 01:56:02 METAR KMJX 130656Z 00000KT 10SM CLR 06/04 A3008 RMK AO2 SLP188 T00610044
0204720407004622022041310567+39928-074292FM-15+0025KMJX V0200405N00155030485MN0160935N5+00725+00615101955ADDGA1085+030485999GD14991+0304859GE19AGL   +99999+99999GF199999999999030481999999MA1101935101635REMMET09804/13/22 05:56:02 METAR KMJX 131056Z 04003KT 10SM OVC100 07/06 A3010 RMK AO2 SLP195 T00720061 TSNO
0262720407004622022041311567+39928-074292FM-15+0025KMJX V0209999V00155033535MN0160935N5+01225+01005101965ADDGA1075+033535999GD13991+0335359GE19AGL   +99999+99999GF199999999999033531999999KA1060M+01221KA2060N+00441MA1101935101635MD1390069+9999REMMET11604/13/22 06:56:02 METAR KMJX 131156Z VRB03KT 10SM BKN110 12/10 A3010 RMK AO2 SLP196 T01220100 10122 20044 53006 TSNO
0204720407004622022042516567+39928-074292FM-15+0025KMJX V0200905N00315008235MN0160935N5+01225+00675102505ADDGA1085+008235999GD14991+0082359GE19AGL   +99999+99999GF199999999999008231999999MA1102475102175REMMET09804/25/22 11:56:02 METAR KMJX 251656Z 09006KT 10SM OVC027 12/07 A3026 RMK AO2 SLP250 T01220067 TSNO
0199720407004622022042518567+39928-074292FM-15+0025KMJX V0200805N00415009455MN0160935N5+01225+00675102485ADDGA1085+009455999GD14991+0094559GE19AGL   +99999+99999GF199999999999009451999999MA1102445102145REMMET09304/25/22 13:56:02 METAR KMJX 251856Z 08008KT 10SM OVC031 12/07 A3025 RMK AO2 SLP248 T01220067
0199720407004622022042521567+39928-074292FM-15+0025KMJX V0200905N00315008845MN0160935N5+01225+00675102445ADDGA1085+008845999GD14991+0088459GE19AGL   +99999+99999GF199999999999008841999999MA1102405102105REMMET09304/25/22 16:56:02 METAR KMJX 252156Z 09006KT 10SM OVC029 12/07 A3024 RMK AO2 SLP244 T01220067
0187720407004622022042600307+39928-074292FM-15+0025KMJX V0209999V00265008845MN0160935N5+01105+00705999999ADDGA1085+008845999GD14991+0088459GE19AGL   +99999+99999GF199999999999008841999999MA1102305102005REMMET08104/25/22 19:30:01 METAR KMJX 260030Z VRB05KT 10SM OVC029 11/07 A3021 RMK AO2 TSNO
0204720407004622022042601567+39928-074292FM-15+0025KMJX V0201105N00215008235MN0160935N5+01115+00725102325ADDGA1085+008235999GD14991+0082359GE19AGL   +99999+99999GF199999999999008231999999MA1102305102005REMMET09804/25/22 20:56:01 METAR KMJX 260156Z 11004KT 10SM OVC027 11/07 A3021 RMK AO2 SLP232 T01110072 TSNO
0261720407004622022042604517+39928-074292FM-15+0025KMJX V0201105N00215010675MN0160935N5+01105+00805999999ADDGA1045+007015999GA2085+010675999GD12991+0070159GD24991+0106759GE19AGL   +99999+99999GF199999999999007011999999KA1240M+01281KA2240N+00611MA1102175101875REMMET09804/25/22 23:51:01 METAR KMJX 260451Z 11004KT 10SM SCT023 OVC035 11/08 A3017 RMK AO2 401280061 TSNO
0257720407004622022042605567+39928-074292FM-15+0025KMJX V0201205N00265007015MN0160935N5+01225+00835102155ADDGA1085+007015999GD14991+0070159GE19AGL   +99999+99999GF199999999999007011999999KA1060M+01221KA2060N+01061MA1102135101835MD1690099+9999REMMET11104/26/22 00:56:01 METAR KMJX 260556Z 12005KT 10SM OVC023 12/08 A3016 RMK AO2 SLP215 T01220083 10122 20106 56009
0199720407004622022042607567+39928-074292FM-15+0025KMJX V0200805N00155007015MN0160935N5+01175+00895101985ADDGA1085+007015999GD14991+0070159GE19AGL   +99999+99999GF199999999999007011999999MA1101935101635REMMET09304/26/22 02:56:01 METAR KMJX 260756Z 08003KT 10SM OVC023 12/09 A3010 RMK AO2 SLP198 T01170089
0257720407004622022042611567+39928-074292FM-15+0025KMJX V0201405N00365005795MN0160935N5+01505+01175101935ADDGA1085+005795999GD14991+0057959GE19AGL   +99999+99999GF199999999999005791999999KA1060M+01501KA2060N+01171MA1101905101595MD1890019+9999REMMET11104/26/22 06:56:02 METAR KMJX 261156Z 14007KT 10SM OVC019 15/12 A3009 RMK AO2 SLP193 T01500117 10150 20117 58001
0198720407004622022042612567+39928-074292FM-15+0025KMJX V0201405N00465004575MN0128755N5+01615+01225101845ADDGA1085+004575999GD14991+0045759GE19AGL   +99999+99999GF199999999999004571999999MA1101795101495REMMET09204/26/22 07:56:02 METAR KMJX 261256Z 14009KT 8SM OVC015 16/12 A3006 RMK AO2 SLP184 T01610122
0182720407004622022042613157+39928-074292FM-15+0025KMJX V0201505N00365003965MN0160935N5+01605+01205999999ADDGA1085+003965999GD14991+0039659GE19AGL   +99999+99999GF199999999999003961999999MA1101795101495REMMET07604/26/22 08:15:02 METAR KMJX 261315Z 15007KT 10SM OVC013 16/12 A3006 RMK AO2
0225720407004622022042613517+39928-074292FM-15+0025KMJX V0201405N00465003965MN0160935N5+01705+01305999999ADDGA1025+000305999GA2085+003965999GD11991+0003059GD24991+0039659GE19AGL   +99999+99999GF199999999999000301999999MA1101765101465REMMET08804/26/22 08:51:02 METAR KMJX 261351Z 14009KT 10SM FEW001 OVC013 17/13 A3005 RMK AO2 TSNO
0215720407004622022042613567+39928-074292FM-15+0025KMJX V0201505V00575003965MN0160935N5+01725+01285101795ADDGA1085+003965999GD14991+0039659GE19AGL   +99999+99999GF199999999999003961999999MA1101765101465OC100775REMMET10104/26/22 08:56:02 METAR KMJX 261356Z 15011G15KT 10SM OVC013 17/13 A3005 RMK AO2 SLP179 T01720128 TSNO
0223720407004622022042706567+39928-074292FM-15+0025KMJX V0202805N005152200059N0160935N5+01115+00725101485ADDGA1025+018295999GD11991+0182959GE19AGL   +99999+99999GF102995999999018291999999MA1101465101165REMMET09804/27/22 01:56:01 METAR KMJX 270656Z 28010KT 10SM FEW060 11/07 A2996 RMK AO2 SLP148 T01110072 TSNOEQDD01      0ADE726
0287720407004622022042714567+39928-074292FM-15+0025KMJX V0203005N006752200059N0160935N5+01225-00225101535ADDGA1045+016765999GD12991+0167659GE19AGL   +99999+99999GF104995999999016761999999MA1101495101195MD1790109+9999OC101185OD149901491290REMMET12604/27/22 09:56:02 METAR KMJX 271456Z 30013G23KT 10SM SCT055 12/M02 A2997 RMK AO2 PK WND 29029/1442 SLP153 T01221022 57010 TSNOEQDD01      0ADE726
0218720407004622022042716567+39928-074292FM-15+0025KMJX V0203005N00935018295MN0160935N5+01285-00225101435ADDGA1075+018295999GD13991+0182959GE19AGL   +99999+99999GF199999999999018291999999MA1101395101095REMMET11204/27/22 11:56:02 METAR KMJX 271656Z 30018KT 10SM BKN060 13/M02 A2994 RMK AO2 PK WND 29028/1622 SLP143 T01281022
0301720407004622022042720567+39928-074292FM-15+0025KMJX V0202905N00885018295MN0160935N5+01225-00225101485ADDGA1075+018295999GA2085+022865999GD13991+0182959GD24991+0228659GE19AGL   +99999+99999GF199999999999018291999999MA1101465101165MD1190029+9999OC101185OD149901331310REMMET12804/27/22 15:56:02 METAR KMJX 272056Z 29017G23KT 10SM BKN060 OVC075 12/M02 A2996 RMK AO2 PK WND 31026/2015 SLP148 T01221022 51002
0200720407004622022042803567+39928-074292FM-15+0025KMJX V0203005N00725015245MN0160935N5+00675-00225101775ADDGA1085+015245999GD14991+0152459GE19AGL   +99999+99999GF199999999999015241999999MA1101735101435REMMET09404/27/22 22:56:02 METAR KMJX 280356Z 30014KT 10SM OVC050 07/M02 A3004 RMK AO2 SLP177 T00671022
0231720407004622022042808567+39928-074292FM-15+0025KMJX V0203105N00575014025MN0160935N5+00395-00505101755ADDGA1085+014025999GD14991+0140259GE19AGL   +99999+99999GF199999999999014021999999MA1101735101435MD1890049+9999OC100885REMMET10304/28/22 03:56:02 METAR KMJX 280856Z 31011G17KT 10SM OVC046 04/M05 A3004 RMK AO2 SLP175 T00391050 58004
0269720407004622022042811567+39928-074292FM-15+0025KMJX V0203105N00935012805MN0160935N5+00445-00505101885ADDGA1085+012805999GD14991+0128059GE19AGL   +99999+99999GF199999999999012801999999KA1060M+00441KA2060N+00331MA1101835101535MD1390129+9999OC101295REMMET11504/28/22 06:56:02 METAR KMJX 281156Z 31018G25KT 10SM OVC042 04/M05 A3007 RMK AO2 SLP188 T00441050 10044 20033 53012
0243720407004622022042813567+39928-074292FM-15+0025KMJX V0203105N00935013415MN0160935N5+00725-00445101895ADDGA1075+013415999GD13991+0134159GE19AGL   +99999+99999GF199999999999013411999999MA1101865101565OC101395OD149901491320REMMET11504/28/22 08:56:02 METAR KMJX 281356Z 31018G27KT 10SM BKN044 07/M04 A3008 RMK AO2 PK WND 32029/1345 SLP189 T00721044
0204720407004622022042815567+39928-074292FM-15+0025KMJX V0203105N007752200059N0160935N5+00945-00565101815ADDGA1005+999999999GD10991+9999999GF100991999999999999999999MA1101765101465OC101245REMMET11204/28/22 10:56:02 METAR KMJX 281556Z 31015G24KT 10SM CLR 09/M06 A3005 RMK AO2 PK WND 30026/1540 SLP181 T00941056
0204720407004622022042819567+39928-074292FM-15+0025KMJX V0203105N007252200059N0160935N5+01395-00945101585ADDGA1005+999999999GD10991+9999999GF100991999999999999999999MA1101565101265OC101495REMMET11204/28/22 14:56:02 METAR KMJX 281956Z 31014G29KT 10SM CLR 14/M09 A2999 RMK AO2 PK WND 31032/1946 SLP158 T01391094
0244720407004622022042823567+39928-074292FM-15+0025KMJX V0203205N006252200059N0160935N5+01065-01335101715ADDGA1005+999999999GD10991+9999999GF100991999999999999999999KA1060M+01441KA2060N+01061MA1101695101395MD1390159+9999OC100985REMMET11204/28/22 18:56:02 METAR KMJX 282356Z 32012G19KT 10SM CLR 11/M13 A3003 RMK AO2 SLP171 T01061133 10144 20106 53015
0175720407004622022042901567+39928-074292FM-15+0025KMJX V0203205N004152200059N0160935N5+00835-01445101945ADDGA1005+999999999GD10991+9999999GF100991999999999999999999MA1101905101595REMMET09104/28/22 20:56:01 METAR KMJX 290156Z 32008KT 10SM CLR 08/M14 A3009 RMK AO2 SLP194 T00831144
0195720407004622022042902567+39928-074292FM-15+0025KMJX V0203305N004152200059N0160935N5+00785-01395102015ADDGA1005+999999999GD10991+9999999GF100991999999999999999999MA1102005101705MD1190309+9999REMMET09704/28/22 21:56:02 METAR KMJX 290256Z 33008KT 10SM CLR 08/M14 A3012 RMK AO2 SLP201 T00781139 51030
0182720407004622022042906567+39928-074292FM-15+0025KMJX V0203005N002652200059N0160935N5+00225-01005102055ADDGA1005+999999999GD10991+9999999GF100991999999999999999999MA1102035101735REMMET09804/29/22 01:56:01 METAR KMJX 290656Z 30005KT 10SM CLR 02/M10 A3013 RMK AO2 SLP205 T00221100 FZRANO
0175720407004622022042910567+39928-074292FM-15+0025KMJX V0202905N005152200059N0160935N5+00395-00895102185ADDGA1005+999999999GD10991+9999999GF100991999999999999999999MA1102135101835REMMET09104/29/22 05:56:02 METAR KMJX 291056Z 29010KT 10SM CLR 04/M09 A3016 RMK AO2 SLP218 T00391089
0204720407004622022042915567+39928-074292FM-15+0025KMJX V0203005N009352200059N0160935N5+01335-01115102005ADDGA1005+999999999GD10991+9999999GF100991999999999999999999MA1101965101665OC101245REMMET11204/29/22 10:56:02 METAR KMJX 291556Z 30018G24KT 10SM CLR 13/M11 A3011 RMK AO2 PK WND 32026/1510 SLP200 T01331111
0204720407004622022042918567+39928-074292FM-15+0025KMJX V0203005N006752200059N0160935N5+01675-01115101745ADDGA1005+999999999GD10991+9999999GF100991999999999999999999MA1101695101395OC101295REMMET11204/29/22 13:56:02 METAR KMJX 291856Z 30013G25KT 10SM CLR 17/M11 A3003 RMK AO2 PK WND 30028/1830 SLP174 T01671111
0143720407004622022042922564+39933-074300FM-15+002599999V0203201N004112200019N016093199+01611-01171101701ADDGF100991999999999999999999MA1101661999999OC100821REMMET082METAR KMJX 292256Z AUTO 32008G16KT 10SM CLR 16/M12 A3002 RMK AO2 SLP170 T01611117=
0190720407004622022042923564+39933-074300FM-15+002599999V0203101N003612200019N016093199+01331-01061101781ADDGF100991999999999999999999KA1060M+01781KA2060N+01331MA1101761999999MD1310081+9999REMMET097METAR KMJX 292356Z AUTO 31007KT 10SM CLR 13/M11 A3005 RMK AO2 SLP178 T01331106 10178 20133 53008=
0195720407004622022043002567+39928-074292FM-15+0025KMJX V0203305N003152200059N0160935N5+00945-01065102035ADDGA1005+999999999GD10991+9999999GF100991999999999999999999MA1102005101705MD1190259+9999REMMET09704/29/22 21:56:01 METAR KMJX 300256Z 33006KT 10SM CLR 09/M11 A3012 RMK AO2 SLP203 T00941106 51025
0211720407004622022043004567+39928-074292FM-15+0025KMJX V0203305N003652200059N0160935N5+00785-00945102125ADDGA1005+999999999GD10991+9999999GF100991999999999999999999KA1240M+01781KA2240N+00111MA1102105101805REMMET10104/29/22 23:56:02 METAR KMJX 300456Z 33007KT 10SM CLR 08/M09 A3015 RMK AO2 SLP212 T00781094 401780011
0233720407004622022043005567+39928-074292FM-15+0025KMJX V0203105N002152200059N0160935N5+00615-00835102115ADDGA1005+999999999GD10991+9999999GF100991999999999999999999KA1060M+01391KA2060N+00611MA1102075101765MD1090089+9999REMMET10904/30/22 00:56:02 METAR KMJX 300556Z 31004KT 10SM CLR 06/M08 A3014 RMK AO2 SLP211 T00611083 10139 20061 50008
0175720407004622022043006567+39928-074292FM-15+0025KMJX V0203105N002152200059N0160935N5+00565-00785102095ADDGA1005+999999999GD10991+9999999GF100991999999999999999999MA1102075101765REMMET09104/30/22 01:56:02 METAR KMJX 300656Z 31004KT 10SM CLR 06/M08 A3014 RMK AO2 SLP209 T00561078
0183720407004622022043009567+39928-074292FM-15+0025KMJX V0209999C000052200059N0160935N5-00175-00565102165ADDGA1005+999999999GD10991+9999999GF100991999999999999999999MA1102135101835REMMET09904/30/22 04:56:02 METAR KMJX 300956Z 00000KT 10SM CLR M02/M06 A3016 RMK AO2 SLP216 T10171056 FZRANO
0194720407004622022043013567+39928-074292FM-15+0025KMJX V0203005N003652200059N0160935N5+01336-00675102175ADDGA1005+999999999GD10991+9999999GF100991999999999999999999MA1102135101835REMMET09104/30/22 08:56:02 METAR KMJX 301356Z 30007KT 10SM CLR 13/M07 A3016 RMK AO2 SLP217 T01331067EQDR01  01337TMP028
0206720407004622022043014567+39928-074292FM-15+0025KMJX V0202905N006752200059N0160935N5+01565-00785102115ADDGA1005+999999999GD10991+9999999GF100991999999999999999999MA1102075101765MD1890139+9999OC100825REMMET10004/30/22 09:56:02 METAR KMJX 301456Z 29013G16KT 10SM CLR 16/M08 A3014 RMK AO2 SLP211 T01561078 58013
0186720407004622022043015567+39928-074292FM-15+0025KMJX V0203205N006252200059N0160935N5+01615-00835102055ADDGA1005+999999999GD10991+9999999GF100991999999999999999999MA1102035101735OC100885REMMET09404/30/22 10:56:02 METAR KMJX 301556Z 32012G17KT 10SM CLR 16/M08 A3013 RMK AO2 SLP205 T01611083
0186720407004622022043019567+39928-074292FM-15+0025KMJX V0209999V002652200059N0160935N5+01895-00675101835ADDGA1005+999999999GD10991+9999999GF100991999999999999999999MA1101795101495OC100775REMMET09404/30/22 14:56:02 METAR KMJX 301956Z VRB05G15KT 10SM CLR 19/M07 A3006 RMK AO2 SLP183 T01891067
0205720407004622022043020567+39928-074292FM-15+0025KMJX V0201405N006752200059N0160935N5+01675+00005101825ADDGA1005+999999999GD10991+9999999GF100991999999999999999999MA1101795101495MD1690119+9999OC100885REMMET09904/30/22 15:56:02 METAR KMJX 302056Z 14013G17KT 10SM CLR 17/00 A3006 RMK AO2 SLP182 T01670000 56011
0131720407004622022050100564+39933-074300FM-15+002599999V0201701N001512200019N016093199+00831+00221101991ADDGF100991999999999999999999MA1101961999999REMMET078METAR KMJX 010056Z AUTO 17003KT 10SM CLR 08/02 A3011 RMK AO2 SLP199 T00830022=
0167720407004622022050104564+39933-074300FM-15+002599999V0209999C000012200019N016093199+00331+00221101981ADDGF100991999999999999999999KA1240M+01941KA2240N-00331MA1101961999999REMMET088METAR KMJX 010456Z AUTO 00000KT 10SM CLR 03/02 A3011 RMK AO2 SLP198 T00330022 401941033=
0181720407004622022050106567+39928-074292FM-15+0025KMJX V0209999C000052200059N0160935N5+00115+00005102015ADDGA1005+999999999GD10991+9999999GF100991999999999999999999MA1101965101665REMMET09705/01/22 01:56:02 METAR KMJX 010656Z 00000KT 10SM CLR 01/00 A3011 RMK AO2 SLP201 T00110000 FZRANO
0183720407004622022050107567+39928-074292FM-15+0025KMJX V0209999C000052200059N0160935N5-00115-00225102005ADDGA1005+999999999GD10991+9999999GF100991999999999999999999MA1101965101665REMMET09905/01/22 02:56:02 METAR KMJX 010756Z 00000KT 10SM CLR M01/M02 A3011 RMK AO2 SLP200 T10111022 FZRANO
0203720407004622022050108567+39928-074292FM-15+0025KMJX V0209999C000052200059N0160935N5-00175-00285102015ADDGA1005+999999999GD10991+9999999GF100991999999999999999999MA1101965101665MD1190019+9999REMMET10505/01/22 03:56:02 METAR KMJX 010856Z 00000KT 10SM CLR M02/M03 A3011 RMK AO2 SLP201 T10171028 51001 FZRANO
0210720407004622022050109237+39928-074292FM-15+0025KMJX V0209999C000052200059N0160935N5-00205-00305999999ADDGA1025+000615999GD11991+0006159GE19AGL   +99999+99999GF102995999999000611999999MA1101965101665REMMET08505/01/22 04:23:02 METAR KMJX 010923Z 00000KT 10SM FEW002 M02/M03 A3011 RMK AO2 FZRANOEQDD01      0ADE726
0194720407004622022050114567+39928-074292FM-15+0025KMJX V0209999V003152200059N0160935N5+01725+00445102155ADDGA1005+999999999GD10991+9999999GF100991999999999999999999MA1102135101835MD1390049+9999REMMET09605/01/22 09:56:02 METAR KMJX 011456Z VRB06KT 10SM CLR 17/04 A3016 RMK AO2 SLP215 T01720044 53004
0174720407004622022050116567+39928-074292FM-15+0025KMJX V0200905V003652200059N0160935N5+01895+00505102065ADDGA1005+999999999GD10991+9999999GF100991999999999999999999MA1102035101735REMMET09005/01/22 11:56:02 METAR KMJX 011656Z 09007KT 10SM CLR 19/05 A3013 RMK AO2 SLP206 T01890050
0174720407004622022050118567+39928-074292FM-15+0025KMJX V0201105N004152200059N0160935N5+01945+00335101955ADDGA1005+999999999GD10991+9999999GF100991999999999999999999MA1101935101635REMMET09005/01/22 13:56:02 METAR KMJX 011856Z 11008KT 10SM CLR 19/03 A3010 RMK AO2 SLP195 T01940033
0199720407004622022050201567+39928-074292FM-15+0025KMJX V0201705N00155013725MN0160935N5+01175+00505101925ADDGA1085+013725999GD14991+0137259GE19AGL   +99999+99999GF199999999999013721999999MA1101905101595REMMET09305/01/22 20:56:01 METAR KMJX 020156Z 17003KT 10SM OVC045 12/05 A3009 RMK AO2 SLP192 T01170050
0237720407004622022050203567+39928-074292FM-15+0025KMJX V0200805N00155006715MN0160935N5+01175+00565101895ADDGA1075+006715999GA2085+011895999GD13991+0067159GD24991+0118959GE19AGL   +99999+99999GF199999999999006711999999MA1101865101565REMMET10005/01/22 22:56:02 METAR KMJX 020356Z 08003KT 10SM BKN022 OVC039 12/06 A3008 RMK AO2 SLP189 T01170056
0257720407004622022050205567+39928-074292FM-15+0025KMJX V0200905N00155006105MN0160935N5+01225+00725101795ADDGA1085+006105999GD14991+0061059GE19AGL   +99999+99999GF199999999999006101999999KA1060M+01281KA2060N+01111MA1101765101465MD1890109+9999REMMET11105/02/22 00:56:02 METAR KMJX 020556Z 09003KT 10SM OVC020 12/07 A3005 RMK AO2 SLP179 T01220072 10128 20111 58010
0199720407004622022050206567+39928-074292FM-15+0025KMJX V0201205N00215004885MN0160935N5+01225+00835101735ADDGA1085+004885999GD14991+0048859GE19AGL   +99999+99999GF199999999999004881999999MA1101695101395REMMET09305/02/22 01:56:02 METAR KMJX 020656Z 12004KT 10SM OVC016 12/08 A3003 RMK AO2 SLP173 T01220083
0199720407004622022050207567+39928-074292FM-15+0025KMJX V0201205N00265004275MN0160935N5+01285+00895101705ADDGA1085+004275999GD14991+0042759GE19AGL   +99999+99999GF199999999999004271999999MA1101665101365REMMET09305/02/22 02:56:02 METAR KMJX 020756Z 12005KT 10SM OVC014 13/09 A3002 RMK AO2 SLP170 T01280089
0218720407004622022050209357+39928-074292FM-15+0025KMJX V0201305N00575002445MN0160935N5+01305+01105999999ADDGA1085+002445999GD14991+0024451GE19AGL   +99999+99999GF199999999999002441999999MA1101565101265REMMET11205/02/22 04:35:02 METAR KMJX 020935Z 13011KT 10SM OVC008 13/11 A2999 RMK AO2 LTG DSNT N AND S AND NW CIG 007V011
0296720407004622022050209567+39928-074292FM-15+0025KMJX V0201305N00515002445MN0144845N5+01285+01175101585ADDAA101000021AU147000015AU210020015AW1121AW2615GA1085+002445999GD14991+0024459GE19AGL   +99999+99999GF199999999999002441999999MA1101565101265MV1015MW1615REMMET13305/02/22 04:56:02 METAR KMJX 020956Z 13010KT 9SM VCTS -RA OVC008 13/12 A2999 RMK AO2 LTG DSNT ALQDS TSB54RAB49 SLP158 P0000 T01280117
0299720407004622022050210297+39928-074292FM-15+0025KMJX V0209999V00155001835MN0028165N5+01205+01205999999ADDAA101004895AU147000015AU230020015AU300001015AW1105AW2121AW3635GA1085+001835999GD14991+0018359GE19AGL   +99999+99999GF199999999999001831999999MA1101665101365MV1015MW1635REMMET11905/02/22 05:29:02 METAR KMJX 021029Z VRB03KT 1 3/4SM VCTS +RA BR OVC006 12/12 A3002 RMK AO2 LTG DSNT ALQDS PRESRR P0019
0201720407004622022050212517+39928-074292FM-15+0025KMJX V0201105N00265000615MN0048285N5+01305+01205999999ADDAU100001015AW1105GA1085+000615999GD14991+0006159GE19AGL   +99999+99999GF199999999999000611999999MA1101665101365REMMET07805/02/22 07:51:02 METAR KMJX 021251Z 11005KT 3SM BR OVC002 13/12 A3002 RMK AO2
0205720407004622022050213047+39928-074292FM-15+0025KMJX V0209999V00215000615MN0040235N5+01305+01305999999ADDAU100001015AW1105GA1085+000615999GD14991+0006159GE19AGL   +99999+99999GF199999999999000611999999MA1101665101365REMMET08205/02/22 08:04:02 METAR KMJX 021304Z VRB04KT 2 1/2SM BR OVC002 13/13 A3002 RMK AO2
0205720407004622022050213247+39928-074292FM-15+0025KMJX V0201205N00155000615MN0028165N5+01305+01305999999ADDAU100001015AW1105GA1085+000615999GD14991+0006159GE19AGL   +99999+99999GF199999999999000611999999MA1101695101395REMMET08205/02/22 08:24:02 METAR KMJX 021324Z 12003KT 1 3/4SM BR OVC002 13/13 A3003 RMK AO2
0218720407004622022050214567+39928-074292FM-15+0025KMJX V0209999C00005001225MN0128755N5+01505+01395101655ADDGA1085+001225999GD14991+0012259GE19AGL   +99999+99999GF199999999999001221999999MA1101635101325MD1890049+9999REMMET09805/02/22 09:56:02 METAR KMJX 021456Z 00000KT 8SM OVC004 15/14 A3001 RMK AO2 SLP165 T01500139 58004
0199720407004622022050216567+39928-074292FM-15+0025KMJX V0203005N00365001835MN0160935N5+01675+01445101655ADDGA1085+001835999GD14991+0018359GE19AGL   +99999+99999GF199999999999001831999999MA1101635101325REMMET09305/02/22 11:56:02 METAR KMJX 021656Z 30007KT 10SM OVC006 17/14 A3001 RMK AO2 SLP165 T01670144
0182720407004622022050217457+39928-074292FM-15+0025KMJX V0203105N00365003355MN0160935N5+01705+01405999999ADDGA1085+003355999GD14991+0033559GE19AGL   +99999+99999GF199999999999003351999999MA1101595101295REMMET07605/02/22 12:45:02 METAR KMJX 021745Z 31007KT 10SM OVC011 17/14 A3000 RMK AO2
0269720407004622022050217567+39928-074292FM-15+0025KMJX V0203105N00315002745MN0160935N5+01675+01445101625ADDGA1085+002745999GD14991+0027451GE19AGL   +99999+99999GF199999999999002741999999KA1060M+01721KA2060N+01281MA1101595101295MD1890029+9999REMMET12305/02/22 12:56:02 METAR KMJX 021756Z 31006KT 10SM OVC009 17/14 A3000 RMK AO2 CIG 008V013 SLP162 T01670144 10172 20128 58002
0199720407004622022050218567+39928-074292FM-15+0025KMJX V0203005N00365003965MN0160935N5+01725+01445101585ADDGA1085+003965999GD14991+0039659GE19AGL   +99999+99999GF199999999999003961999999MA1101565101265REMMET09305/02/22 13:56:02 METAR KMJX 021856Z 30007KT 10SM OVC013 17/14 A2999 RMK AO2 SLP158 T01720144
0193720407004622022050219277+39928-074292FM-15+0025KMJX V0203105N00625004575MN0160935N5+01805+01405999999ADDGA1085+004575999GD14991+0045759GE19AGL   +99999+99999GF199999999999004571999999MA1101565101265OC100825REMMET07905/02/22 14:27:02 METAR KMJX 021927Z 31012G16KT 10SM OVC015 18/14 A2999 RMK AO2
0218720407004622022050221567+39928-074292FM-15+0025KMJX V0203405N004652200059N0160935N5+01725+01285101635ADDGA1025+022865999GD11991+0228659GE19AGL   +99999+99999GF102995999999022861999999MA1101595101295REMMET09305/02/22 16:56:02 METAR KMJX 022156Z 34009KT 10SM FEW075 17/13 A3000 RMK AO2 SLP163 T01720128EQDD01      0ADE726
0217720407004622022050300567+39928-074292FM-15+0025KMJX V0200505N001552200059N0144845N5+01285+01175101835ADDGA1025+022865999GD11991+0228659GE19AGL   +99999+99999GF102995999999022861999999MA1101795101495REMMET09205/02/22 19:56:01 METAR KMJX 030056Z 05003KT 9SM FEW075 13/12 A3006 RMK AO2 SLP183 T01280117EQDD01      0ADE726
0193720407004622022050302567+39928-074292FM-15+0025KMJX V0209999C000052200059N0128755N5+00945+00895101915ADDGA1005+999999999GD10991+9999999GF100991999999999999999999MA1101865101565MD1190129+9999REMMET09505/02/22 21:56:02 METAR KMJX 030256Z 00000KT 8SM CLR 09/09 A3008 RMK AO2 SLP191 T00940089 51012
0218720407004622022050303567+39928-074292FM-15+0025KMJX V0200605N00155002445MN0048285N5+01115+01065101955ADDAU100001015AW1105GA1085+002445999GD14991+0024459GE19AGL   +99999+99999GF199999999999002441999999MA1101935101635REMMET09505/02/22 22:56:02 METAR KMJX 030356Z 06003KT 3SM BR OVC008 11/11 A3010 RMK AO2 SLP195 T01110106
003972040700462202205030459O+39928-074292SOD  +0025KMJX V020999999999999999999999999999+99999+99999999999ADDAT1AU03TS  5AT2AU16RA  5AT3AU13BR  5
0176720407004622022050306217+39928-074292FM-15+0025KMJX V0209999C000052200059N0032195N5+00905+00905999999ADDAU100001015AW1105GA1005+999999999GD10991+9999999GF100991999999999999999999MA1101965101665REMMET07505/03/22 01:21:02 METAR KMJX 030621Z 00000KT 2SM BR CLR 09/09 A3011 RMK AO2
0190720407004622022050307047+39928-074292FM-15+0025KMJX V0209999C000052200059N0024145V5+00805+00805999999ADDAU100001015AW1105GA1005+999999999GD10991+9999999GF100991999999999999999999MA1101935101635REMMET08905/03/22 02:04:02 METAR KMJX 030704Z 00000KT 1 1/2SM BR CLR 08/08 A3010 RMK AO2 VIS 1/4V5
0190720407004622022050307147+39928-074292FM-15+0025KMJX V0200305N001552200059N0020125V5+00705+00705999999ADDAU100001015AW1105GA1005+999999999GD10991+9999999GF100991999999999999999999MA1101935101635REMMET08905/03/22 02:14:02 METAR KMJX 030714Z 03003KT 1 1/4SM BR CLR 07/07 A3010 RMK AO2 VIS 1/2V5
0220720407004622022050307457+39928-074292FM-15+0025KMJX V0209999C000052200059N0096565N5+00705+00605999999ADDAU100001015AW1105GA1025+001525999GD11991+0015259GE19AGL   +99999+99999GF102995999999001521999999MA1102005101705REMMET07805/03/22 02:45:02 METAR KMJX 030745Z 00000KT 6SM BR FEW005 07/06 A3012 RMK AO2EQDD01      0ADE726
0200720407004622022050307547+39928-074292FM-15+0025KMJX V0209999C00005001225WN0016095N5+00705+00605999999ADDAU100001015AW1105GA1095+001225999GD15991+0012259GE19AGL   +99999+99999GF109991999999001221999999MA1102005101705REMMET07705/03/22 02:54:02 METAR KMJX 030754Z 00000KT 1SM BR VV004 07/06 A3012 RMK AO2
0253720407004622022050308167+39928-074292FM-15+0025KMJX V0209999C00005000305MN0004025N5+00705+00605999999ADDAU100002015AW1305GA1075+000305999GA2085+003055999GD13991+0003051GD24991+0030559GE19AGL   +99999+99999GF199999999999000301999999MA1102035101735REMMET09905/03/22 03:16:02 METAR KMJX 030816Z 00000KT 1/4SM FG BKN001 OVC010 07/06 A3013 RMK AO2 CIG 001V005
0239720407004622022050308317+39928-074292FM-15+0025KMJX V0209999C00005003055MN0016095N5+00805+00705999999ADDAU100001015AW1105GA1025+000305999GA2085+003055999GD11991+0003059GD24991+0030559GE19AGL   +99999+99999GF199999999999000301999999MA1102035101735REMMET08505/03/22 03:31:02 METAR KMJX 030831Z 00000KT 1SM BR FEW001 OVC010 08/07 A3013 RMK AO2
0201720407004622022050308377+39928-074292FM-15+0025KMJX V0209999C00005003055MN0032195N5+00805+00705999999ADDAU100001015AW1105GA1085+003055999GD14991+0030559GE19AGL   +99999+99999GF199999999999003051999999MA1102035101735REMMET07805/03/22 03:37:02 METAR KMJX 030837Z 00000KT 2SM BR OVC010 08/07 A3013 RMK AO2
0238720407004622022050308567+39928-074292FM-15+0025KMJX V0209999C00005003665MN0080475N5+00835+00785102045ADDAU100001015AW1105GA1085+003665999GD14991+0036659GE19AGL   +99999+99999GF199999999999003661999999MA1102005101705MD1390059+9999REMMET10105/03/22 03:56:02 METAR KMJX 030856Z 00000KT 5SM BR OVC012 08/08 A3012 RMK AO2 SLP204 T00830078 53005
0193720407004622022050310567+39928-074292FM-15+0025KMJX V0209999C000052200059N0080475N5+01005+00945102115ADDAU100001015AW1105GA1005+999999999GD10991+9999999GF100991999999999999999999MA1102075101765REMMET09205/03/22 05:56:02 METAR KMJX 031056Z 00000KT 5SM BR CLR 10/09 A3014 RMK AO2 SLP211 T01000094
0257720407004622022050311567+39928-074292FM-15+0025KMJX V0200505N00315002745MN0160935N5+01175+01005102175ADDGA1075+002745999GD13991+0027459GE19AGL   +99999+99999GF199999999999002741999999KA1060M+01171KA2060N+00671MA1102135101835MD1190119+9999REMMET11105/03/22 06:56:02 METAR KMJX 031156Z 05006KT 10SM BKN009 12/10 A3016 RMK AO2 SLP217 T01170100 10117 20067 51011
0182720407004622022050313087+39928-074292FM-15+0025KMJX V0200605N00415003355MN0160935N5+01305+01005999999ADDGA1085+003355999GD14991+0033559GE19AGL   +99999+99999GF199999999999003351999999MA1102205101905REMMET07605/03/22 08:08:02 METAR KMJX 031308Z 06008KT 10SM OVC011 13/10 A3018 RMK AO2
002772040700462202205040459O+39928-074292SOD  +0025KMJX V020999999999999999999999999999+99999+99999999999ADDAT1AU01FG  5AT2AU13BR  5
0243720407004622022090710087+39928-074292FM-15+0025KMJX V0200305N00625002135MN0160935N5+01905+01905999999ADDAA101000395AU110020015AW1615GA1085+002135999GD14991+0021351GE19AGL   +99999+99999GF199999999999002131999999MA1101465101165MW1615REMMET10309/07/22 05:08:02 METAR KMJX 071008Z 03012KT 10SM -RA OVC007 19/19 A2996 RMK AO2 CIG 004V011 P0001 TSNO
001572040700462202209080459O+39928-074292SOD  +0025KMJX V020999999999999999999999999999+99999+99999999999ADDAT1AU16RA  5
0289720407004622022090811567+39928-074292FM-15+0025KMJX V0203605N003652200059N0160935N5+01945+01725101415ADDAA106000021GA1005+999999999GD10991+9999999GF100991999999999999999999KA1060M+01941KA2060N+01721MA1101395101095MD1390059+9999REMMET11909/08/22 06:56:02 METAR KMJX 081156Z 36007KT 10SM CLR 19/17 A2994 RMK AO2 SLP141 60000 T01940172 10194 20172 53005 TSNOEQDQ01  00002PRCP06Q02  00008PRCP06
0241720407004622022091210567+39928-074292FM-15+0025KMJX V0209999C00005004275MN0128755N5+02225+02175101195ADDGA1075+004275999GA2085+005795999GD13991+0042759GD24991+0057959GE19AGL   +99999+99999GF199999999999004271999999MA1101155100855REMMET10409/12/22 05:56:02 METAR KMJX 121056Z 00000KT 8SM BKN014 OVC019 22/22 A2987 RMK AO2 SLP119 T02220217 TSNO
0198720407004622022091310567+39928-074292FM-15+0025KMJX V0209999C000052200059N0096565N5+02175+02115100775ADDAU100001015AW1105GA1005+999999999GD10991+9999999GF100991999999999999999999MA1100755100455REMMET09709/13/22 05:56:02 METAR KMJX 131056Z 00000KT 6SM BR CLR 22/21 A2975 RMK AO2 SLP077 T02170211 TSNO
001572040700462202209140459O+39928-074292SOD  +0025KMJX V020999999999999999999999999999+99999+99999999999ADDAT1AU13BR  5
0190720407004622022091515567+39928-074292FM-15+0025KMJX V0203305N004652200059N0160935N5+02115+00835102195ADDGA1005+999999999GD10991+9999999GF100991999999999999999999MA1102175101875OC100825REMMET09809/15/22 10:56:02 METAR KMJX 151556Z 33009G16KT 10SM CLR 21/08 A3017 RMK AO2 SLP219 T02110083 TSNO
0259720407004622022100409567+39928-074292FM-15+0025KMJX V0200105N00675002135MN0160935N5+00835+00785101565ADDAA101001895AU110020015AW1615GA1085+002135999GD14991+0021359GE19AGL   +99999+99999GF199999999999002131999999MA1101525101225MW1615OC101035REMMET11110/04/22 04:56:01 METAR KMJX 040956Z 01013G20KT 10SM -RA OVC007 08/08 A2998 RMK AO2 SLP156 P0007 T00830078 TSNO
0222720407004622022100410564+39933-074300FM-15+002599999V0203601N006210012219N009656199+00781+00721101521ADDAA101004831AW1101AW2621GD14991+0021311GE19AGL   +99999+99999GF199999999999002131999999MA1101491999999REMMET109METAR KMJX 041056Z AUTO 36012KT 6SM RA BR OVC007 08/07 A2997 RMK AO2 CIG 004V010 SLP152 P0019 T00780072 TSNO=
002772040700462202210050459O+39928-074292SOD  +0025KMJX V020999999999999999999999999999+99999+99999999999ADDAT1AU16RA  5AT2AW13BR  1
0198720407004622022101219567+39928-074292FM-15+0025KMJX V0201805N006252200059N0160935N5+01946+01175102125ADDGA1005+999999999GD10991+9999999GF100991999999999999999999MA1102105101805REMMET09510/12/22 14:56:02 METAR KMJX 121956Z 18012KT 10SM CLR 19/12 A3015 RMK AO2 SLP212 T01940117 TSNOEQDR01  01947TMP028
0215720407004622022101303567+39928-074292FM-15+0025KMJX V0209999C000052200059N0160935N5+01005+01005101885ADDGA1005+999999999GD10991+9999999GF100991999999999999999999KA1240M+02171KA2240N+00281MA1101865101565REMMET10510/12/22 22:56:02 METAR KMJX 130356Z 00000KT 10SM CLR 10/10 A3008 RMK AO2 SLP188 T01000100 402170028 TSNO
