0208720407004622023010510137+39928-074292FM-15+0025KMJX V0209999C00005000915MN0008055N5+01105+01105999999ADDAU100002015AW1305GA1085+000915999GD14991+0009159GE19AGL   +99999+99999GF199999999999000911999999MA1101295100995REMMET08501/05/23 05:13:02 METAR KMJX 051013Z 00000KT 1/2SM FG OVC003 11/11 A2991 RMK AO2 TSNO
001572040700462202301060459O+39928-074292SOD  +0025KMJX V020999999999999999999999999999+99999+99999999999ADDAT1AU01FG  5
0385720407004622023011503567+39928-074292FM-15+0025KMJX V0203405N00575010975MN0144845N5-00065-00565101245ADDAA101000021AU110030015AW1715GA1025+007325999GA2075+010975999GA3085+014025999GD11991+0073259GD23991+0109759GD34991+0140259GE19AGL   +99999+99999GF199999999999007321999999KA1240M+00281KA2240N-00061MA1101225100925MW1715OC101035REMMET14901/14/23 22:56:01 METAR KMJX 150356Z 34011G20KT 9SM -SN FEW024 BKN036 OVC046 M01/M06 A2989 RMK AO2 SNB49 SLP124 P0000 T10061056 400281006 FZRANO TSNO
001572040700462202301150459O+39928-074292SOD  +0025KMJX V020999999999999999999999999999+99999+99999999999ADDAT1AU18SN  5
0215720407004622023012015567+39928-074292FM-15+0025KMJX V0202805N00825013725MN0160935N5+00945+00175100625ADDGA1075+013725999GD13991+0137259GE19AGL   +99999+99999GF199999999999013721999999MA1100585100285OC101135REMMET10101/20/23 10:56:02 METAR KMJX 201556Z 28016G22KT 10SM BKN045 09/02 A2970 RMK AO2 SLP062 T00940017 TSNO
0243720407004622023031117147+39928-074292FM-15+0025KMJX V0203505N00465003055MN0160935N5+00405+00305999999ADDAA101000021AU110020015AW1615GA1085+003055999GD14991+0030551GE19AGL   +99999+99999GF199999999999003051999999MA1100785100485MW1615REMMET10303/11/23 12:14:02 METAR KMJX 111714Z 35009KT 10SM -RA OVC010 04/03 A2976 RMK AO2 CIG 006V014 P0000 TSNO
001572040700462202303120459O+39928-074292SOD  +0025KMJX V020999999999999999999999999999+99999+99999999999ADDAT1AU16RA  5
0198720407004622023031907567+39928-074292FM-15+0025KMJX V0202805N006252200059N0160935N5+00225-01065101385ADDGA1005+999999999GD10991+9999999GF100991999999999999999999MA1101325101025OC100985REMMET10603/19/23 02:56:01 METAR KMJX 190756Z 28012G19KT 10SM CLR 02/M11 A2992 RMK AO2 SLP138 T00221106 FZRANO TSNO
0199720407004622023032420567+39928-074292FM-15+0025KMJX V0202905N001552200059N0160935N5+00895+00285101585ADDGA1005+999999999GD10991+9999999GF100991999999999999999999MA1101565101265MD1890049+9999REMMET10103/24/23 15:56:02 METAR KMJX 242056Z 29003KT 10SM CLR 09/03 A2999 RMK AO2 SLP158 T00890028 58004 TSNO
0281720407004622023042723567+39928-074292FM-15+0025KMJX V0201005N001552200059N0160935N5+01115+00835102245ADDGA1025+018295999GD11991+0182959GE19AGL   +99999+99999GF102995999999018291999999KA1060M+01501KA2060N+01111MA1102205101905MD1890049+9999REMMET11604/27/23 18:56:02 METAR KMJX 272356Z 10003KT 10SM FEW060 11/08 A3018 RMK AO2 SLP224 T01110083 10150 20111 58004 TSNOEQDD01      0ADE726
0179720407004622023060103567+39928-074292FM-15+0025KMJX V0209999C000052200059N0160935N5+01065+00895102125ADDGA1005+999999999GD10991+9999999GF100991999999999999999999MA1102105101805REMMET09505/31/23 22:56:02 METAR KMJX 010356Z 00000KT 10SM CLR 11/09 A3015 RMK AO2 SLP212 T01060089 TSNO
0237720407004622023060105567+39928-074292FM-15+0025KMJX V0209999C000052200059N0160935N5+00945+00785102085ADDGA1005+999999999GD10991+9999999GF100991999999999999999999KA1060M+01781KA2060N+00891MA1102075101765MD1890079+9999REMMET11306/01/23 00:56:02 METAR KMJX 010556Z 00000KT 10SM CLR 09/08 A3014 RMK AO2 SLP208 T00940078 10178 20089 58007 TSNO
0185720407004622023060111566+39928-074292FM-15+0025KMJX V0200205N001552200059N0160935N5+01725+01445102095ADDGA1005+999999999GD10991+9999999MA1102075101765MD1390059+9999REMMET11306/01/23 06:56:02 METAR KMJX 011156Z 02003KT 10SM CLR 17/14 A3014 RMK AO2 SLP209 T01720144 10172 20094 53005 TSNO
0221720407004622023060207097+39928-074292FM-15+0025KMJX V0209999C00005000305MN0112655N5+00905+00905999999ADDAA101000021GA1085+000305999GD14991+0003051GE19AGL   +99999+99999GF199999999999000301999999MA1101565101265REMMET10406/02/23 02:09:01 METAR KMJX 020709Z 00000KT 7SM OVC001 09/09 A2999 RMK AO2 RAE05 CIG 001V004 P0000 TSNO
0243720407004622023060207237+39928-074292FM-15+0025KMJX V0209999C00005000305MN0012075N5+00905+00805999999ADDAA101000021AU100001015AW1105GA1085+000305999GD14991+0003051GE19AGL   +99999+99999GF199999999999000301999999MA1101525101225REMMET10906/02/23 02:23:01 METAR KMJX 020723Z 00000KT 3/4SM BR OVC001 09/08 A2998 RMK AO2 RAE05 CIG 001V004 P0000 TSNO
0203720407004622023060208457+39928-074292FM-15+0025KMJX V0209999C00005000305MN0008055N5+00905+00805999999ADDAU100002015AW1305GA1085+000305999GD14991+0003059GE19AGL   +99999+99999GF199999999999000301999999MA1101465101165REMMET08006/02/23 03:45:01 METAR KMJX 020845Z 00000KT 1/2SM FG OVC001 09/08 A2996 RMK AO2
0147720407004622023060209567+39928-074292FM-15+0025KMJX V0209999C000059999999N0144845N5+00895+00785101515ADDMA1101495101195REMMET08506/02/23 04:56:01 METAR KMJX 020956Z 00000KT 9SM 09/08 A2997 RMK AO2 SLP151 T00890078EQDR01      7SKY009R02      7GAS009
0197720407004622023060219567+39928-074292FM-15+0025KMJX V0201305N004152200059N0128755N5+03006+01115101155ADDGA1005+999999999GD10991+9999999GF100991999999999999999999MA1101125100825REMMET09406/02/23 14:56:01 METAR KMJX 021956Z 13008KT 8SM CLR 30/11 A2986 RMK AO2 SLP115 T03000111 TSNOEQDR01  03007TMP028
002772040700462202306030459O+39928-074292SOD  +0025KMJX V020999999999999999999999999999+99999+99999999999ADDAT1AU01FG  5AT2AU13BR  5
0198720407004622023061509567+39928-074292FM-15+0025KMJX V0209999V003152200059N0160935N5+01336+01005100365ADDGA1005+999999999GD10991+9999999GF100991999999999999999999MA1100345100045REMMET09506/15/23 04:56:02 METAR KMJX 150956Z VRB06KT 10SM CLR 13/10 A2963 RMK AO2 SLP036 T01330100 TSNOEQDR01  01337TMP028
0179720407004622023061510567+39928-074292FM-15+0025KMJX V0202705N003652200059N0160935N5+01615+01115100415ADDGA1005+999999999GD10991+9999999GF100991999999999999999999MA1100375100075REMMET09506/15/23 05:56:02 METAR KMJX 151056Z 27007KT 10SM CLR 16/11 A2964 RMK AO2 SLP041 T01610111 TSNO
0237720407004622023061523567+39928-074292FM-15+0025KMJX V0202305N001552200059N0160935N5+02285+01335100635ADDGA1005+999999999GD10991+9999999GF100991999999999999999999KA1060M+02611KA2060N+02281MA1100615100315MD1390109+9999REMMET11306/15/23 18:56:02 METAR KMJX 152356Z 23003KT 10SM CLR 23/13 A2971 RMK AO2 SLP063 T02280133 10261 20228 53010 TSNO
0193720407004622023061607567+39928-074292FM-15+0025KMJX V0202405N001552200059N0160935N5+01176+01005100805ADDGA1005+999999999GD10991+9999999GF100991999999999999999999MA1100785100485REMMET09006/16/23 02:56:01 METAR KMJX 160756Z 24003KT 10SM CLR 12/10 A2976 RMK AO2 SLP080 T01170100EQDR01  01177TMP028
0223720407004622023061612567+39928-074292FM-15+0025KMJX V0202405N00265036585MN0160935N5+02336+01565100825ADDGA1075+036585999GD13991+0365859GE19AGL   +99999+99999GF199999999999036581999999MA1100785100485REMMET09806/16/23 07:56:01 METAR KMJX 161256Z 24005KT 10SM BKN120 23/16 A2976 RMK AO2 SLP082 T02330156 TSNOEQDR01  02337TMP028
0291720407004622023061615567+39928-074292FM-15+0025KMJX V0201505N00775024385MN0160935N5+02675+01335100645ADDGA1045+018295999GA2075+024385999GA3075+033535999GD12991+0182959GD23991+0243859GD33991+0335359GE19AGL   +99999+99999GF199999999999018291999999MA1100615100315OC100935REMMET11506/16/23 10:56:01 METAR KMJX 161556Z 15015G18KT 10SM SCT060 BKN080 BKN110 27/13 A2971 RMK AO2 SLP064 T02670133 TSNO
0314720407004622023061618427+39928-074292FM-15+0025KMJX V0200505N002152200059N0160935N5+01506+01505999999ADDAA101001095AU110020015AW1615GA1025+018295999GA2045+022865999GD11991+0182959GD22991+0228659GE19AGL   +99999+99999GF104995999999018291999999MA1100515100215MW1615REMMET12406/16/23 13:42:01 METAR KMJX 161842Z 05004KT 10SM -RA FEW060 SCT075 15/15 A2968 RMK AO2 TSB1757E1759B14E20B23E27B40E42 P0004EQDD01      0ADE726
0187720407004622023061620477+39928-074292FM-15+0025KMJX V0201305N00265001525MN0160935N5+01805+01705999999ADDGA1085+001525999GD14991+0015259GE19AGL   +99999+99999GF199999999999001521999999MA1100475100185REMMET08106/16/23 15:47:01 METAR KMJX 162047Z 13005KT 10SM OVC005 18/17 A2967 RMK AO2 TSNO
0174720407004622023061703567+39928-074292FM-15+0025KMJX V0203205N001552200059N0160935N5+01505+01505100565ADDGA1005+999999999GD10991+9999999GF100991999999999999999999MA1100545100245REMMET09006/16/23 22:56:01 METAR KMJX 170356Z 32003KT 10SM CLR 15/15 A2969 RMK AO2 SLP056 T01500150
001572040700462202306170459O+39928-074292SOD  +0025KMJX V020999999999999999999999999999+99999+99999999999ADDAT1AU16RA  5
0250720407004622023061719567+39928-074292FM-15+0025KMJX V0203005N007752200059N0160935N5+02676+00835100485ADDGA1025+022865999GD11991+0228659GE19AGL   +99999+99999GF102995999999022861999999MA1100475100185OC101085REMMET10106/17/23 14:56:01 METAR KMJX 171956Z 30015G21KT 10SM FEW075 27/08 A2967 RMK AO2 SLP048 T02670083 TSNOEQDR01  02677TMP028D01      0ADE726
0253720407004622023061819567+39928-074292FM-15+0025KMJX V0202605N00575019815MN0160935N5+02895+01285101165ADDGA1075+019815999GA2085+024385999GD13991+0198159GD24991+0243859GE19AGL   +99999+99999GF199999999999019811999999MA1101125100825OC100825REMMET10806/18/23 14:56:02 METAR KMJX 181956Z 26011G16KT 10SM BKN065 OVC080 29/13 A2986 RMK AO2 SLP116 T02890128 TSNO
0217720407004622023061906567+39928-074292FM-15+0025KMJX V0209999C000052200059N0048285N5+01336+01225101505ADDAU100001015AW1105GA1005+999999999GD10991+9999999GF100991999999999999999999MA1101495101195REMMET09706/19/23 01:56:02 METAR KMJX 190656Z 00000KT 3SM BR CLR 13/12 A2997 RMK AO2 SLP150 T01330122 TSNOEQDR01  01337TMP028
0224720407004622023061908567+39928-074292FM-15+0025KMJX V0209999C00005025915MN0160935N5+01395+01285101535ADDGA1075+025915999GD13991+0259159GE19AGL   +99999+99999GF199999999999025911999999MA1101525101225MD1390049+9999REMMET10406/19/23 03:56:02 METAR KMJX 190856Z 00000KT 10SM BKN085 14/13 A2998 RMK AO2 SLP153 T01390128 53004 TSNO
001572040700462202306200459O+39928-074292SOD  +0025KMJX V020999999999999999999999999999+99999+99999999999ADDAT1AU13BR  5
0186720407004622023062009087+39928-074292FM-15+0025KMJX V0200605N00215002135MN0112655N5+01805+01705999999ADDGA1075+002135999GD13991+0021359GE19AGL   +99999+99999GF199999999999002131999999MA1102075101765REMMET08006/20/23 04:08:02 METAR KMJX 200908Z 06004KT 7SM BKN007 18/17 A3014 RMK AO2 TSNO
0204720407004622023062016567+39928-074292FM-15+0025KMJX V0200505N00625003965MN0160935N5+02115+01725102295ADDGA1085+003965999GD14991+0039659GE19AGL   +99999+99999GF199999999999003961999999MA1102275101975REMMET09806/20/23 11:56:02 METAR KMJX 201656Z 05012KT 10SM OVC013 21/17 A3020 RMK AO2 SLP229 T02110172 TSNO
0204720407004622023062019567+39928-074292FM-15+0025KMJX V0200805N00365004575MN0160935N5+02225+01785102265ADDGA1075+004575999GD13991+0045759GE19AGL   +99999+99999GF199999999999004571999999MA1102245101935REMMET09806/20/23 14:56:02 METAR KMJX 201956Z 08007KT 10SM BKN015 22/18 A3019 RMK AO2 SLP226 T02220178 TSNO
0198720407004622023062021147+39928-074292FM-15+0025KMJX V0200805N00465004575MN0160935N5+02105+01705999999ADDGA1075+004575999GD13991+0045759GE19AGL   +99999+99999GF199999999999004571999999MA1102205101905OC100725REMMET08406/20/23 16:14:02 METAR KMJX 202114Z 08009G14KT 10SM BKN015 21/17 A3018 RMK AO2 TSNO
0204720407004622023062109567+39928-074292FM-15+0025KMJX V0200605N00625003965MN0160935N5+01675+01445102345ADDGA1085+003965999GD14991+0039659GE19AGL   +99999+99999GF199999999999003961999999MA1102305102005REMMET09806/21/23 04:56:02 METAR KMJX 210956Z 06012KT 10SM OVC013 17/14 A3021 RMK AO2 SLP234 T01670144 TSNO
0279720407004622023062213567+39928-074292FM-15+0025KMJX V0200405N00575002135MN0048285N5+01615+01565102155ADDAA101000021AU110020015AU200001015AW1105AW2615GA1085+002135999GD14991+0021351GE19AGL   +99999+99999GF199999999999002131999999MA1102105101805MW1615REMMET12206/22/23 08:56:02 METAR KMJX 221356Z 04011KT 3SM -RA BR OVC007 16/16 A3015 RMK AO2 CIG 006V011 SLP215 P0000 T01610156 TSNO
0273720407004622023062214077+39928-074292FM-15+0025KMJX V0200505N00625002135MN0040235V5+01605+01605999999ADDAA101000021AU110020015AU200001015AW1105AW2615GA1085+002135999GD14991+0021351GE19AGL   +99999+99999GF199999999999002131999999MA1102135101835MW1615REMMET11606/22/23 09:07:02 METAR KMJX 221407Z 05012KT 2 1/2SM -RA BR OVC007 16/16 A3016 RMK AO2 VIS 1 3/4V3 CIG 005V010 P0000
0279720407004622023062215567+39928-074292FM-15+0025KMJX V0200405N00575002135MN0048285N5+01675+01615102185ADDAA101000021AU110020015AU200001015AW1105AW2615GA1085+002135999GD14991+0021351GE19AGL   +99999+99999GF199999999999002131999999MA1102135101835MW1615REMMET12206/22/23 10:56:02 METAR KMJX 221556Z 04011KT 3SM -RA BR OVC007 17/16 A3016 RMK AO2 CIG 005V011 SLP218 P0000 T01670161 TSNO
0332720407004622023062217567+39928-074292FM-15+0025KMJX V0200505N00725004575MN0160935N5+01725+01565102115ADDAA101000021AA206000021GA1085+004575999GD14991+0045759GE19AGL   +99999+99999GF199999999999004571999999KA1060M+01721KA2060N+01501MA1102075101765MD1590079+9999OC101085REMMET13706/22/23 12:56:02 METAR KMJX 221756Z 05014G21KT 10SM OVC015 17/16 A3014 RMK AO2 RAE17 SLP211 P0000 60000 T01720156 10172 20150 55007 TSNOEQDQ01  00008PRCP06
0287720407004622023062220567+39928-074292FM-15+0025KMJX V0200605N00465002745MN0160935N5+01835+01615101995ADDAA103000021GA1085+002745999GD14991+0027459GE19AGL   +99999+99999GF199999999999002741999999MA1101965101665MD1690129+9999OC100885REMMET11306/22/23 15:56:02 METAR KMJX 222056Z 06009G17KT 10SM OVC009 18/16 A3011 RMK AO2 SLP199 60000 T01830161 56012 TSNOEQDQ01  00002PRCP03Q02  00008PRCP03
0206720407004622023062303387+39928-074292FM-15+0025KMJX V0200805N00265001525MN0032195N5+01705+01705999999ADDAU100001015AW1105GA1085+001525999GD14991+0015259GE19AGL   +99999+99999GF199999999999001521999999MA1101965101665REMMET08306/22/23 22:38:02 METAR KMJX 230338Z 08005KT 2SM BR OVC005 17/17 A3011 RMK AO2 TSNO
002772040700462202306230459O+39928-074292SOD  +0025KMJX V020999999999999999999999999999+99999+99999999999ADDAT1AU16RA  5AT2AU13BR  5
0291720407004622023062319567+39928-074292FM-15+0025KMJX V0201605N00465011895MN0160935N5+02615+02175101535ADDGA1025+007925999GA2075+011895999GA3085+019815999GD11991+0079259GD23991+0118959GD34991+0198159GE19AGL   +99999+99999GF199999999999007921999999MA1101495101195OC100775REMMET11506/23/23 14:56:02 METAR KMJX 231956Z 16009G15KT 10SM FEW026 BKN039 OVC065 26/22 A2997 RMK AO2 SLP153 T02610217 TSNO
0187720407004622023062400417+39928-074292FM-15+0025KMJX V0201505N00365003355MN0160935N5+02205+02005999999ADDGA1075+003355999GD13991+0033559GE19AGL   +99999+99999GF199999999999003351999999MA1101395101095REMMET08106/23/23 19:41:01 METAR KMJX 240041Z 15007KT 10SM BKN011 22/20 A2994 RMK AO2 TSNO
0187720407004622023062403407+39928-074292FM-15+0025KMJX V0201705N00265002135MN0160935N5+01905+01905999999ADDGA1075+002135999GD13991+0021359GE19AGL   +99999+99999GF199999999999002131999999MA1101355101055REMMET08106/23/23 22:40:02 METAR KMJX 240340Z 17005KT 10SM BKN007 19/19 A2993 RMK AO2 TSNO
0186720407004622023062404437+39928-074292FM-15+0025KMJX V0201705N00415001525MN0144845N5+02105+02005999999ADDGA1085+001525999GD14991+0015259GE19AGL   +99999+99999GF199999999999001521999999MA1101325101025REMMET08006/23/23 23:43:02 METAR KMJX 240443Z 17008KT 9SM OVC005 21/20 A2992 RMK AO2 TSNO
0304720407004622023062408567+39928-074292FM-15+0025KMJX V0201805N00315000915MN0160935N5+02065+02065101245ADDAA101000595AA203001091AU110020015AW1615GA1085+000915999GD14991+0009159GE19AGL   +99999+99999GF199999999999000911999999MA1101225100925MD1590089+9999MW1615REMMET12006/24/23 03:56:02 METAR KMJX 240856Z 18006KT 10SM -RA OVC003 21/21 A2989 RMK AO2 SLP124 P0002 60004 T02060206 55008 TSNOEQDQ01  00108PRCP03
001572040700462202306250459O+39928-074292SOD  +0025KMJX V020999999999999999999999999999+99999+99999999999ADDAT1AU16RA  5
0205720407004622023062509077+39928-074292FM-15+0025KMJX V0209999C000052200059N0112655N5+01905+01905999999ADDGA1045+033535999GD12991+0335359GE19AGL   +99999+99999GF104995999999033531999999MA1101025100725REMMET08006/25/23 04:07:02 METAR KMJX 250907Z 00000KT 7SM SCT110 19/19 A2983 RMK AO2 TSNOEQDD01      0ADE726
0181720407004622023062509377+39928-074292FM-15+0025KMJX V0209999C000052200059N0048285N5+01805+01805999999ADDAU100001015AW1105GA1005+999999999GD10991+9999999GF100991999999999999999999MA1101025100725REMMET08006/25/23 04:37:02 METAR KMJX 250937Z 00000KT 3SM BR CLR 18/18 A2983 RMK AO2 TSNO
0263720407004622023062515257+39928-074292FM-15+0025KMJX V0201505N00265024385MN0160935N5+02805+02205999999ADDGA1045+008235999GA2045+018295999GA3075+024385999GD12991+0082359GD22991+0182959GD33991+0243859GE19AGL   +99999+99999GF199999999999008231999999MA1101025100725REMMET09506/25/23 10:25:02 METAR KMJX 251525Z 15005KT 10SM SCT027 SCT060 BKN080 28/22 A2983 RMK AO2 TSNO
0313720407004622023062515537+39928-074292FM-15+0025KMJX V0201605N00465013415MN0020125N5+02605+02305999999ADDAU100007015AW1051GA1045+007625999GA2075+013415999GA3085+022865999GD12991+0076259GD23991+0134159GD34991+0228659GE19AGL   +99999+99999GF199999999999007621999999MA1101025100725MW1055REMMET12206/25/23 10:53:02 METAR KMJX 251553Z 16009KT 1 1/4SM HZ SCT025 BKN044 OVC075 26/23 A2983 RMK AO2 TSB29E31B38E41B47E49 TSNO
0284720407004622023062516207+39928-074292FM-15+0025KMJX V0201305N00315021345MN0160935N5+02605+02305999999ADDAA101000021AU110020015AW1615GA1045+013415999GA2085+021345999GD12991+0134159GD24991+0213459GE19AGL   +99999+99999GF199999999999013411999999MA1101025100725MW1615REMMET11306/25/23 11:20:02 METAR KMJX 251620Z 13006KT 10SM -RA SCT044 OVC070 26/23 A2983 RMK AO2 TSB06E08B18E20RAB15 P0000
0215720407004622023062604567+39928-074292FM-15+0025KMJX V0209999C000052200059N0160935N5+02005+02005100965ADDGA1005+999999999GD10991+9999999GF100991999999999999999999KA1240M+02941KA2240N+01831MA1100915100625REMMET10506/25/23 23:56:02 METAR KMJX 260456Z 00000KT 10SM CLR 20/20 A2980 RMK AO2 SLP096 T02000200 402940183 TSNO
003972040700462202306260459O+39928-074292SOD  +0025KMJX V020999999999999999999999999999+99999+99999999999ADDAT1AU16RA  5AT2AU13BR  5AT3AU08HZ  5
0186720407004622023062709097+39928-074292FM-15+0025KMJX V0209999C00005000915MN0112655N5+01905+01805999999ADDGA1075+000915999GD13991+0009159GE19AGL   +99999+99999GF199999999999000911999999MA1100475100185REMMET08006/27/23 04:09:02 METAR KMJX 270909Z 00000KT 7SM BKN003 19/18 A2967 RMK AO2 TSNO
0326720407004622023062715067+39928-074292FM-15+0025KMJX V0201505N00365004275MN0096565N5+02205+02105999999ADDAA101000595AU110020015AU200001015AW1105AW2615GA1075+004275999GA2075+006715999GA3085+010065999GD13991+0042759GD23991+0067159GD34991+0100659GE19AGL   +99999+99999GF199999999999004271999999MA1100685100385MW1615REMMET10706/27/23 10:06:02 METAR KMJX 271506Z 15007KT 6SM -RA BR BKN014 BKN022 OVC033 22/21 A2973 RMK AO2 P0002 TSNO
0286720407004622023062801567+39928-074292FM-15+0025KMJX V0201905N00215033535MN0160935N5+01895+01895100895ADDAA101002395AU110020015AW1615GA1025+027435999GA2085+033535999GD11991+0274359GD24991+0335359GE19AGL   +99999+99999GF199999999999027431999999MA1100855100555MW1615REMMET11506/27/23 20:56:01 METAR KMJX 280156Z 19004KT 10SM -RA FEW090 OVC110 19/19 A2978 RMK AO2 SLP089 P0009 T01890189 TSNO
002772040700462202306280459O+39928-074292SOD  +0025KMJX V020999999999999999999999999999+99999+99999999999ADDAT1AU16RA  5AT2AU13BR  5
0206720407004622023062810447+39928-074292FM-15+0025KMJX V0209999C00005000915MN0064375N5+01805+01805999999ADDAU100001015AW1105GA1085+000915999GD14991+0009159GE19AGL   +99999+99999GF199999999999000911999999MA1100915100625REMMET08306/28/23 05:44:02 METAR KMJX 281044Z 00000KT 4SM BR OVC003 18/18 A2980 RMK AO2 TSNO
0261720407004622023062823567+39928-074292FM-15+0025KMJX V0202505N00155022865MN0128755N5+02505+01835101225ADDGA1085+022865999GD14991+0228659GE19AGL   +99999+99999GF199999999999022861999999KA1060M+02891KA2060N+02501MA1101195100895MD1390169+9999REMMET11506/28/23 18:56:02 METAR KMJX 282356Z 25003KT 8SM OVC075 25/18 A2988 RMK AO2 SLP122 T02500183 10289 20250 53016 TSNO
001572040700462202306290459O+39928-074292SOD  +0025KMJX V020999999999999999999999999999+99999+99999999999ADDAT1AU13BR  5
0332720407004622023070205257+39928-074292FM-15+0025KMJX V0201505N00215014335MN0064375N5+02205+02205999999ADDAA101001231AU130020015AU200001015AW1105AW2635GA1025+002745999GA2045+007925999GA3085+014335999GD11991+0027459GD22991+0079259GD34991+0143359GE19AGL   +99999+99999GF199999999999002741999999MA1101425101125MW1635REMMET11307/02/23 00:25:02 METAR KMJX 020525Z 15004KT 4SM +RA BR FEW009 SCT026 OVC047 22/22 A2995 RMK AO2 RAB20 P0005 TSNO
0245720407004622023070207567+39928-074292FM-15+0025KMJX V0201705N002152200059N0128755N5+02175+02175101285ADDAA101000021GA1045+010365999GD12991+0103659GE19AGL   +99999+99999GF104995999999010361999999MA1101255100955REMMET10907/02/23 02:56:02 METAR KMJX 020756Z 17004KT 8SM SCT034 22/22 A2990 RMK AO2 RAE24 SLP128 P0000 T02170217 TSNOEQDD01      0ADE726
0198720407004622023070302567+39928-074292FM-15+0025KMJX V0201705N003152200059N0128755N5+02505+02395101015ADDGA1005+999999999GD10991+9999999GF100991999999999999999999MA1100985100685MD1090029+9999REMMET10007/02/23 21:56:01 METAR KMJX 030256Z 17006KT 8SM CLR 25/24 A2982 RMK AO2 SLP101 T02500239 50002 TSNO
002772040700462202307030459O+39928-074292SOD  +0025KMJX V020999999999999999999999999999+99999+99999999999ADDAT1AU16RA  5AT2AU13BR  5
0273720407004622023070311567+39928-074292FM-15+0025KMJX V0209999C000052200059N0160935N5+02505+02285101135ADDAA124002891GA1005+999999999GD10991+9999999GF100991999999999999999999KA1060M+02501KA2060N+02001MA1101125100825MD1390109+9999REMMET11907/03/23 06:56:02 METAR KMJX 031156Z 00000KT 10SM CLR 25/23 A2986 RMK AO2 SLP113 70011 T02500228 10250 20200 53010 TSNOEQDQ01  00278PRCP24
0237720407004622023091505567+39928-074292FM-15+0025KMJX V0203605N003652200059N0160935N5+01505+00945101835ADDGA1005+999999999GD10991+9999999GF100991999999999999999999KA1060M+01941KA2060N+01501MA1101795101495MD1890069+9999REMMET11309/15/23 00:56:02 METAR KMJX 150556Z 36007KT 10SM CLR 15/09 A3006 RMK AO2 SLP183 T01500094 10194 20150 58006 TSNO
0236720407004622023092217327+39928-074292FM-15+0025KMJX V0200605N00625008535MN0160935N5+02105+01405999999ADDGA1075+008535999GA2075+010975999GD13991+0085359GD23991+0109759GE19AGL   +99999+99999GF199999999999008531999999MA1102715102415OC100885REMMET09109/22/23 12:32:02 METAR KMJX 221732Z 06012G17KT 10SM BKN028 BKN036 21/14 A3033 RMK AO2 TSNO
0273720407004622023101711567+39928-074292FM-15+0025KMJX V0209999C000052200059N0160935N5+00675+00615101225ADDAA124000391GA1005+999999999GD10991+9999999GF100991999999999999999999KA1060M+01001KA2060N+00501MA1101195100895MD1390229+9999REMMET11910/17/23 06:56:02 METAR KMJX 171156Z 00000KT 10SM CLR 07/06 A2988 RMK AO2 SLP122 70001 T00670061 10100 20050 53022 TSNOEQDQ01  00028PRCP24
0174720407004622023101712567+39928-074292FM-15+0025KMJX V0203405N004152200059N0160935N5+01065+00895101325ADDGA1005+999999999GD10991+9999999GF100991999999999999999999MA1101295100995REMMET09010/17/23 07:56:02 METAR KMJX 171256Z 34008KT 10SM CLR 11/09 A2991 RMK AO2 SLP132 T01060089
0174720407004622023101713567+39928-074292FM-15+0025KMJX V0203505N003652200059N0160935N5+01335+00945101395ADDGA1005+999999999GD10991+9999999GF100991999999999999999999MA1101355101055REMMET09010/17/23 08:56:02 METAR KMJX 171356Z 35007KT 10SM CLR 13/09 A2993 RMK AO2 SLP139 T01330094
0238720407004622023101714567+39928-074292FM-15+0025KMJX V0203505N003152200059N0160935N5+01505+00895101435ADDGA1025+007015999GD11991+0070159GE19AGL   +99999+99999GF102995999999007011999999MA1101395101095MD1190219+9999REMMET09910/17/23 09:56:02 METAR KMJX 171456Z 35006KT 10SM FEW023 15/09 A2994 RMK AO2 SLP143 T01500089 51021EQDD01      0ADE726
0275720407004622023101715567+39928-074292FM-15+0025KMJX V0203405N00315009145MN0160935N5+01505+00835101425ADDGA1075+009145999GA2075+012505999GA3075+014945999GD13991+0091459GD23991+0125059GD33991+0149459GE19AGL   +99999+99999GF199999999999009141999999MA1101395101095REMMET10710/17/23 10:56:02 METAR KMJX 171556Z 34006KT 10SM BKN030 BKN041 BKN049 15/08 A2994 RMK AO2 SLP142 T01500083
0237720407004622023101716567+39928-074292FM-15+0025KMJX V0200105N00315018295MN0160935N5+01615+00835101425ADDGA1045+011285999GA2075+018295999GD12991+0112859GD23991+0182959GE19AGL   +99999+99999GF199999999999011281999999MA1101395101095REMMET10010/17/23 11:56:02 METAR KMJX 171656Z 01006KT 10SM SCT037 BKN060 16/08 A2994 RMK AO2 SLP142 T01610083
0330720407004622023101717567+39928-074292FM-15+0025KMJX V0203105N00265021345MN0160935N5+01675+00835101425ADDGA1025+010975999GA2085+021345999GD11991+0109759GD24991+0213459GE19AGL   +99999+99999GF199999999999010971999999KA1060M+01721KA2060N+00671MA1101395101095MD1690009+9999REMMET11810/17/23 12:56:02 METAR KMJX 171756Z 31005KT 10SM FEW036 OVC070 17/08 A2994 RMK AO2 SLP142 T01670083 10172 20067 56000EQDQ010     3APC3  Q026     3APCTEN
0151720407004622023101718566+39928-074292FM-15+0025KMJX V0203305N00265021345MN0160935N5+01615+00835101445ADDGA1085+021345999GD14991+0213459MA1101425101125REMMET09310/17/23 13:56:02 METAR KMJX 171856Z 33005KT 10SM OVC070 16/08 A2995 RMK AO2 SLP144 T01610083
0199720407004622023101719567+39928-074292FM-15+0025KMJX V0200605N00215019815MN0160935N5+01615+00725101485ADDGA1085+019815999GD14991+0198159GE19AGL   +99999+99999GF199999999999019811999999MA1101465101165REMMET09310/17/23 14:56:02 METAR KMJX 171956Z 06004KT 10SM OVC065 16/07 A2996 RMK AO2 SLP148 T01610072
0219720407004622023101720567+39928-074292FM-15+0025KMJX V0201305N00155024385MN0160935N5+01505+01065101545ADDGA1075+024385999GD13991+0243859GE19AGL   +99999+99999GF199999999999024381999999MA1101525101225MD1390129+9999REMMET09910/17/23 15:56:02 METAR KMJX 172056Z 13003KT 10SM BKN080 15/11 A2998 RMK AO2 SLP154 T01500106 53012
0218720407004622023101721567+39928-074292FM-15+0025KMJX V0209999C000052200059N0160935N5+01285+01065101595ADDGA1025+012805999GD11991+0128059GE19AGL   +99999+99999GF102995999999012801999999MA1101565101265REMMET09310/17/23 16:56:02 METAR KMJX 172156Z 00000KT 10SM FEW042 13/11 A2999 RMK AO2 SLP159 T01280106EQDD01      0ADE726
0174720407004622023101722567+39928-074292FM-15+0025KMJX V0209999C000052200059N0160935N5+01065+00945101655ADDGA1005+999999999GD10991+9999999GF100991999999999999999999MA1101635101325REMMET09010/17/23 17:56:02 METAR KMJX 172256Z 00000KT 10SM CLR 11/09 A3001 RMK AO2 SLP165 T01060094
0232720407004622023101723567+39928-074292FM-15+0025KMJX V0209999C000052200059N0160935N5+00895+00835101725ADDGA1005+999999999GD10991+9999999GF100991999999999999999999KA1060M+01781KA2060N+00891MA1101695101395MD1390189+9999REMMET10810/17/23 18:56:02 METAR KMJX 172356Z 00000KT 10SM CLR 09/08 A3003 RMK AO2 SLP172 T00890083 10178 20089 53018
0174720407004622023101800567+39928-074292FM-15+0025KMJX V0209999C000052200059N0160935N5+00725+00675101775ADDGA1005+999999999GD10991+9999999GF100991999999999999999999MA1101735101435REMMET09010/17/23 19:56:01 METAR KMJX 180056Z 00000KT 10SM CLR 07/07 A3004 RMK AO2 SLP177 T00720067
0174720407004622023101801567+39928-074292FM-15+0025KMJX V0209999C000052200059N0160935N5+00675+00615101835ADDGA1005+999999999GD10991+9999999GF100991999999999999999999MA1101795101495REMMET09010/17/23 20:56:01 METAR KMJX 180156Z 00000KT 10SM CLR 07/06 A3006 RMK AO2 SLP183 T00670061
0194720407004622023101802567+39928-074292FM-15+0025KMJX V0209999C000052200059N0160935N5+00505+00445101865ADDGA1005+999999999GD10991+9999999GF100991999999999999999999MA1101835101535MD1190149+9999REMMET09610/17/23 21:56:02 METAR KMJX 180256Z 00000KT 10SM CLR 05/04 A3007 RMK AO2 SLP186 T00500044 51014
0174720407004622023101803567+39928-074292FM-15+0025KMJX V0209999C000052200059N0160935N5+00445+00335101905ADDGA1005+999999999GD10991+9999999GF100991999999999999999999MA1101865101565REMMET09010/17/23 22:56:02 METAR KMJX 180356Z 00000KT 10SM CLR 04/03 A3008 RMK AO2 SLP190 T00440033
0273720407004622023101804567+39928-074292FM-15+0025KMJX V0209999C00005021345MN0160935N5+00445+00395101935ADDGA1075+021345999GA2075+027435999GD13991+0213459GD23991+0274359GE19AGL   +99999+99999GF199999999999021341999999KA1240M+01781KA2240N+00391MA1101905101595REMMET11010/17/23 23:56:02 METAR KMJX 180456Z 00000KT 10SM BKN070 BKN090 04/04 A3009 RMK AO2 SLP193 T00440039 401780039
0257720407004622023101805567+39928-074292FM-15+0025KMJX V0209999C00005025915MN0160935N5+00675+00675101955ADDGA1085+025915999GD14991+0259159GE19AGL   +99999+99999GF199999999999025911999999KA1060M+00891KA2060N+00391MA1101935101635MD1190099+9999REMMET11110/18/23 00:56:01 METAR KMJX 180556Z 00000KT 10SM OVC085 07/07 A3010 RMK AO2 SLP195 T00670067 10089 20039 51009
0199720407004622023101806567+39928-074292FM-15+0025KMJX V0209999C00005025915MN0160935N5+00725+00675101975ADDGA1085+025915999GD14991+0259159GE19AGL   +99999+99999GF199999999999025911999999MA1101935101635REMMET09310/18/23 01:56:01 METAR KMJX 180656Z 00000KT 10SM OVC085 07/07 A3010 RMK AO2 SLP197 T00720067
0199720407004622023101807567+39928-074292FM-15+0025KMJX V0209999C00005025915MN0160935N5+00675+00675101965ADDGA1085+025915999GD14991+0259159GE19AGL   +99999+99999GF199999999999025911999999MA1101935101635REMMET09310/18/23 02:56:01 METAR KMJX 180756Z 00000KT 10SM OVC085 07/07 A3010 RMK AO2 SLP196 T00670067
0199720407004622023101809567+39928-074292FM-15+0025KMJX V0209999C00005025915MN0160935N5+00615+00615102045ADDGA1085+025915999GD14991+0259159GE19AGL   +99999+99999GF199999999999025911999999MA1102005101705REMMET09310/18/23 04:56:02 METAR KMJX 180956Z 00000KT 10SM OVC085 06/06 A3012 RMK AO2 SLP204 T00610061
0257720407004622023101811567+39928-074292FM-15+0025KMJX V0209999C00005025915MN0160935N5+00675+00675102125ADDGA1075+025915999GD13991+0259159GE19AGL   +99999+99999GF199999999999025911999999KA1060M+00781KA2060N+00561MA1102105101805MD1390139+9999REMMET11110/18/23 06:56:02 METAR KMJX 181156Z 00000KT 10SM BKN085 07/07 A3015 RMK AO2 SLP212 T00670067 10078 20056 53013
0218720407004622023101812567+39928-074292FM-15+0025KMJX V0209999C000052200059N0160935N5+01285+01005102175ADDGA1045+025915999GD12991+0259159GE19AGL   +99999+99999GF104995999999025911999999MA1102135101835REMMET09310/18/23 07:56:02 METAR KMJX 181256Z 00000KT 10SM SCT085 13/10 A3016 RMK AO2 SLP217 T01280100EQDD01      0ADE726
0174720407004622023101813567+39928-074292FM-15+0025KMJX V0209999C000052200059N0160935N5+01675+01005102215ADDGA1005+999999999GD10991+9999999GF100991999999999999999999MA1102175101875REMMET09010/18/23 08:56:02 METAR KMJX 181356Z 00000KT 10SM CLR 17/10 A3017 RMK AO2 SLP221 T01670100
0194720407004622023101814567+39928-074292FM-15+0025KMJX V0209999C000052200059N0160935N5+01785+00835102205ADDGA1005+999999999GD10991+9999999GF100991999999999999999999MA1102175101875MD1090079+9999REMMET09610/18/23 09:56:02 METAR KMJX 181456Z 00000KT 10SM CLR 18/08 A3017 RMK AO2 SLP220 T01780083 50007
0218720407004622023101815567+39928-074292FM-15+0025KMJX V0201705N003152200059N0160935N5+01835+00785102185ADDGA1045+012805999GD12991+0128059GE19AGL   +99999+99999GF104995999999012801999999MA1102135101835REMMET09310/18/23 10:56:02 METAR KMJX 181556Z 17006KT 10SM SCT042 18/08 A3016 RMK AO2 SLP218 T01830078EQDD01      0ADE726
0218720407004622023101816567+39928-074292FM-15+0025KMJX V0201205N002152200059N0160935N5+01945+00835102115ADDGA1025+013725999GD11991+0137259GE19AGL   +99999+99999GF102995999999013721999999MA1102105101805REMMET09310/18/23 11:56:02 METAR KMJX 181656Z 12004KT 10SM FEW045 19/08 A3015 RMK AO2 SLP211 T01940083EQDD01      0ADE726
0295720407004622023101817567+39928-074292FM-15+0025KMJX V0201105N00265024385MN0160935N5+01785+00895102085ADDGA1025+013725999GA2085+024385999GD11991+0137259GD24991+0243859GE19AGL   +99999+99999GF199999999999013721999999KA1060M+02061KA2060N+00721MA1102075101765MD1890129+9999REMMET11810/18/23 12:56:02 METAR KMJX 181756Z 11005KT 10SM FEW045 OVC080 18/09 A3014 RMK AO2 SLP208 T01780089 10206 20072 58012
0199720407004622023101818567+39928-074292FM-15+0025KMJX V0201105N00265024385MN0160935N5+01725+00945102085ADDGA1085+024385999GD14991+0243859GE19AGL   +99999+99999GF199999999999024381999999MA1102075101765REMMET09310/18/23 13:56:02 METAR KMJX 181856Z 11005KT 10SM OVC080 17/09 A3014 RMK AO2 SLP208 T01720094
0199720407004622023101819567+39928-074292FM-15+0025KMJX V0201205N00155022865MN0160935N5+01675+01005102075ADDGA1085+022865999GD14991+0228659GE19AGL   +99999+99999GF199999999999022861999999MA1102035101735REMMET09310/18/23 14:56:02 METAR KMJX 181956Z 12003KT 10SM OVC075 17/10 A3013 RMK AO2 SLP207 T01670100
0219720407004622023101820567+39928-074292FM-15+0025KMJX V0201505N00215022865MN0160935N5+01675+01065102085ADDGA1085+022865999GD14991+0228659GE19AGL   +99999+99999GF199999999999022861999999MA1102075101765MD1590009+9999REMMET09910/18/23 15:56:02 METAR KMJX 182056Z 15004KT 10SM OVC075 17/11 A3014 RMK AO2 SLP208 T01670106 55000
0199720407004622023101821567+39928-074292FM-15+0025KMJX V0201405N00215024385MN0160935N5+01505+01115102115ADDGA1085+024385999GD14991+0243859GE19AGL   +99999+99999GF199999999999024381999999MA1102075101765REMMET09310/18/23 16:56:02 METAR KMJX 182156Z 14004KT 10SM OVC080 15/11 A3014 RMK AO2 SLP211 T01500111
0199720407004622023101822567+39928-074292FM-15+0025KMJX V0201405N00155024385MN0160935N5+01335+01115102135ADDGA1085+024385999GD14991+0243859GE19AGL   +99999+99999GF199999999999024381999999MA1102105101805REMMET09310/18/23 17:56:02 METAR KMJX 182256Z 14003KT 10SM OVC080 13/11 A3015 RMK AO2 SLP213 T01330111
0232720407004622023101823567+39928-074292FM-15+0025KMJX V0209999C000052200059N0160935N5+01175+01005102145ADDGA1005+999999999GD10991+9999999GF100991999999999999999999KA1060M+01781KA2060N+01171MA1102105101805MD1190069+9999REMMET10810/18/23 18:56:02 METAR KMJX 182356Z 00000KT 10SM CLR 12/10 A3015 RMK AO2 SLP214 T01170100 10178 20117 51006
0174720407004622023101900567+39928-074292FM-15+0025KMJX V0209999C000052200059N0160935N5+00945+00895102185ADDGA1005+999999999GD10991+9999999GF100991999999999999999999MA1102135101835REMMET09010/18/23 19:56:01 METAR KMJX 190056Z 00000KT 10SM CLR 09/09 A3016 RMK AO2 SLP218 T00940089
0174720407004622023101901567+39928-074292FM-15+0025KMJX V0209999C000052200059N0160935N5+00725+00675102215ADDGA1005+999999999GD10991+9999999GF100991999999999999999999MA1102175101875REMMET09010/18/23 20:56:01 METAR KMJX 190156Z 00000KT 10SM CLR 07/07 A3017 RMK AO2 SLP221 T00720067
0194720407004622023101902567+39928-074292FM-15+0025KMJX V0209999C000052200059N0160935N5+00615+00505102205ADDGA1005+999999999GD10991+9999999GF100991999999999999999999MA1102175101875MD1090069+9999REMMET09610/18/23 21:56:01 METAR KMJX 190256Z 00000KT 10SM CLR 06/05 A3017 RMK AO2 SLP220 T00610050 50006
0174720407004622023101903567+39928-074292FM-15+0025KMJX V0209999C000052200059N0160935N5+00565+00505102205ADDGA1005+999999999GD10991+9999999GF100991999999999999999999MA1102175101875REMMET09010/18/23 22:56:02 METAR KMJX 190356Z 00000KT 10SM CLR 06/05 A3017 RMK AO2 SLP220 T00560050
0210720407004622023101904567+39928-074292FM-15+0025KMJX V0209999C000052200059N0160935N5+00505+00445102215ADDGA1005+999999999GD10991+9999999GF100991999999999999999999KA1240M+02061KA2240N+00441MA1102175101875REMMET10010/18/23 23:56:02 METAR KMJX 190456Z 00000KT 10SM CLR 05/04 A3017 RMK AO2 SLP221 T00500044 402060044
0232720407004622023101905567+39928-074292FM-15+0025KMJX V0209999C000052200059N0160935N5+00445+00395102225ADDGA1005+999999999GD10991+9999999GF100991999999999999999999KA1060M+01171KA2060N+00391MA1102205101905MD1390029+9999REMMET10810/19/23 00:56:02 METAR KMJX 190556Z 00000KT 10SM CLR 04/04 A3018 RMK AO2 SLP222 T00440039 10117 20039 53002
0174720407004622023101906567+39928-074292FM-15+0025KMJX V0209999C000052200059N0160935N5+00445+00395102215ADDGA1005+999999999GD10991+9999999GF100991999999999999999999MA1102175101875REMMET09010/19/23 01:56:02 METAR KMJX 190656Z 00000KT 10SM CLR 04/04 A3017 RMK AO2 SLP221 T00440039
0174720407004622023101907567+39928-074292FM-15+0025KMJX V0209999C000052200059N0160935N5+00285+00175102195ADDGA1005+999999999GD10991+9999999GF100991999999999999999999MA1102175101875REMMET09010/19/23 02:56:02 METAR KMJX 190756Z 00000KT 10SM CLR 03/02 A3017 RMK AO2 SLP219 T00280017
0213720407004622023101908567+39928-074292FM-15+0025KMJX V0209999C000052200059N0160935N5+00285+00175102225ADDGA1005+999999999GD10991+9999999GF100991999999999999999999MA1102205101905MD1390009+9999REMMET09610/19/23 03:56:02 METAR KMJX 190856Z 00000KT 10SM CLR 03/02 A3018 RMK AO2 SLP222 T00280017 53000EQDQ013     3APCTEN
0181720407004622023101909567+39928-074292FM-15+0025KMJX V0209999C000052200059N0160935N5+00175+00115102265ADDGA1005+999999999GD10991+9999999GF100991999999999999999999MA1102245101935REMMET09710/19/23 04:56:02 METAR KMJX 190956Z 00000KT 10SM CLR 02/01 A3019 RMK AO2 SLP226 T00170011 FZRANO
0181720407004622023101910567+39928-074292FM-15+0025KMJX V0209999C000052200059N0160935N5+00175+00115102255ADDGA1005+999999999GD10991+9999999GF100991999999999999999999MA1102245101935REMMET09710/19/23 05:56:02 METAR KMJX 191056Z 00000KT 10SM CLR 02/01 A3019 RMK AO2 SLP225 T00170011 FZRANO
0232720407004622023101911567+39928-074292FM-15+0025KMJX V0209999C000052200059N0160935N5+00285+00225102285ADDGA1005+999999999GD10991+9999999GF100991999999999999999999KA1060M+00441KA2060N+00111MA1102245101935MD1190069+9999REMMET10810/19/23 06:56:02 METAR KMJX 191156Z 00000KT 10SM CLR 03/02 A3019 RMK AO2 SLP228 T00280022 10044 20011 51006
0174720407004622023101912567+39928-074292FM-15+0025KMJX V0209999C000052200059N0160935N5+00945+00725102325ADDGA1005+999999999GD10991+9999999GF100991999999999999999999MA1102305102005REMMET09010/19/23 07:56:02 METAR KMJX 191256Z 00000KT 10SM CLR 09/07 A3021 RMK AO2 SLP232 T00940072
0174720407004622023101913567+39928-074292FM-15+0025KMJX V0201805N001552200059N0160935N5+01565+00725102285ADDGA1005+999999999GD10991+9999999GF100991999999999999999999MA1102245101935REMMET09010/19/23 08:56:02 METAR KMJX 191356Z 18003KT 10SM CLR 16/07 A3019 RMK AO2 SLP228 T01560072
0194720407004622023101914567+39928-074292FM-15+0025KMJX V0202205N002152200059N0160935N5+01785+00675102245ADDGA1005+999999999GD10991+9999999GF100991999999999999999999MA1102205101905MD1890049+9999REMMET09610/19/23 09:56:02 METAR KMJX 191456Z 22004KT 10SM CLR 18/07 A3018 RMK AO2 SLP224 T01780067 58004
0174720407004622023101915567+39928-074292FM-15+0025KMJX V0202005N003652200059N0160935N5+01835+00725102165ADDGA1005+999999999GD10991+9999999GF100991999999999999999999MA1102135101835REMMET09010/19/23 10:56:02 METAR KMJX 191556Z 20007KT 10SM CLR 18/07 A3016 RMK AO2 SLP216 T01830072
0218720407004622023101916567+39928-074292FM-15+0025KMJX V0209999V002652200059N0160935N5+01946+00835102095ADDGA1025+016765999GD11991+0167659GE19AGL   +99999+99999GF102995999999016761999999MA1102075101765REMMET09310/19/23 11:56:02 METAR KMJX 191656Z VRB05KT 10SM FEW055 19/08 A3014 RMK AO2 SLP209 T01940083EQDD01      0ADE726
0257720407004622023101917567+39928-074292FM-15+0025KMJX V0201605N00515013115MN0160935N5+01895+01005101985ADDGA1085+013115999GD14991+0131159GE19AGL   +99999+99999GF199999999999013111999999KA1060M+02001KA2060N+00281MA1101935101635MD1890269+9999REMMET11110/19/23 12:56:02 METAR KMJX 191756Z 16010KT 10SM OVC043 19/10 A3010 RMK AO2 SLP198 T01890100 10200 20028 58026
0199720407004622023101918567+39928-074292FM-15+0025KMJX V0201805N00465014335MN0160935N5+01945+01005101905ADDGA1075+014335999GD13991+0143359GE19AGL   +99999+99999GF199999999999014331999999MA1101865101565REMMET09310/19/23 13:56:02 METAR KMJX 191856Z 18009KT 10SM BKN047 19/10 A3008 RMK AO2 SLP190 T01940100
0256720407004622023101919567+39928-074292FM-15+0025KMJX V0201605N004652200059N0160935N5+01835+01115101885ADDGA1025+011285999GA2045+013725999GD11991+0112859GD22991+0137259GE19AGL   +99999+99999GF104995999999011281999999MA1101865101565REMMET10010/19/23 14:56:02 METAR KMJX 191956Z 16009KT 10SM FEW037 SCT045 18/11 A3008 RMK AO2 SLP188 T01830111EQDD01      0ADE726
0194720407004622023101920567+39928-074292FM-15+0025KMJX V0201605N004152200059N0160935N5+01725+01065101865ADDGA1005+999999999GD10991+9999999GF100991999999999999999999MA1101835101535MD1690119+9999REMMET09610/19/23 15:56:02 METAR KMJX 192056Z 16008KT 10SM CLR 17/11 A3007 RMK AO2 SLP186 T01720106 56011
0174720407004622023101921567+39928-074292FM-15+0025KMJX V0201605N003152200059N0160935N5+01505+01115101865ADDGA1005+999999999GD10991+9999999GF100991999999999999999999MA1101835101535REMMET09010/19/23 16:56:02 METAR KMJX 192156Z 16006KT 10SM CLR 15/11 A3007 RMK AO2 SLP186 T01500111
0174720407004622023101922567+39928-074292FM-15+0025KMJX V0201305N001552200059N0160935N5+01335+01115101835ADDGA1005+999999999GD10991+9999999GF100991999999999999999999MA1101795101495REMMET09010/19/23 17:56:02 METAR KMJX 192256Z 13003KT 10SM CLR 13/11 A3006 RMK AO2 SLP183 T01330111
0232720407004622023101923567+39928-074292FM-15+0025KMJX V0201605N001552200059N0160935N5+01225+01115101805ADDGA1005+999999999GD10991+9999999GF100991999999999999999999KA1060M+01941KA2060N+01221MA1101765101465MD1890069+9999REMMET10810/19/23 18:56:02 METAR KMJX 192356Z 16003KT 10SM CLR 12/11 A3005 RMK AO2 SLP180 T01220111 10194 20122 58006
0174720407004622023102000567+39928-074292FM-15+0025KMJX V0201605N002152200059N0160935N5+01175+01115101755ADDGA1005+999999999GD10991+9999999GF100991999999999999999999MA1101735101435REMMET09010/19/23 19:56:01 METAR KMJX 200056Z 16004KT 10SM CLR 12/11 A3004 RMK AO2 SLP175 T01170111
0174720407004622023102001567+39928-074292FM-15+0025KMJX V0201705N001552200059N0160935N5+01175+01115101755ADDGA1005+999999999GD10991+9999999GF100991999999999999999999MA1101735101435REMMET09010/19/23 20:56:01 METAR KMJX 200156Z 17003KT 10SM CLR 12/11 A3004 RMK AO2 SLP175 T01170111
0194720407004622023102002567+39928-074292FM-15+0025KMJX V0209999C000052200059N0160935N5+00945+00835101715ADDGA1005+999999999GD10991+9999999GF100991999999999999999999MA1101695101395MD1690099+9999REMMET09610/19/23 21:56:01 METAR KMJX 200256Z 00000KT 10SM CLR 09/08 A3003 RMK AO2 SLP171 T00940083 56009
0218720407004622023102003567+39928-074292FM-15+0025KMJX V0209999C000052200059N0160935N5+00835+00785101645ADDGA1025+018295999GD11991+0182959GE19AGL   +99999+99999GF102995999999018291999999MA1101635101325REMMET09310/19/23 22:56:02 METAR KMJX 200356Z 00000KT 10SM FEW060 08/08 A3001 RMK AO2 SLP164 T00830078EQDD01      0ADE726
0235720407004622023102004567+39928-074292FM-15+0025KMJX V0209999C00005015245MN0160935N5+01005+00945101575ADDGA1085+015245999GD14991+0152459GE19AGL   +99999+99999GF199999999999015241999999KA1240M+02001KA2240N+00111MA1101525101225REMMET10310/19/23 23:56:02 METAR KMJX 200456Z 00000KT 10SM OVC050 10/09 A2998 RMK AO2 SLP157 T01000094 402000011
0257720407004622023102005567+39928-074292FM-15+0025KMJX V0209999C00005014635MN0160935N5+01115+01065101505ADDGA1085+014635999GD14991+0146359GE19AGL   +99999+99999GF199999999999014631999999KA1060M+01221KA2060N+00781MA1101465101165MD1790219+9999REMMET11110/20/23 00:56:02 METAR KMJX 200556Z 00000KT 10SM OVC048 11/11 A2996 RMK AO2 SLP150 T01110106 10122 20078 57021
0263720407004622023102006567+39928-074292FM-15+0025KMJX V0201405N00215010975MN0160935N5+01395+01335101385ADDAA101000021GA1075+010975999GA2085+013725999GD13991+0109759GD24991+0137259GE19AGL   +99999+99999GF199999999999010971999999MA1101355101055REMMET11510/20/23 01:56:02 METAR KMJX 200656Z 14004KT 10SM BKN036 OVC045 14/13 A2993 RMK AO2 RAB00E42 SLP138 P0000 T01390133
0265720407004622023102007567+39928-074292FM-15+0025KMJX V0201205N00315015245MN0160935N5+01445+01395101245ADDAA101000021GA1045+011285999GA2085+015245999GD12991+0112859GD24991+0152459GE19AGL   +99999+99999GF199999999999011281999999MA1101225100925REMMET11710/20/23 02:56:02 METAR KMJX 200756Z 12006KT 10SM SCT037 OVC050 14/14 A2989 RMK AO2 RAB0658E11 SLP124 P0000 T01440139
0381720407004622023102008567+39928-074292FM-15+0025KMJX V0201305N00215010065MN0160935N5+01505+01505101205ADDAA101002595AA203002591AU110020015AW1615GA1045+006715999GA2075+010065999GA3085+012195999GD12991+0067159GD23991+0100659GD34991+0121959GE19AGL   +99999+99999GF199999999999006711999999MA1101195100895MD1690309+9999MW1615REMMET13510/20/23 03:56:02 METAR KMJX 200856Z 13004KT 10SM -RA SCT022 BKN033 OVC040 15/15 A2988 RMK AO2 RAB15 SLP120 P0010 60010 T01500150 56030EQDQ01  00258PRCP03
0281720407004622023102009117+39928-074292FM-15+0025KMJX V0201505N00155006105MN0160935N5+01505+01505999999ADDAA101000021GA1075+006105999GA2075+008535999GA3085+010675999GD13991+0061059GD23991+0085359GD34991+0106759GE19AGL   +99999+99999GF199999999999006101999999MA1101155100855REMMET10210/20/23 04:11:02 METAR KMJX 200911Z 15003KT 10SM BKN020 BKN028 OVC035 15/15 A2987 RMK AO2 RAE06 P0000
0328720407004622023102009567+39928-074292FM-15+0025KMJX V0201505N00265014335MN0160935N5+01565+01565101125ADDAA101000021AU110020015AW1615GA1025+007015999GA2075+014335999GA3085+025915999GD11991+0070159GD23991+0143359GD34991+0259159GE19AGL   +99999+99999GF199999999999007011999999MA1101085100785MW1615REMMET12610/20/23 04:56:02 METAR KMJX 200956Z 15005KT 10SM -RA FEW023 BKN047 OVC085 16/16 A2985 RMK AO2 RAE06B49 SLP112 P0000 T01560156
0302720407004622023102010267+39928-074292FM-15+0025KMJX V0209999C00005006405MN0160935N5+01605+01605999999ADDAA101000395AU110020015AW1615GA1075+006405999GA2075+009145999GA3085+027435999GD13991+0064059GD23991+0091459GD34991+0274359GE19AGL   +99999+99999GF199999999999006401999999MA1101055100755MW1615REMMET10010/20/23 05:26:02 METAR KMJX 201026Z 00000KT 10SM -RA BKN021 BKN030 OVC090 16/16 A2984 RMK AO2 P0001
0281720407004622023102010447+39928-074292FM-15+0025KMJX V0201505N00265015245MN0160935N5+01605+01605999999ADDAA101000395GA1045+006405999GA2045+011895999GA3085+015245999GD12991+0064059GD22991+0118959GD34991+0152459GE19AGL   +99999+99999GF199999999999006401999999MA1101055100755REMMET10210/20/23 05:44:02 METAR KMJX 201044Z 15005KT 10SM SCT021 SCT039 OVC050 16/16 A2984 RMK AO2 RAE32 P0001
0298720407004622023102010567+39928-074292FM-15+0025KMJX V0201505N00265015245MN0160935N5+01565+01565101075ADDAA101000395GA1045+013415999GA2075+015245999GA3085+027435999GD12991+0134159GD23991+0152459GD34991+0274359GE19AGL   +99999+99999GF199999999999013411999999MA1101055100755REMMET11910/20/23 05:56:02 METAR KMJX 201056Z 15005KT 10SM SCT044 BKN050 OVC090 16/16 A2984 RMK AO2 RAE32 SLP107 P0001 T01560156
0477720407004622023102011567+39928-074292FM-15+0025KMJX V0201805N00215006105MN0048285N5+01615+01615101025ADDAA101001395AA206004191AA324004191AU110020015AU200001015AW1105AW2615GA1075+006105999GA2075+009455999GA3085+012805999GD13991+0061059GD23991+0094559GD34991+0128059GE19AGL   +99999+99999GF199999999999006101999999KA1060M+01611KA2060N+01111MA1100985100685MD1690189+9999MW1615REMMET16110/20/23 06:56:02 METAR KMJX 201156Z 18004KT 3SM -RA BR BKN020 BKN031 OVC042 16/16 A2982 RMK AO2 RAB00E11B39 SLP102 P0005 60016 70016 T01610161 10161 20111 56018EQDQ01  00408PRCP06Q02  00408PRCP24
0325720407004622023102012077+39928-074292FM-15+0025KMJX V0202105N00215004575MN0040235N5+01605+01605999999ADDAA101002095AU130020015AU200001015AW1105AW2635GA1045+001835999GA2075+004575999GA3085+009145999GD12991+0018359GD23991+0045759GD34991+0091459GE19AGL   +99999+99999GF199999999999001831999999MA1101025100725MW1635REMMET10610/20/23 07:07:02 METAR KMJX 201207Z 21004KT 2 1/2SM +RA BR SCT006 BKN015 OVC030 16/16 A2983 RMK AO2 P0008
0294720407004622023102012167+39928-074292FM-15+0025KMJX V0201805N00365002445MN0048285N5+01605+01605999999ADDAA101003095AU120020015AU200001015AW1105AW2625GA1075+002445999GA2085+005495999GD13991+0024451GD24991+0054959GE19AGL   +99999+99999GF199999999999002441999999MA1100985100685MW1655REMMET10610/20/23 07:16:02 METAR KMJX 201216Z 18007KT 3SM RA BR BKN008 OVC018 16/16 A2982 RMK AO2 CIG 004V014 P0012
0281720407004622023102012407+39928-074292FM-15+0025KMJX V0201505N00215011285MN0160935N5+01605+01605999999ADDAA101003095GA1045+002445999GA2075+011285999GA3085+015245999GD12991+0024459GD23991+0112859GD34991+0152459GE19AGL   +99999+99999GF199999999999002441999999MA1100985100685REMMET10210/20/23 07:40:02 METAR KMJX 201240Z 15004KT 10SM SCT008 BKN037 OVC050 16/16 A2982 RMK AO2 RAE31 P0012
0298720407004622023102012567+39928-074292FM-15+0025KMJX V0201705N00265013115MN0160935N5+01675+01675100985ADDAA101003095GA1045+010365999GA2075+013115999GA3085+015245999GD12991+0103659GD23991+0131159GD34991+0152459GE19AGL   +99999+99999GF199999999999010361999999MA1100955100655REMMET11910/20/23 07:56:02 METAR KMJX 201256Z 17005KT 10SM SCT034 BKN043 OVC050 17/17 A2981 RMK AO2 RAE31 SLP098 P0012 T01670167
0258720407004622023102013407+39928-074292FM-15+0025KMJX V0201805N00265012805MN0160935N5+01705+01705999999ADDGA1045+002445999GA2075+012805999GA3075+018295999GD12991+0024459GD23991+0128059GD33991+0182959GE19AGL   +99999+99999GF199999999999002441999999MA1100915100625REMMET09010/20/23 08:40:02 METAR KMJX 201340Z 18005KT 10SM SCT008 BKN042 BKN060 17/17 A2980 RMK AO2
0232720407004622023102013487+39928-074292FM-15+0025KMJX V0201705N00215002445MN0160935N5+01705+01705999999ADDGA1075+002445999GA2075+012805999GD13991+0024451GD23991+0128059GE19AGL   +99999+99999GF199999999999002441999999MA1100915100625REMMET09510/20/23 08:48:02 METAR KMJX 201348Z 17004KT 10SM BKN008 BKN042 17/17 A2980 RMK AO2 CIG 006V010
0249720407004622023102013567+39928-074292FM-15+0025KMJX V0201705N00315002445MN0160935N5+01725+01725100935ADDGA1075+002445999GA2085+012805999GD13991+0024451GD24991+0128059GE19AGL   +99999+99999GF199999999999002441999999MA1100915100625REMMET11210/20/23 08:56:02 METAR KMJX 201356Z 17006KT 10SM BKN008 OVC042 17/17 A2980 RMK AO2 CIG 005V010 SLP093 T01720172
0305720407004622023102014567+39928-074292FM-15+0025KMJX V0201505N00365002445MN0160935N5+01785+01785100865ADDAA103003091GA1075+002445999GA2085+015245999GD13991+0024451GD24991+0152459GE19AGL   +99999+99999GF199999999999002441999999MA1100815100515MD1890169+9999REMMET12410/20/23 09:56:02 METAR KMJX 201456Z 15007KT 10SM BKN008 OVC050 18/18 A2977 RMK AO2 CIG 005V012 SLP086 60012 T01780178 58016EQDQ01  00308PRCP03
0220720407004622023102015087+39928-074292FM-15+0025KMJX V0201605N00315016765MN0160935N5+01805+01805999999ADDGA1045+002445999GA2085+016765999GD12991+0024459GD24991+0167659GE19AGL   +99999+99999GF199999999999002441999999MA1100785100485REMMET08310/20/23 10:08:02 METAR KMJX 201508Z 16006KT 10SM SCT008 OVC055 18/18 A2976 RMK AO2
0258720407004622023102015187+39928-074292FM-15+0025KMJX V0201505N00365003665MN0160935N5+01905+01805999999ADDGA1045+002445999GA2075+003665999GA3085+016765999GD12991+0024459GD23991+0036659GD34991+0167659GE19AGL   +99999+99999GF199999999999002441999999MA1100785100485REMMET09010/20/23 10:18:02 METAR KMJX 201518Z 15007KT 10SM SCT008 BKN012 OVC055 19/18 A2976 RMK AO2
0258720407004622023102015427+39928-074292FM-15+0025KMJX V0201705V00465004885MN0160935N5+01905+01705999999ADDGA1025+003055999GA2075+004885999GA3085+006405999GD11991+0030559GD23991+0048859GD34991+0064059GE19AGL   +99999+99999GF199999999999003051999999MA1100755100455REMMET09010/20/23 10:42:02 METAR KMJX 201542Z 17009KT 10SM FEW010 BKN016 OVC021 19/17 A2975 RMK AO2
0220720407004622023102015517+39928-074292FM-15+0025KMJX V0201705N00315004275MN0160935N5+01905+01705999999ADDGA1075+004275999GA2085+006405999GD13991+0042759GD24991+0064059GE19AGL   +99999+99999GF199999999999004271999999MA1100755100455REMMET08310/20/23 10:51:02 METAR KMJX 201551Z 17006KT 10SM BKN014 OVC021 19/17 A2975 RMK AO2
0237720407004622023102015567+39928-074292FM-15+0025KMJX V0201705N00465004275MN0160935N5+01895+01675100745ADDGA1075+004275999GA2085+007015999GD13991+0042759GD24991+0070159GE19AGL   +99999+99999GF199999999999004271999999MA1100715100415REMMET10010/20/23 10:56:02 METAR KMJX 201556Z 17009KT 10SM BKN014 OVC023 19/17 A2974 RMK AO2 SLP074 T01890167
0220720407004622023102016037+39928-074292FM-15+0025KMJX V0201605N00465004885MN0160935N5+01905+01705999999ADDGA1075+004885999GA2085+007625999GD13991+0048859GD24991+0076259GE19AGL   +99999+99999GF199999999999004881999999MA1100685100385REMMET08310/20/23 11:03:02 METAR KMJX 201603Z 16009KT 10SM BKN016 OVC025 19/17 A2973 RMK AO2
0237720407004622023102016567+39928-074292FM-15+0025KMJX V0201705N00365021345MN0160935N5+01895+01675100625ADDGA1025+004885999GA2075+021345999GD11991+0048859GD23991+0213459GE19AGL   +99999+99999GF199999999999004881999999MA1100585100285REMMET10010/20/23 11:56:02 METAR KMJX 201656Z 17007KT 10SM FEW016 BKN070 19/17 A2970 RMK AO2 SLP062 T01890167
0220720407004622023102017157+39928-074292FM-15+0025KMJX V0201705N00315006105MN0160935N5+01905+01705999999ADDGA1075+006105999GA2085+021345999GD13991+0061059GD24991+0213459GE19AGL   +99999+99999GF199999999999006101999999MA1100585100285REMMET08310/20/23 12:15:02 METAR KMJX 201715Z 17006KT 10SM BKN020 OVC070 19/17 A2970 RMK AO2
0326720407004622023102017477+39928-074292FM-15+0025KMJX V0201605N00365004275MN0064375N5+01805+01705999999ADDAA101001395AU120020015AU200001015AW1105AW2625GA1075+004275999GA2075+006405999GA3085+008235999GD13991+0042759GD23991+0064059GD34991+0082359GE19AGL   +99999+99999GF199999999999004271999999MA1100515100215MW1655REMMET10710/20/23 12:47:02 METAR KMJX 201747Z 16007KT 4SM RA BR BKN014 BKN021 OVC027 18/17 A2968 RMK AO2 RAB35 P0005
0418720407004622023102017567+39928-074292FM-15+0025KMJX V0201505N00465003665MN0128755N5+01785+01725100515ADDAA101001395AA206004391AU110020015AW1615GA1075+003665999GA2075+006405999GA3085+011285999GD13991+0036659GD23991+0064059GD34991+0112859GE19AGL   +99999+99999GF199999999999003661999999KA1060M+01941KA2060N+01611MA1100475100185MD1890259+9999MW1615REMMET14610/20/23 12:56:02 METAR KMJX 201756Z 15009KT 8SM -RA BKN012 BKN021 OVC037 18/17 A2967 RMK AO2 RAB35 SLP051 P0005 60017 T01780172 10194 20161 58025EQDQ01  00438PRCP06
0320720407004622023102018067+39928-074292FM-15+0025KMJX V0201405N00465004275MN0064375N5+01705+01705999999ADDAA101001095AU120020015AU200001015AW1105AW2625GA1025+002445999GA2075+004275999GA3085+014025999GD11991+0024459GD23991+0042759GD34991+0140259GE19AGL   +99999+99999GF199999999999002441999999MA1100445100145MW1655REMMET10110/20/23 13:06:02 METAR KMJX 201806Z 14009KT 4SM RA BR FEW008 BKN014 OVC046 17/17 A2966 RMK AO2 P0004
0320720407004622023102018107+39928-074292FM-15+0025KMJX V0201505N00515009455MN0096565N5+01705+01705999999ADDAA101001395AU120020015AU200001015AW1105AW2625GA1045+003055999GA2075+009455999GA3085+014635999GD12991+0030559GD23991+0094559GD34991+0146359GE19AGL   +99999+99999GF199999999999003051999999MA1100415100115MW1655REMMET10110/20/23 13:10:02 METAR KMJX 201810Z 15010KT 6SM RA BR SCT010 BKN031 OVC048 17/17 A2965 RMK AO2 P0005
0317720407004622023102018567+39928-074292FM-15+0025KMJX V0202505N00315016765MN0112655N5+01725+01725100425ADDAA101002595AU120020015AW1625GA1025+001225999GA2075+016765999GA3085+019815999GD11991+0012259GD23991+0167659GD34991+0198159GE19AGL   +99999+99999GF199999999999001221999999MA1100415100115MW1655REMMET11510/20/23 13:56:02 METAR KMJX 201856Z 25006KT 7SM RA FEW004 BKN055 OVC065 17/17 A2965 RMK AO2 SLP042 P0010 T01720172
0321720407004622023102019067+39928-074292FM-15+0025KMJX V0202505N00515003355MN0080475N5+01605+01605999999ADDAA101000895AU110020015AU200001015AW1105AW2615GA1045+001835999GA2075+003355999GA3085+019815999GD12991+0018359GD23991+0033559GD34991+0198159GE19AGL   +99999+99999GF199999999999001831999999MA1100415100115MW1615REMMET10210/20/23 14:06:02 METAR KMJX 201906Z 25010KT 5SM -RA BR SCT006 BKN011 OVC065 16/16 A2965 RMK AO2 P0003
0321720407004622023102019157+39928-074292FM-15+0025KMJX V0202505N00265008535MN0080475N5+01605+01605999999ADDAA101001895AU110020015AU200001015AW1105AW2615GA1045+001835999GA2075+008535999GA3085+012805999GD12991+0018359GD23991+0085359GD34991+0128059GE19AGL   +99999+99999GF199999999999001831999999MA1100375100075MW1615REMMET10210/20/23 14:15:02 METAR KMJX 201915Z 25005KT 5SM -RA BR SCT006 BKN028 OVC042 16/16 A2964 RMK AO2 P0007
0264720407004622023102019277+39928-074292FM-15+0025KMJX V0209999C00005009755MN0160935N5+01605+01605999999ADDAA101001895AU110020015AW1615GA1025+002445999GA2085+009755999GD11991+0024459GD24991+0097559GE19AGL   +99999+99999GF199999999999002441999999MA1100375100075MW1615REMMET09310/20/23 14:27:02 METAR KMJX 201927Z 00000KT 10SM -RA FEW008 OVC032 16/16 A2964 RMK AO2 P0007
0318720407004622023102019567+39928-074292FM-15+0025KMJX V0201405N00155010365MN0144845N5+01725+01675100345ADDAA101001895AU110020015AW1615GA1045+002135999GA2075+010365999GA3085+013415999GD12991+0021359GD23991+0103659GD34991+0134159GE19AGL   +99999+99999GF199999999999002131999999MA1100305100015MW1615REMMET11610/20/23 14:56:02 METAR KMJX 201956Z 14003KT 9SM -RA SCT007 BKN034 OVC044 17/17 A2962 RMK AO2 SLP034 P0007 T01720167
0302720407004622023102020117+39928-074292FM-15+0025KMJX V0209999C00005006105MN0160935N5+01705+01705999999ADDAA101000021AU110020015AW1615GA1025+002135999GA2075+006105999GA3085+013725999GD11991+0021359GD23991+0061059GD34991+0137259GE19AGL   +99999+99999GF199999999999002131999999MA1100305100015MW1615REMMET10010/20/23 15:11:02 METAR KMJX 202011Z 00000KT 10SM -RA FEW007 BKN020 OVC045 17/17 A2962 RMK AO2 P0000
0281720407004622023102020527+39928-074292FM-15+0025KMJX V0201005N00155004275MN0160935N5+01705+01705999999ADDAA101000395GA1045+002135999GA2075+004275999GA3085+006105999GD12991+0021359GD23991+0042759GD34991+0061059GE19AGL   +99999+99999GF199999999999002131999999MA1100205099915REMMET10210/20/23 15:52:02 METAR KMJX 202052Z 10003KT 10SM SCT007 BKN014 OVC020 17/17 A2959 RMK AO2 RAE45 P0001
0386720407004622023102020567+39928-074292FM-15+0025KMJX V0200905N00215002135MN0112655N5+01675+01675100245ADDAA101000595AA203004891AU110020015AW1615GA1075+002135999GA2075+004275999GA3085+013415999GD13991+0021351GD23991+0042759GD34991+0134159GE19AGL   +99999+99999GF199999999999002131999999MA1100205099915MD1690199+9999MW1615REMMET14010/20/23 15:56:02 METAR KMJX 202056Z 09004KT 7SM -RA BKN007 BKN014 OVC044 17/17 A2959 RMK AO2 CIG 003V010 SLP024 P0002 60019 T01670167 56019EQDQ01  00488PRCP03
0217720407004622023102021327+39928-074292FM-15+0025KMJX V0201305N00315001225MN0160935N5+01705+01705999999ADDAA101000021GA1085+001225999GD14991+0012251GE19AGL   +99999+99999GF199999999999001221999999MA1100145099845REMMET10010/20/23 16:32:02 METAR KMJX 202132Z 13006KT 10SM OVC004 17/17 A2957 RMK AO2 RAE22 CIG 003V008 P0000
0289720407004622023102021567+39928-074292FM-15+0025KMJX V0201405N00215010975MN0128755N5+01675+01675100135ADDAA101000021AU110020015AW1615GA1045+001835999GA2085+010975999GD12991+0018359GD24991+0109759GE19AGL   +99999+99999GF199999999999001831999999MA1100105099805MW1615REMMET11810/20/23 16:56:02 METAR KMJX 202156Z 14004KT 8SM -RA SCT006 OVC036 17/17 A2956 RMK AO2 RAE22B52 SLP013 P0000 T01670167
0264720407004622023102022217+39928-074292FM-15+0025KMJX V0201305N00315007625MN0160935N5+01705+01705999999ADDAA101000021AU110020015AW1615GA1075+007625999GA2085+010365999GD13991+0076259GD24991+0103659GE19AGL   +99999+99999GF199999999999007621999999MA1100075099775MW1615REMMET09310/20/23 17:21:02 METAR KMJX 202221Z 13006KT 10SM -RA BKN025 OVC034 17/17 A2955 RMK AO2 P0000
0302720407004622023102022317+39928-074292FM-15+0025KMJX V0201305N00315007625MN0160935N5+01705+01705999999ADDAA101000021AU110020015AW1615GA1025+001835999GA2075+007625999GA3085+014025999GD11991+0018359GD23991+0076259GD34991+0140259GE19AGL   +99999+99999GF199999999999001831999999MA1100075099775MW1615REMMET10010/20/23 17:31:02 METAR KMJX 202231Z 13006KT 10SM -RA FEW006 BKN025 OVC046 17/17 A2955 RMK AO2 P0000
0260720407004622023102022567+39928-074292FM-15+0025KMJX V0201405N00315001835MN0160935N5+01675+01675100075ADDAA101000021GA1075+001835999GA2085+014025999GD13991+0018359GD24991+0140259GE19AGL   +99999+99999GF199999999999001831999999MA1100035099745REMMET11210/20/23 17:56:02 METAR KMJX 202256Z 14006KT 10SM BKN006 OVC046 17/17 A2954 RMK AO2 RAE32 SLP007 P0000 T01670167
0220720407004622023102023147+39928-074292FM-15+0025KMJX V0201405N00315001225MN0160935N5+01705+01705999999ADDGA1075+001225999GA2085+015245999GD13991+0012259GD24991+0152459GE19AGL   +99999+99999GF199999999999001221999999MA1100075099775REMMET08310/20/23 18:14:02 METAR KMJX 202314Z 14006KT 10SM BKN004 OVC050 17/17 A2955 RMK AO2
0308720407004622023102023537+39928-074292FM-15+0025KMJX V0209999C00005021345MN0160935N5+01705+01705999999ADDAA101000021AU110020015AW1615GA1045+001225999GA2045+016765999GA3085+021345999GD12991+0012259GD22991+0167659GD34991+0213459GE19AGL   +99999+99999GF199999999999001221999999MA1099975099675MW1615REMMET10610/20/23 18:53:02 METAR KMJX 202353Z 00000KT 10SM -RA SCT004 SCT055 OVC070 17/17 A2952 RMK AO2 RAB40 P0000
0419720407004622023102023567+39928-074292FM-15+0025KMJX V0201205N00265024385MN0160935N5+01675+01675100015ADDAA101000021AA206004891AU110020015AW1615GA1025+001225999GA2045+018295999GA3085+024385999GD11991+0012259GD22991+0182959GD34991+0243859GE19AGL   +99999+99999GF199999999999001221999999KA1060M+01721KA2060N+01611MA1099975099675MD1690129+9999MW1615REMMET14710/20/23 18:56:02 METAR KMJX 202356Z 12005KT 10SM -RA FEW004 SCT060 OVC080 17/17 A2952 RMK AO2 RAB40 SLP001 P0000 60019 T01670167 10172 20161 56012EQDQ01  00488PRCP06
0243720407004622023102100517+39928-074292FM-15+0025KMJX V0201305N00155000915MN0160935N5+01605+01605999999ADDAA101000021GA1075+000915999GA2085+018295999GD13991+0009159GD24991+0182959GE19AGL   +99999+99999GF199999999999000911999999MA1099935099645REMMET09510/20/23 19:51:01 METAR KMJX 210051Z 13003KT 10SM BKN003 OVC060 16/16 A2951 RMK AO2 RAE01 P0000
0260720407004622023102100567+39928-074292FM-15+0025KMJX V0201405N00155000915MN0160935N5+01615+01615099955ADDAA101000021GA1075+000915999GA2085+016765999GD13991+0009159GD24991+0167659GE19AGL   +99999+99999GF199999999999000911999999MA1099935099645REMMET11210/20/23 19:56:01 METAR KMJX 210056Z 14003KT 10SM BKN003 OVC055 16/16 A2951 RMK AO2 RAE01 SLP995 P0000 T01610161
0260720407004622023102101477+39928-074292FM-15+0025KMJX V0209999C00005000915MN0028165N5+01605+01605999999ADDAA101000395AU100001015AW1105GA1075+000915999GA2085+027435999GD13991+0009159GD24991+0274359GE19AGL   +99999+99999GF199999999999000911999999MA1099835099535REMMET09510/20/23 20:47:01 METAR KMJX 210147Z 00000KT 1 3/4SM BR BKN003 OVC090 16/16 A2948 RMK AO2 P0001
0277720407004622023102101567+39928-074292FM-15+0025KMJX V0203105N00155000915MN0024145N5+01565+01565099865ADDAA101000395AU100001015AW1105GA1075+000915999GA2085+027435999GD13991+0009159GD24991+0274359GE19AGL   +99999+99999GF199999999999000911999999MA1099835099535REMMET11210/20/23 20:56:01 METAR KMJX 210156Z 31003KT 1 1/2SM BR BKN003 OVC090 16/16 A2948 RMK AO2 SLP986 P0001 T01560156
0239720407004622023102102017+39928-074292FM-15+0025KMJX V0203005N00155000915MN0048285N5+01605+01605999999ADDAU100001015AW1105GA1075+000915999GA2085+027435999GD13991+0009159GD24991+0274359GE19AGL   +99999+99999GF199999999999000911999999MA1099835099535REMMET08510/20/23 21:01:01 METAR KMJX 210201Z 30003KT 3SM BR BKN003 OVC090 16/16 A2948 RMK AO2
0201720407004622023102102107+39928-074292FM-15+0025KMJX V0202905N00155000915MN0032195N5+01605+01605999999ADDAU100001015AW1105GA1085+000915999GD14991+0009159GE19AGL   +99999+99999GF199999999999000911999999MA1099835099535REMMET07810/20/23 21:10:01 METAR KMJX 210210Z 29003KT 2SM BR OVC003 16/16 A2948 RMK AO2
0205720407004622023102102207+39928-074292FM-15+0025KMJX V0203405N00155000915MN0028165N5+01605+01605999999ADDAU100001015AW1105GA1085+000915999GD14991+0009159GE19AGL   +99999+99999GF199999999999000911999999MA1099805099505REMMET08210/20/23 21:20:01 METAR KMJX 210220Z 34003KT 1 3/4SM BR OVC003 16/16 A2947 RMK AO2
0203720407004622023102102397+39928-074292FM-15+0025KMJX V0203405N00155000915MN0012075N5+01605+01605999999ADDAU100001015AW1105GA1085+000915999GD14991+0009159GE19AGL   +99999+99999GF199999999999000911999999MA1099765099475REMMET08010/20/23 21:39:01 METAR KMJX 210239Z 34003KT 3/4SM BR OVC003 16/16 A2946 RMK AO2
0205720407004622023102102497+39928-074292FM-15+0025KMJX V0209999C00005000915MN0020125N5+01605+01605999999ADDAU100001015AW1105GA1085+000915999GD14991+0009159GE19AGL   +99999+99999GF199999999999000911999999MA1099765099475REMMET08210/20/23 21:49:01 METAR KMJX 210249Z 00000KT 1 1/4SM BR OVC003 16/16 A2946 RMK AO2
0274720407004622023102102567+39928-074292FM-15+0025KMJX V0209999C00005000915MN0016095N5+01615+01615099785ADDAA103000391AU100001015AW1105GA1085+000915999GD14991+0009159GE19AGL   +99999+99999GF199999999999000911999999MA1099765099475MD1890179+9999REMMET10710/20/23 21:56:01 METAR KMJX 210256Z 00000KT 1SM BR OVC003 16/16 A2946 RMK AO2 SLP978 60001 T01610161 58017EQDQ01  00028PRCP03
0203720407004622023102103147+39928-074292FM-15+0025KMJX V0200405N00215000915MN0012075N5+01605+01605999999ADDAU100001015AW1105GA1085+000915999GD14991+0009159GE19AGL   +99999+99999GF199999999999000911999999MA1099735099435REMMET08010/20/23 22:14:02 METAR KMJX 210314Z 04004KT 3/4SM BR OVC003 16/16 A2945 RMK AO2
0243720407004622023102103217+39928-074292FM-15+0025KMJX V0209999C00005000915MN0020125N5+01605+01605999999ADDAU100001015AW1105GA1075+000915999GA2085+003965999GD13991+0009159GD24991+0039659GE19AGL   +99999+99999GF199999999999000911999999MA1099735099435REMMET08910/20/23 22:21:02 METAR KMJX 210321Z 00000KT 1 1/4SM BR BKN003 OVC013 16/16 A2945 RMK AO2
0239720407004622023102103387+39928-074292FM-15+0025KMJX V0202405N00155000915MN0016095N5+01605+01605999999ADDAU100001015AW1105GA1075+000915999GA2085+003965999GD13991+0009159GD24991+0039659GE19AGL   +99999+99999GF199999999999000911999999MA1099735099435REMMET08510/20/23 22:38:02 METAR KMJX 210338Z 24003KT 1SM BR BKN003 OVC013 16/16 A2945 RMK AO2
0220720407004622023102103567+39928-074292FM-15+0025KMJX V0209999C00005000915MN0008055N5+01565+01565099725ADDAU100002015AW1305GA1085+000915999GD14991+0009159GE19AGL   +99999+99999GF199999999999000911999999MA1099705099405REMMET09710/20/23 22:56:02 METAR KMJX 210356Z 00000KT 1/2SM FG OVC003 16/16 A2944 RMK AO2 SLP972 T01560156
0203720407004622023102104217+39928-074292FM-15+0025KMJX V0209999C00005000915MN0004025N5+01505+01505999999ADDAU100002015AW1305GA1085+000915999GD14991+0009159GE19AGL   +99999+99999GF199999999999000911999999MA1099635099335REMMET08010/20/23 23:21:02 METAR KMJX 210421Z 00000KT 1/4SM FG OVC003 15/15 A2942 RMK AO2
0256720407004622023102104567+39928-074292FM-15+0025KMJX V0200405N00155000915MN0008055N5+01445+01445099595ADDAU100002015AW1305GA1085+000915999GD14991+0009159GE19AGL   +99999+99999GF199999999999000911999999KA1240M+01941KA2240N+01001MA1099565099265REMMET10710/20/23 23:56:02 METAR KMJX 210456Z 04003KT 1/2SM FG OVC003 14/14 A2940 RMK AO2 SLP959 T01440144 401940100
003972040700462202310210459O+39928-074292SOD  +0025KMJX V020999999999999999999999999999+99999+99999999999ADDAT1AU16RA  5AT2AU01FG  5AT3AU13BR  5
0203720407004622023102105287+39928-074292FM-15+0025KMJX V0209999C00005000915MN0004025N5+01405+01405999999ADDAU100002015AW1305GA1085+000915999GD14991+0009159GE19AGL   +99999+99999GF199999999999000911999999MA1099535099235REMMET08010/21/23 00:28:02 METAR KMJX 210528Z 00000KT 1/4SM FG OVC003 14/14 A2939 RMK AO2
0314720407004622023102105567+39928-074292FM-15+0025KMJX V0209999C00005000915MN0004025N5+01505+01505099515ADDAA106000391AU100002015AW1305GA1085+000915999GD14991+0009159GE19AGL   +99999+99999GF199999999999000911999999KA1060M+01671KA2060N+01391MA1099495099205MD1890279+9999REMMET12110/21/23 00:56:02 METAR KMJX 210556Z 00000KT 1/4SM FG OVC003 15/15 A2938 RMK AO2 SLP951 60001 T01500150 10167 20139 58027EQDQ01  00028PRCP06
0220720407004622023102106567+39928-074292FM-15+0025KMJX V0209999C00005000915MN0004025N5+01505+01505099465ADDAU100002015AW1305GA1085+000915999GD14991+0009159GE19AGL   +99999+99999GF199999999999000911999999MA1099425099135REMMET09710/21/23 01:56:02 METAR KMJX 210656Z 00000KT 1/4SM FG OVC003 15/15 A2936 RMK AO2 SLP946 T01500150
0241720407004622023102107387+39928-074292FM-15+0025KMJX V0209999C00005000915MN0008055N5+01405+01405999999ADDAU100002015AW1305GA1075+000915999GA2085+003055999GD13991+0009159GD24991+0030559GE19AGL   +99999+99999GF199999999999000911999999MA1099395099105REMMET08710/21/23 02:38:02 METAR KMJX 210738Z 00000KT 1/2SM FG BKN003 OVC010 14/14 A2935 RMK AO2
0308720407004622023102107567+39928-074292FM-15+0025KMJX V0209999C00005000915MN0008055N5+01445+01445099405ADDAU100002015AW1305GA1075+000915999GA2075+003055999GA3085+010975999GD13991+0009151GD23991+0030559GD34991+0109759GE19AGL   +99999+99999GF199999999999000911999999MA1099395099105REMMET12310/21/23 02:56:02 METAR KMJX 210756Z 00000KT 1/2SM FG BKN003 BKN010 OVC036 14/14 A2935 RMK AO2 CIG 001V005 SLP940 T01440144
0251720407004622023102108077+39928-074292FM-15+0025KMJX V0209999C00005000915MN0016095N5+01405+01405999999ADDAU100001015AW1105GA1075+000915999GA2085+010975999GD13991+0009151GD24991+0109759GE19AGL   +99999+99999GF199999999999000911999999MA1099365099065REMMET09710/21/23 03:07:02 METAR KMJX 210807Z 00000KT 1SM BR BKN003 OVC036 14/14 A2934 RMK AO2 CIG 002V005
0201720407004622023102108117+39928-074292FM-15+0025KMJX V0209999C00005000915MN0032195N5+01405+01405999999ADDAU100001015AW1105GA1085+000915999GD14991+0009159GE19AGL   +99999+99999GF199999999999000911999999MA1099365099065REMMET07810/21/23 03:11:02 METAR KMJX 210811Z 00000KT 2SM BR OVC003 14/14 A2934 RMK AO2
0205720407004622023102108267+39928-074292FM-15+0025KMJX V0209999C00005000915MN0020125N5+01405+01405999999ADDAU100001015AW1105GA1085+000915999GD14991+0009159GE19AGL   +99999+99999GF199999999999000911999999MA1099365099065REMMET08210/21/23 03:26:02 METAR KMJX 210826Z 00000KT 1 1/4SM BR OVC003 14/14 A2934 RMK AO2
0201720407004622023102108467+39928-074292FM-15+0025KMJX V0209999C00005000915MN0048285N5+01405+01405999999ADDAU100001015AW1105GA1085+000915999GD14991+0009159GE19AGL   +99999+99999GF199999999999000911999999MA1099295098995REMMET07810/21/23 03:46:02 METAR KMJX 210846Z 00000KT 3SM BR OVC003 14/14 A2932 RMK AO2
0238720407004622023102108567+39928-074292FM-15+0025KMJX V0202505N00155000915MN0064375N5+01505+01505099345ADDAU100001015AW1105GA1085+000915999GD14991+0009159GE19AGL   +99999+99999GF199999999999000911999999MA1099325099035MD1890179+9999REMMET10110/21/23 03:56:02 METAR KMJX 210856Z 25003KT 4SM BR OVC003 15/15 A2933 RMK AO2 SLP934 T01500150 58017
0205720407004622023102109037+39928-074292FM-15+0025KMJX V0202505N00155000915MN0028165N5+01405+01405999999ADDAU100001015AW1105GA1085+000915999GD14991+0009159GE19AGL   +99999+99999GF199999999999000911999999MA1099295098995REMMET08210/21/23 04:03:02 METAR KMJX 210903Z 25003KT 1 3/4SM BR OVC003 14/14 A2932 RMK AO2
0201720407004622023102109157+39928-074292FM-15+0025KMJX V0202905N00265000915MN0048285N5+01405+01405999999ADDAU100001015AW1105GA1085+000915999GD14991+0009159GE19AGL   +99999+99999GF199999999999000911999999MA1099295098995REMMET07810/21/23 04:15:02 METAR KMJX 210915Z 29005KT 3SM BR OVC003 14/14 A2932 RMK AO2
0248720407004622023102109567+39928-074292FM-15+0025KMJX V0202805N00265000915MN0112655N5+01445+01445099315ADDAA101000021AU110020015AW1615GA1085+000915999GD14991+0009159GE19AGL   +99999+99999GF199999999999000911999999MA1099295098995MW1615REMMET10810/21/23 04:56:02 METAR KMJX 210956Z 28005KT 7SM -RA OVC003 14/14 A2932 RMK AO2 RAB37 SLP931 P0000 T01440144
0311720407004622023102110567+39928-074292FM-15+0025KMJX V0202905N00315001525MN0096565N5+01445+01445099285ADDAA101001895AU120020015AU200001015AW1105AW2625GA1075+001525999GA2085+008535999GD13991+0015251GD24991+0085359GE19AGL   +99999+99999GF199999999999001521999999MA1099265098965MW1655REMMET12310/21/23 05:56:02 METAR KMJX 211056Z 29006KT 6SM RA BR BKN005 OVC028 14/14 A2931 RMK AO2 CIG 003V009 SLP928 P0007 T01440144
0369720407004622023102111567+39928-074292FM-15+0025KMJX V0202905N00465001525MN0128755N5+01395+01395099285ADDAA101001095AA206002891AA324012291AU110020015AW1615GA1085+001525999GD14991+0015259GE19AGL   +99999+99999GF199999999999001521999999KA1060M+01501KA2060N+01391MA1099265098965MD1690069+9999MW1615REMMET13210/21/23 06:56:02 METAR KMJX 211156Z 29009KT 8SM -RA OVC005 14/14 A2931 RMK AO2 SLP928 P0004 60011 70048 T01390139 10150 20139 56006EQDQ01  00278PRCP06Q02  01218PRCP24
0225720407004622023102112177+39928-074292FM-15+0025KMJX V0202905N00515002135MN0144845N5+01405+01405999999ADDAA101000021AU110020015AW1615GA1085+002135999GD14991+0021359GE19AGL   +99999+99999GF199999999999002131999999MA1099265098965MW1615REMMET08510/21/23 07:17:02 METAR KMJX 211217Z 29010KT 9SM -RA OVC007 14/14 A2931 RMK AO2 P0000
0254720407004622023102112567+39928-074292FM-15+0025KMJX V0203005N00575002135MN0144845N5+01335+01335099285ADDAA101000595AU110020015AW1615GA1085+002135999GD14991+0021351GE19AGL   +99999+99999GF199999999999002131999999MA1099265098965MW1615REMMET11410/21/23 07:56:02 METAR KMJX 211256Z 30011KT 9SM -RA OVC007 13/13 A2931 RMK AO2 CIG 004V011 SLP928 P0002 T01330133
0255720407004622023102113567+39928-074292FM-15+0025KMJX V0202905N00625002135MN0160935N5+01335+01335099265ADDAA101000021AU110020015AW1615GA1085+002135999GD14991+0021351GE19AGL   +99999+99999GF199999999999002131999999MA1099225098935MW1615REMMET11510/21/23 08:56:02 METAR KMJX 211356Z 29012KT 10SM -RA OVC007 13/13 A2930 RMK AO2 CIG 005V012 SLP926 P0000 T01330133
0243720407004622023102114337+39928-074292FM-15+0025KMJX V0203005N00625028965MN0160935N5+01305+01305999999ADDAA101000021GA1045+002745999GA2085+028965999GD12991+0027459GD24991+0289659GE19AGL   +99999+99999GF199999999999002741999999MA1099225098935REMMET09510/21/23 09:33:02 METAR KMJX 211433Z 30012KT 10SM SCT009 OVC095 13/13 A2930 RMK AO2 RAE28 P0000
0346720407004622023102114567+39928-074292FM-15+0025KMJX V0203005N00625033535MN0160935N5+01335+01335099245ADDAA101000021AA203000591AU110020015AW1615GA1025+002745999GA2075+033535999GD11991+0027459GD23991+0335359GE19AGL   +99999+99999GF199999999999002741999999MA1099225098935MD1890049+9999MW1615REMMET13110/21/23 09:56:02 METAR KMJX 211456Z 30012KT 10SM -RA FEW009 BKN110 13/13 A2930 RMK AO2 RAE28B50 SLP924 P0000 60002 T01330133 58004EQDQ01  00058PRCP03
0290720407004622023102115567+39928-074292FM-15+0025KMJX V0202905N007252200059N0160935N5+01395+01335099285ADDAA101000021GA1025+028965999GA2045+036585999GD11991+0289659GD22991+0365859GE19AGL   +99999+99999GF104995999999028961999999MA1099265098965OC100935REMMET11510/21/23 10:56:02 METAR KMJX 211556Z 29014G18KT 10SM FEW095 SCT120 14/13 A2931 RMK AO2 RAE09 SLP928 P0000 T01390133EQDD01      0ADE726
0280720407004622023102116567+39928-074292FM-15+0025KMJX V0202905N00885027435MN0160935N5+01615+01175099305ADDGA1025+008535999GA2075+027435999GD11991+0085359GD23991+0274359GE19AGL   +99999+99999GF199999999999008531999999MA1099265098965OC101345OD149901331280REMMET12110/21/23 11:56:02 METAR KMJX 211656Z 29017G26KT 10SM FEW028 BKN090 16/12 A2931 RMK AO2 PK WND 28026/1654 SLP930 T01610117
0380720407004622023102117567+39928-074292FM-15+0025KMJX V0203005N00625033535MN0160935N5+01835+01065099295ADDAA106000591GA1045+011285999GA2045+013725999GA3075+033535999GD12991+0112859GD22991+0137259GD33991+0335359GE19AGL   +99999+99999GF199999999999011281999999KA1060M+01831KA2060N+01331MA1099265098965MD1090059+9999OC101035REMMET13410/21/23 12:56:02 METAR KMJX 211756Z 30012G20KT 10SM SCT037 SCT045 BKN110 18/11 A2931 RMK AO2 SLP929 60002 T01830106 10183 20133 50005EQDQ01  00058PRCP06
0286720407004622023102118567+39928-074292FM-15+0025KMJX V0202905N00575021345MN0160935N5+01725+01005099325ADDGA1045+014025999GA2045+016765999GA3085+021345999GD12991+0140259GD22991+0167659GD34991+0213459GE19AGL   +99999+99999GF199999999999014021999999MA1099295098995OC101085REMMET11010/21/23 13:56:02 METAR KMJX 211856Z 29011G21KT 10SM SCT046 SCT055 OVC070 17/10 A2932 RMK AO2 SLP932 T01720100
0199720407004622023102119567+39928-074292FM-15+0025KMJX V0202805N00625021345MN0160935N5+01725+00835099405ADDGA1085+021345999GD14991+0213459GE19AGL   +99999+99999GF199999999999021341999999MA1099365099065REMMET09310/21/23 14:56:02 METAR KMJX 211956Z 28012KT 10SM OVC070 17/08 A2934 RMK AO2 SLP940 T01720083
0219720407004622023102120567+39928-074292FM-15+0025KMJX V0202705N00575021345MN0160935N5+01675+00835099485ADDGA1085+021345999GD14991+0213459GE19AGL   +99999+99999GF199999999999021341999999MA1099465099165MD1390199+9999REMMET09910/21/23 15:56:02 METAR KMJX 212056Z 27011KT 10SM OVC070 17/08 A2937 RMK AO2 SLP948 T01670083 53019
0248720407004622023102121567+39928-074292FM-15+0025KMJX V0202705N00575021345MN0160935N5+01565+00835099595ADDGA1025+014945999GA2075+021345999GD11991+0149459GD23991+0213459GE19AGL   +99999+99999GF199999999999014941999999MA1099565099265OC100825REMMET10310/21/23 16:56:02 METAR KMJX 212156Z 27011G16KT 10SM FEW049 BKN070 16/08 A2940 RMK AO2 SLP959 T01560083
0218720407004622023102122567+39928-074292FM-15+0025KMJX V0202705N006252200059N0160935N5+01445+00895099735ADDGA1045+021345999GD12991+0213459GE19AGL   +99999+99999GF104995999999021341999999MA1099705099405REMMET09310/21/23 17:56:02 METAR KMJX 212256Z 27012KT 10SM SCT070 14/09 A2944 RMK AO2 SLP973 T01440089EQDD01      0ADE726
0276720407004622023102123567+39928-074292FM-15+0025KMJX V0202605N005752200059N0160935N5+01395+00785099835ADDGA1025+021345999GD11991+0213459GE19AGL   +99999+99999GF102995999999021341999999KA1060M+01831KA2060N+01391MA1099805099505MD1190369+9999REMMET11110/21/23 18:56:02 METAR KMJX 212356Z 26011KT 10SM FEW070 14/08 A2947 RMK AO2 SLP983 T01390078 10183 20139 51036EQDD01      0ADE726
0199720407004622023102200567+39928-074292FM-15+0025KMJX V0202605N00415018295MN0160935N5+01395+00785099945ADDGA1075+018295999GD13991+0182959GE19AGL   +99999+99999GF199999999999018291999999MA1099905099605REMMET09310/21/23 19:56:01 METAR KMJX 220056Z 26008KT 10SM BKN060 14/08 A2950 RMK AO2 SLP994 T01390078
0185720407004622023102201567+39928-074292FM-15+0025KMJX V0202705N007752200059N0160935N5+01395+00725100015ADDGA1005+999999999GD10991+9999999GF100991999999999999999999MA1099975099675OC101085REMMET09310/21/23 20:56:01 METAR KMJX 220156Z 27015G21KT 10SM CLR 14/07 A2952 RMK AO2 SLP001 T01390072
0194720407004622023102202567+39928-074292FM-15+0025KMJX V0202605N004652200059N0160935N5+01285+00725100045ADDGA1005+999999999GD10991+9999999GF100991999999999999999999MA1100005099705MD1190219+9999REMMET09610/21/23 21:56:01 METAR KMJX 220256Z 26009KT 10SM CLR 13/07 A2953 RMK AO2 SLP004 T01280072 51021
0174720407004622023102203567+39928-074292FM-15+0025KMJX V0202405N004652200059N0160935N5+01175+00725100125ADDGA1005+999999999GD10991+9999999GF100991999999999999999999MA1100105099805REMMET09010/21/23 22:56:02 METAR KMJX 220356Z 24009KT 10SM CLR 12/07 A2956 RMK AO2 SLP012 T01170072
0210720407004622023102204567+39928-074292FM-15+0025KMJX V0202505N005152200059N0160935N5+01175+00615100145ADDGA1005+999999999GD10991+9999999GF100991999999999999999999KA1240M+01831KA2240N+01171MA1100105099805REMMET10010/21/23 23:56:02 METAR KMJX 220456Z 25010KT 10SM CLR 12/06 A2956 RMK AO2 SLP014 T01170061 401830117
003972040700462202310220459O+39928-074292SOD  +0025KMJX V020999999999999999999999999999+99999+99999999999ADDAT1AU16RA  5AT2AU01FG  5AT3AU13BR  5
0232720407004622023102205567+39928-074292FM-15+0025KMJX V0202605N004152200059N0160935N5+01065+00565100155ADDGA1005+999999999GD10991+9999999GF100991999999999999999999KA1060M+01441KA2060N+01061MA1100145099845MD1190119+9999REMMET10810/22/23 00:56:02 METAR KMJX 220556Z 26008KT 10SM CLR 11/06 A2957 RMK AO2 SLP015 T01060056 10144 20106 51011
0174720407004622023102206567+39928-074292FM-15+0025KMJX V0202505N004652200059N0160935N5+00945+00565100165ADDGA1005+999999999GD10991+9999999GF100991999999999999999999MA1100145099845REMMET09010/22/23 01:56:02 METAR KMJX 220656Z 25009KT 10SM CLR 09/06 A2957 RMK AO2 SLP016 T00940056
0174720407004622023102207567+39928-074292FM-15+0025KMJX V0202505N004152200059N0160935N5+00945+00505100205ADDGA1005+999999999GD10991+9999999GF100991999999999999999999MA1100175099875REMMET09010/22/23 02:56:02 METAR KMJX 220756Z 25008KT 10SM CLR 09/05 A2958 RMK AO2 SLP020 T00940050
0194720407004622023102208567+39928-074292FM-15+0025KMJX V0202505N004152200059N0160935N5+00835+00445100245ADDGA1005+999999999GD10991+9999999GF100991999999999999999999MA1100205099915MD1390099+9999REMMET09610/22/23 03:56:02 METAR KMJX 220856Z 25008KT 10SM CLR 08/04 A2959 RMK AO2 SLP024 T00830044 53009
0174720407004622023102209567+39928-074292FM-15+0025KMJX V0202505N003652200059N0160935N5+00785+00445100305ADDGA1005+999999999GD10991+9999999GF100991999999999999999999MA1100275099975REMMET09010/22/23 04:56:02 METAR KMJX 220956Z 25007KT 10SM CLR 08/04 A2961 RMK AO2 SLP030 T00780044
0174720407004622023102210567+39928-074292FM-15+0025KMJX V0202605N004652200059N0160935N5+00785+00445100405ADDGA1005+999999999GD10991+9999999GF100991999999999999999999MA1100375100075REMMET09010/22/23 05:56:02 METAR KMJX 221056Z 26009KT 10SM CLR 08/04 A2964 RMK AO2 SLP040 T00780044
0268720407004622023102211567+39928-074292FM-15+0025KMJX V0202605N003652200059N0160935N5+00895+00505100485ADDAA124000591GA1005+999999999GD10991+9999999GF100991999999999999999999KA1060M+01061KA2060N+00721MA1100445100145MD1390249+9999REMMET11410/22/23 06:56:02 METAR KMJX 221156Z 26007KT 10SM CLR 09/05 A2966 RMK AO2 SLP048 70002 T00890050 10106 20072 53024EQDQ01  00058PRCP24
0185720407004622023102212567+39928-074292FM-15+0025KMJX V0202705N006252200059N0160935N5+01175+00505100565ADDGA1005+999999999GD10991+9999999GF100991999999999999999999MA1100545100245OC100985REMMET09310/22/23 07:56:02 METAR KMJX 221256Z 27012G19KT 10SM CLR 12/05 A2969 RMK AO2 SLP056 T01170050
0185720407004622023102213567+39928-074292FM-15+0025KMJX V0202805N006752200059N0160935N5+01285+00565100555ADDGA1005+999999999GD10991+9999999GF100991999999999999999999MA1100515100215OC101035REMMET09310/22/23 08:56:02 METAR KMJX 221356Z 28013G20KT 10SM CLR 13/06 A2968 RMK AO2 SLP055 T01280056
0249720407004622023102214567+39928-074292FM-15+0025KMJX V0202905N009352200059N0160935N5+01395+00445100525ADDGA1045+011585999GD12991+0115859GE19AGL   +99999+99999GF104995999999011581999999MA1100475100185MD1090039+9999OC101245REMMET10210/22/23 09:56:02 METAR KMJX 221456Z 29018G24KT 10SM SCT038 14/04 A2967 RMK AO2 SLP052 T01390044 50003EQDD01      0ADE726
0242720407004622023102215567+39928-074292FM-15+0025KMJX V0203005N00625012505MN0160935N5+01395+00505100545ADDGA1075+012505999GD13991+0125059GE19AGL   +99999+99999GF199999999999012501999999MA1100515100215OC101035OD149901331320REMMET11410/22/23 10:56:02 METAR KMJX 221556Z 30012G20KT 10SM BKN041 14/05 A2968 RMK AO2 PK WND 32026/1546 SLP054 T01390050
0242720407004622023102216567+39928-074292FM-15+0025KMJX V0202905N00985013115MN0160935N5+01505+00395100525ADDGA1085+013115999GD14991+0131159GE19AGL   +99999+99999GF199999999999013111999999MA1100515100215OC101395OD149901391280REMMET11410/22/23 11:56:02 METAR KMJX 221656Z 29019G27KT 10SM OVC043 15/04 A2968 RMK AO2 PK WND 28027/1649 SLP052 T01500039
0268720407004622023102217567+39928-074292FM-15+0025KMJX V0203005N00775014945MN0160935N5+01445+00445100515ADDGA1085+014945999GD14991+0149459GE19AGL   +99999+99999GF199999999999014941999999KA1060M+01501KA2060N+00831MA1100475100185MD1890019+9999OC101035REMMET11410/22/23 12:56:02 METAR KMJX 221756Z 30015G20KT 10SM OVC049 14/04 A2967 RMK AO2 SLP051 T01440044 10150 20083 58001
0242720407004622023102218567+39928-074292FM-15+0025KMJX V0203105N00725014945MN0160935N5+01505+00335100525ADDGA1085+014945999GD14991+0149459GE19AGL   +99999+99999GF199999999999014941999999MA1100475100185OC100935OD149901391290REMMET11410/22/23 13:56:02 METAR KMJX 221856Z 31014G18KT 10SM OVC049 15/03 A2967 RMK AO2 PK WND 29027/1823 SLP052 T01500033
0261720407004622023102219567+39928-074292FM-15+0025KMJX V0202905N009852200059N0160935N5+01505+00225100585ADDGA1025+016765999GD11991+0167659GE19AGL   +99999+99999GF102995999999016761999999MA1100545100245OC101245OD149901391280REMMET11410/22/23 14:56:02 METAR KMJX 221956Z 29019G24KT 10SM FEW055 15/02 A2969 RMK AO2 PK WND 28027/1905 SLP058 T01500022EQDD01      0ADE726
0230720407004622023102220567+39928-074292FM-15+0025KMJX V0203005N00675018295MN0160935N5+01445+00175100685ADDGA1075+018295999GD13991+0182959GE19AGL   +99999+99999GF199999999999018291999999MA1100645100345MD1390179+9999OC101135REMMET10210/22/23 15:56:02 METAR KMJX 222056Z 30013G22KT 10SM BKN060 14/02 A2972 RMK AO2 SLP068 T01440017 53017
0218720407004622023102222567+39928-074292FM-15+0025KMJX V0202605N003152200059N0160935N5+01065+00175100975ADDGA1025+019815999GD11991+0198159GE19AGL   +99999+99999GF102995999999019811999999MA1100955100655REMMET09310/22/23 17:56:02 METAR KMJX 222256Z 26006KT 10SM FEW065 11/02 A2981 RMK AO2 SLP097 T01060017EQDD01      0ADE726
0257720407004622023102223567+39928-074292FM-15+0025KMJX V0202705N00265021345MN0160935N5+00945+00225101075ADDGA1075+021345999GD13991+0213459GE19AGL   +99999+99999GF199999999999021341999999KA1060M+01671KA2060N+00891MA1101055100755MD1190399+9999REMMET11110/22/23 18:56:02 METAR KMJX 222356Z 27005KT 10SM BKN070 09/02 A2984 RMK AO2 SLP107 T00940022 10167 20089 51039
0199720407004622023102300567+39928-074292FM-15+0025KMJX V0203005N00265019815MN0160935N5+01005+00175101185ADDGA1085+019815999GD14991+0198159GE19AGL   +99999+99999GF199999999999019811999999MA1101155100855REMMET09310/22/23 19:56:01 METAR KMJX 230056Z 30005KT 10SM OVC065 10/02 A2987 RMK AO2 SLP118 T01000017
0174720407004622023102301567+39928-074292FM-15+0025KMJX V0203405N002152200059N0160935N5+00835+00225101255ADDGA1005+999999999GD10991+9999999GF100991999999999999999999MA1101225100925REMMET09010/22/23 20:56:01 METAR KMJX 230156Z 34004KT 10SM CLR 08/02 A2989 RMK AO2 SLP125 T00830022
0194720407004622023102302567+39928-074292FM-15+0025KMJX V0203105N002152200059N0160935N5+00505+00225101335ADDGA1005+999999999GD10991+9999999GF100991999999999999999999MA1101325101025MD1190269+9999REMMET09610/22/23 21:56:01 METAR KMJX 230256Z 31004KT 10SM CLR 05/02 A2992 RMK AO2 SLP133 T00500022 51026
0199720407004622023102303567+39928-074292FM-15+0025KMJX V0202605N00155018295MN0160935N5+00445+00225101395ADDGA1075+018295999GD13991+0182959GE19AGL   +99999+99999GF199999999999018291999999MA1101355101055REMMET09310/22/23 22:56:02 METAR KMJX 230356Z 26003KT 10SM BKN060 04/02 A2993 RMK AO2 SLP139 T00440022
0254720407004622023102304567+39928-074292FM-15+0025KMJX V0203005N003152200059N0160935N5+00565+00285101445ADDGA1025+022865999GD11991+0228659GE19AGL   +99999+99999GF102995999999022861999999KA1240M+01671KA2240N+00391MA1101425101125REMMET10310/22/23 23:56:02 METAR KMJX 230456Z 30006KT 10SM FEW075 06/03 A2995 RMK AO2 SLP144 T00560028 401670039EQDD01      0ADE726
0232720407004622023102305567+39928-074292FM-15+0025KMJX V0203005N005152200059N0160935N5+00785+00225101475ADDGA1005+999999999GD10991+9999999GF100991999999999999999999KA1060M+01061KA2060N+00391MA1101425101125MD1190139+9999REMMET10810/23/23 00:56:02 METAR KMJX 230556Z 30010KT 10SM CLR 08/02 A2995 RMK AO2 SLP147 T00780022 10106 20039 51013
0218720407004622023102306567+39928-074292FM-15+0025KMJX V0203105N003652200059N0160935N5+00785+00225101535ADDGA1025+018295999GD11991+0182959GE19AGL   +99999+99999GF102995999999018291999999MA1101495101195REMMET09310/23/23 01:56:02 METAR KMJX 230656Z 31007KT 10SM FEW060 08/02 A2997 RMK AO2 SLP153 T00780022EQDD01      0ADE726
0238720407004622023102308567+39928-074292FM-15+0025KMJX V0203005N004652200059N0160935N5+00785+00285101665ADDGA1045+011285999GD12991+0112859GE19AGL   +99999+99999GF104995999999011281999999MA1101635101325MD1390209+9999REMMET09910/23/23 03:56:02 METAR KMJX 230856Z 30009KT 10SM SCT037 08/03 A3001 RMK AO2 SLP166 T00780028 53020EQDD01      0ADE726
0174720407004622023102309567+39928-074292FM-15+0025KMJX V0203105N003652200059N0160935N5+00785+00285101755ADDGA1005+999999999GD10991+9999999GF100991999999999999999999MA1101735101435REMMET09010/23/23 04:56:02 METAR KMJX 230956Z 31007KT 10SM CLR 08/03 A3004 RMK AO2 SLP175 T00780028
0174720407004622023102310567+39928-074292FM-15+0025KMJX V0203105N003152200059N0160935N5+00725+00335101845ADDGA1005+999999999GD10991+9999999GF100991999999999999999999MA1101795101495REMMET09010/23/23 05:56:02 METAR KMJX 231056Z 31006KT 10SM CLR 07/03 A3006 RMK AO2 SLP184 T00720033
0232720407004622023102311567+39928-074292FM-15+0025KMJX V0203005N002652200059N0160935N5+00725+00395101975ADDGA1005+999999999GD10991+9999999GF100991999999999999999999KA1060M+00831KA2060N+00671MA1101935101635MD1390309+9999REMMET10810/23/23 06:56:02 METAR KMJX 231156Z 30005KT 10SM CLR 07/04 A3010 RMK AO2 SLP197 T00720039 10083 20067 53030
0185720407004622023102312567+39928-074292FM-15+0025KMJX V0203105N004152200059N0160935N5+00945+00395102085ADDGA1005+999999999GD10991+9999999GF100991999999999999999999MA1102075101765OC100885REMMET09310/23/23 07:56:02 METAR KMJX 231256Z 31008G17KT 10SM CLR 09/04 A3014 RMK AO2 SLP208 T00940039
0185720407004622023102313567+39928-074292FM-15+0025KMJX V0203305N005152200059N0160935N5+01115+00445102135ADDGA1005+999999999GD10991+9999999GF100991999999999999999999MA1102105101805OC100935REMMET09310/23/23 08:56:02 METAR KMJX 231356Z 33010G18KT 10SM CLR 11/04 A3015 RMK AO2 SLP213 T01110044
0194720407004622023102314567+39928-074292FM-15+0025KMJX V0203105N005152200059N0160935N5+01285+00505102155ADDGA1005+999999999GD10991+9999999GF100991999999999999999999MA1102135101835MD1190199+9999REMMET09610/23/23 09:56:02 METAR KMJX 231456Z 31010KT 10SM CLR 13/05 A3016 RMK AO2 SLP215 T01280050 51019
0174720407004622023102315567+39928-074292FM-15+0025KMJX V0203405N005152200059N0160935N5+01395+00565102185ADDGA1005+999999999GD10991+9999999GF100991999999999999999999MA1102135101835REMMET09010/23/23 10:56:02 METAR KMJX 231556Z 34010KT 10SM CLR 14/06 A3016 RMK AO2 SLP218 T01390056
0174720407004622023102316567+39928-074292FM-15+0025KMJX V0203105N003152200059N0160935N5+01505+00565102185ADDGA1005+999999999GD10991+9999999GF100991999999999999999999MA1102135101835REMMET09010/23/23 11:56:02 METAR KMJX 231656Z 31006KT 10SM CLR 15/06 A3016 RMK AO2 SLP218 T01500056
0251720407004622023102317567+39928-074292FM-15+0025KMJX V0203305N004152200059N0160935N5+01615+00565102155ADDGA1005+999999999GD10991+9999999GF100991999999999999999999KA1060M+01611KA2060N+00721MA1102135101835MD1890009+9999REMMET10810/23/23 12:56:02 METAR KMJX 231756Z 33008KT 10SM CLR 16/06 A3016 RMK AO2 SLP215 T01610056 10161 20072 58000EQDQ018     3APCTEN
0174720407004622023102318567+39928-074292FM-15+0025KMJX V0202805N004652200059N0160935N5+01675+00615102145ADDGA1005+999999999GD10991+9999999GF100991999999999999999999MA1102105101805REMMET09010/23/23 13:56:02 METAR KMJX 231856Z 28009KT 10SM CLR 17/06 A3015 RMK AO2 SLP214 T01670061
0194720407004622023102320567+39928-074292FM-15+0025KMJX V0202905N004152200059N0160935N5+01615+00565102255ADDGA1005+999999999GD10991+9999999GF100991999999999999999999MA1102205101905MD1390109+9999REMMET09610/23/23 15:56:02 METAR KMJX 232056Z 29008KT 10SM CLR 16/06 A3018 RMK AO2 SLP225 T01610056 53010
0174720407004622023102321567+39928-074292FM-15+0025KMJX V0202905N002152200059N0160935N5+01395+00675102345ADDGA1005+999999999GD10991+9999999GF100991999999999999999999MA1102305102005REMMET09010/23/23 16:56:02 METAR KMJX 232156Z 29004KT 10SM CLR 14/07 A3021 RMK AO2 SLP234 T01390067
0174720407004622023102322567+39928-074292FM-15+0025KMJX V0209999C000052200059N0160935N5+00895+00615102395ADDGA1005+999999999GD10991+9999999GF100991999999999999999999MA1102375102075REMMET09010/23/23 17:56:02 METAR KMJX 232256Z 00000KT 10SM CLR 09/06 A3023 RMK AO2 SLP239 T00890061
0232720407004622023102323567+39928-074292FM-15+0025KMJX V0209999C000052200059N0160935N5+00615+00445102475ADDGA1005+999999999GD10991+9999999GF100991999999999999999999KA1060M+01721KA2060N+00611MA1102445102145MD1190219+9999REMMET10810/23/23 18:56:02 METAR KMJX 232356Z 00000KT 10SM CLR 06/04 A3025 RMK AO2 SLP247 T00610044 10172 20061 51021
0174720407004622023102400567+39928-074292FM-15+0025KMJX V0209999C000052200059N0160935N5+00565+00445102515ADDGA1005+999999999GD10991+9999999GF100991999999999999999999MA1102475102175REMMET09010/23/23 19:56:01 METAR KMJX 240056Z 00000KT 10SM CLR 06/04 A3026 RMK AO2 SLP251 T00560044
0174720407004622023102401567+39928-074292FM-15+0025KMJX V0209999C000052200059N0160935N5+00395+00285102575ADDGA1005+999999999GD10991+9999999GF100991999999999999999999MA1102545102245REMMET09010/23/23 20:56:01 METAR KMJX 240156Z 00000KT 10SM CLR 04/03 A3028 RMK AO2 SLP257 T00390028
0194720407004622023102402567+39928-074292FM-15+0025KMJX V0209999C000052200059N0160935N5+00335+00225102605ADDGA1005+999999999GD10991+9999999GF100991999999999999999999MA1102575102275MD1190159+9999REMMET09610/23/23 21:56:02 METAR KMJX 240256Z 00000KT 10SM CLR 03/02 A3029 RMK AO2 SLP260 T00330022 51015
0174720407004622023102403567+39928-074292FM-15+0025KMJX V0209999C000052200059N0160935N5+00285+00225102655ADDGA1005+999999999GD10991+9999999GF100991999999999999999999MA1102615102305REMMET09010/23/23 22:56:02 METAR KMJX 240356Z 00000KT 10SM CLR 03/02 A3030 RMK AO2 SLP265 T00280022
0217720407004622023102404567+39928-074292FM-15+0025KMJX V0209999C000052200059N0160935N5+00175+00065102655ADDGA1005+999999999GD10991+9999999GF100991999999999999999999KA1240M+01721KA2240N+00171MA1102615102305REMMET10710/23/23 23:56:02 METAR KMJX 240456Z 00000KT 10SM CLR 02/01 A3030 RMK AO2 SLP265 T00170006 401720017 FZRANO
0239720407004622023102405567+39928-074292FM-15+0025KMJX V0209999C000052200059N0160935N5+00115+00065102675ADDGA1005+999999999GD10991+9999999GF100991999999999999999999KA1060M+00611KA2060N+00111MA1102645102345MD1190079+9999REMMET11510/24/23 00:56:02 METAR KMJX 240556Z 00000KT 10SM CLR 01/01 A3031 RMK AO2 SLP267 T00110006 10061 20011 51007 FZRANO
0181720407004622023102406567+39928-074292FM-15+0025KMJX V0209999C000052200059N0160935N5+00115+00065102685ADDGA1005+999999999GD10991+9999999GF100991999999999999999999MA1102645102345REMMET09710/24/23 01:56:02 METAR KMJX 240656Z 00000KT 10SM CLR 01/01 A3031 RMK AO2 SLP268 T00110006 FZRANO
0203720407004622023102408567+39928-074292FM-15+0025KMJX V0209999C000052200059N0160935N5-00065-00115102775ADDGA1005+999999999GD10991+9999999GF100991999999999999999999MA1102745102445MD1390109+9999REMMET10510/24/23 03:56:02 METAR KMJX 240856Z 00000KT 10SM CLR M01/M01 A3034 RMK AO2 SLP277 T10061011 53010 FZRANO
0183720407004622023102409567+39928-074292FM-15+0025KMJX V0209999C000052200059N0160935N5-00065-00115102835ADDGA1005+999999999GD10991+9999999GF100991999999999999999999MA1102785102475REMMET09910/24/23 04:56:02 METAR KMJX 240956Z 00000KT 10SM CLR M01/M01 A3035 RMK AO2 SLP283 T10061011 FZRANO
0183720407004622023102410567+39928-074292FM-15+0025KMJX V0209999C000052200059N0160935N5-00065-00115102885ADDGA1005+999999999GD10991+9999999GF100991999999999999999999MA1102845102545REMMET09910/24/23 05:56:02 METAR KMJX 241056Z 00000KT 10SM CLR M01/M01 A3037 RMK AO2 SLP288 T10061011 FZRANO
0174720407004622023102412567+39928-074292FM-15+0025KMJX V0209999C000052200059N0160935N5+00725+00505103035ADDGA1005+999999999GD10991+9999999GF100991999999999999999999MA1102985102685REMMET09010/24/23 07:56:02 METAR KMJX 241256Z 00000KT 10SM CLR 07/05 A3041 RMK AO2 SLP303 T00720050
0174720407004622023102413567+39928-074292FM-15+0025KMJX V0209999C000052200059N0160935N5+01395+00835102995ADDGA1005+999999999GD10991+9999999GF100991999999999999999999MA1102955102645REMMET09010/24/23 08:56:02 METAR KMJX 241356Z 00000KT 10SM CLR 14/08 A3040 RMK AO2 SLP299 T01390083
0194720407004622023102414567+39928-074292FM-15+0025KMJX V0202005N002652200059N0160935N5+01675+00505102975ADDGA1005+999999999GD10991+9999999GF100991999999999999999999MA1102955102645MD1090029+9999REMMET09610/24/23 09:56:02 METAR KMJX 241456Z 20005KT 10SM CLR 17/05 A3040 RMK AO2 SLP297 T01670050 50002
0174720407004622023102415567+39928-074292FM-15+0025KMJX V0202105N003152200059N0160935N5+01785+00505102995ADDGA1005+999999999GD10991+9999999GF100991999999999999999999MA1102955102645REMMET09010/24/23 10:56:02 METAR KMJX 241556Z 21006KT 10SM CLR 18/05 A3040 RMK AO2 SLP299 T01780050
0174720407004622023102416567+39928-074292FM-15+0025KMJX V0202205N002652200059N0160935N5+01895+00565102915ADDGA1005+999999999GD10991+9999999GF100991999999999999999999MA1102885102575REMMET09010/24/23 11:56:02 METAR KMJX 241656Z 22005KT 10SM CLR 19/06 A3038 RMK AO2 SLP291 T01890056
0232720407004622023102417567+39928-074292FM-15+0025KMJX V0202405N004152200059N0160935N5+02005+00505102845ADDGA1005+999999999GD10991+9999999GF100991999999999999999999KA1060M+02001KA2060N+00111MA1102815102515MD1890139+9999REMMET10810/24/23 12:56:02 METAR KMJX 241756Z 24008KT 10SM CLR 20/05 A3036 RMK AO2 SLP284 T02000050 10200 20011 58013
0174720407004622023102418567+39928-074292FM-15+0025KMJX V0202505N003652200059N0160935N5+02065+00505102785ADDGA1005+999999999GD10991+9999999GF100991999999999999999999MA1102745102445REMMET09010/24/23 13:56:02 METAR KMJX 241856Z 25007KT 10SM CLR 21/05 A3034 RMK AO2 SLP278 T02060050
0174720407004622023102419567+39928-074292FM-15+0025KMJX V0202105N003652200059N0160935N5+02005+00445102765ADDGA1005+999999999GD10991+9999999GF100991999999999999999999MA1102745102445REMMET09010/24/23 14:56:02 METAR KMJX 241956Z 21007KT 10SM CLR 20/04 A3034 RMK AO2 SLP276 T02000044
0194720407004622023102420567+39928-074292FM-15+0025KMJX V0202405N003152200059N0160935N5+01945+00335102775ADDGA1005+999999999GD10991+9999999GF100991999999999999999999MA1102745102445MD1590079+9999REMMET09610/24/23 15:56:02 METAR KMJX 242056Z 24006KT 10SM CLR 19/03 A3034 RMK AO2 SLP277 T01940033 55007
0174720407004622023102421567+39928-074292FM-15+0025KMJX V0201605N002652200059N0160935N5+01565+01005102775ADDGA1005+999999999GD10991+9999999GF100991999999999999999999MA1102745102445REMMET09010/24/23 16:56:02 METAR KMJX 242156Z 16005KT 10SM CLR 16/10 A3034 RMK AO2 SLP277 T01560100
0174720407004622023102422567+39928-074292FM-15+0025KMJX V0209999C000052200059N0160935N5+01285+00945102805ADDGA1005+999999999GD10991+9999999GF100991999999999999999999MA1102745102445REMMET09010/24/23 17:56:02 METAR KMJX 242256Z 00000KT 10SM CLR 13/09 A3034 RMK AO2 SLP280 T01280094
0232720407004622023102423567+39928-074292FM-15+0025KMJX V0201805N002152200059N0160935N5+01065+00835102835ADDGA1005+999999999GD10991+9999999GF100991999999999999999999KA1060M+02061KA2060N+01061MA1102785102475MD1390059+9999REMMET10810/24/23 18:56:02 METAR KMJX 242356Z 18004KT 10SM CLR 11/08 A3035 RMK AO2 SLP283 T01060083 10206 20106 53005
0174720407004622023102500567+39928-074292FM-15+0025KMJX V0202105N003152200059N0160935N5+01175+00895102805ADDGA1005+999999999GD10991+9999999GF100991999999999999999999MA1102785102475REMMET09010/24/23 19:56:01 METAR KMJX 250056Z 21006KT 10SM CLR 12/09 A3035 RMK AO2 SLP280 T01170089
0174720407004622023102501567+39928-074292FM-15+0025KMJX V0209999C000052200059N0160935N5+00945+00835102855ADDGA1005+999999999GD10991+9999999GF100991999999999999999999MA1102815102515REMMET09010/24/23 20:56:01 METAR KMJX 250156Z 00000KT 10SM CLR 09/08 A3036 RMK AO2 SLP285 T00940083
0174720407004622023102503567+39928-074292FM-15+0025KMJX V0202205N001552200059N0160935N5+00675+00615102785ADDGA1005+999999999GD10991+9999999GF100991999999999999999999MA1102745102445REMMET09010/24/23 22:56:01 METAR KMJX 250356Z 22003KT 10SM CLR 07/06 A3034 RMK AO2 SLP278 T00670061
0209720407004622023102504567+39928-074292FM-15+0025KMJX V0202205N001552200059N0128755N5+00785+00785102765ADDGA1005+999999999GD10991+9999999GF100991999999999999999999KA1240M+02061KA2240N-00061MA1102745102445REMMET09910/24/23 23:56:01 METAR KMJX 250456Z 22003KT 8SM CLR 08/08 A3034 RMK AO2 SLP276 T00780078 402061006
0176720407004622023102505497+39928-074292FM-15+0025KMJX V0202205N001552200059N0032195N5+00705+00705999999ADDAU100001015AW1105GA1005+999999999GD10991+9999999GF100991999999999999999999MA1102745102445REMMET07510/25/23 00:49:01 METAR KMJX 250549Z 22003KT 2SM BR CLR 07/07 A3034 RMK AO2
0251720407004622023102505567+39928-074292FM-15+0025KMJX V0209999C000052200059N0096565N5+00725+00725102795ADDAU100001015AW1105GA1005+999999999GD10991+9999999GF100991999999999999999999KA1060M+01171KA2060N+00611MA1102785102475MD1590019+9999REMMET11010/25/23 00:56:01 METAR KMJX 250556Z 00000KT 6SM BR CLR 07/07 A3035 RMK AO2 SLP279 T00720072 10117 20061 55001
0188720407004622023102506147+39928-074292FM-15+0025KMJX V0209999C000052200059N0028165V5+00705+00705999999ADDAU100001015AW1105GA1005+999999999GD10991+9999999GF100991999999999999999999MA1102785102475REMMET08710/25/23 01:14:01 METAR KMJX 250614Z 00000KT 1 3/4SM BR CLR 07/07 A3035 RMK AO2 VIS 1V5
0176720407004622023102506227+39928-074292FM-15+0025KMJX V0209999C000052200059N0048285N5+00605+00605999999ADDAU100001015AW1105GA1005+999999999GD10991+9999999GF100991999999999999999999MA1102785102475REMMET07510/25/23 01:22:01 METAR KMJX 250622Z 00000KT 3SM BR CLR 06/06 A3035 RMK AO2
0174720407004622023102506567+39928-074292FM-15+0025KMJX V0209999C000052200059N0160935N5+00565+00505102825ADDGA1005+999999999GD10991+9999999GF100991999999999999999999MA1102785102475REMMET09010/25/23 01:56:01 METAR KMJX 250656Z 00000KT 10SM CLR 06/05 A3035 RMK AO2 SLP282 T00560050
0174720407004622023102507567+39928-074292FM-15+0025KMJX V0209999C000052200059N0160935N5+00445+00395102765ADDGA1005+999999999GD10991+9999999GF100991999999999999999999MA1102745102445REMMET09010/25/23 02:56:01 METAR KMJX 250756Z 00000KT 10SM CLR 04/04 A3034 RMK AO2 SLP276 T00440039
0201720407004622023102508307+39928-074292FM-15+0025KMJX V0209999C000052200059N0160935N5+00405+00405999999ADDGA1025+000915999GD11991+0009159GE19AGL   +99999+99999GF102995999999000911999999MA1102715102415REMMET07610/25/23 03:30:01 METAR KMJX 250830Z 00000KT 10SM FEW003 04/04 A3033 RMK AO2EQDD01      0ADE726
0181720407004622023102508467+39928-074292FM-15+0025KMJX V0209999C00005000915MN0144845N5+00305+00305999999ADDGA1075+000915999GD13991+0009159GE19AGL   +99999+99999GF199999999999000911999999MA1102745102445REMMET07510/25/23 03:46:01 METAR KMJX 250846Z 00000KT 9SM BKN003 03/03 A3034 RMK AO2
0238720407004622023102508567+39928-074292FM-15+0025KMJX V0209999C000052200059N0160935N5+00335+00335102765ADDGA1045+000915999GD12991+0009159GE19AGL   +99999+99999GF104995999999000911999999MA1102745102445MD1890039+9999REMMET09910/25/23 03:56:01 METAR KMJX 250856Z 00000KT 10SM SCT003 03/03 A3034 RMK AO2 SLP276 T00330033 58003EQDD01      0ADE726
0202720407004622023102509237+39928-074292FM-15+0025KMJX V0209999C00005000615WN0008055N5+00305+00305999999ADDAU100002015AW1305GA1095+000615999GD15991+0006159GE19AGL   +99999+99999GF109991999999000611999999MA1102745102445REMMET07910/25/23 04:23:01 METAR KMJX 250923Z 00000KT 1/2SM FG VV002 03/03 A3034 RMK AO2
0200720407004622023102509347+39928-074292FM-15+0025KMJX V0209999C00005000615WN0016095N5+00305+00305999999ADDAU100001015AW1105GA1095+000615999GD15991+0006159GE19AGL   +99999+99999GF109991999999000611999999MA1102785102475REMMET07710/25/23 04:34:01 METAR KMJX 250934Z 00000KT 1SM BR VV002 03/03 A3035 RMK AO2
0232720407004622023102509387+39928-074292FM-15+0025KMJX V0209999C000052200059N0040235V5+00305+00305999999ADDAU100001015AW1105GA1025+000615999GD11991+0006159GE19AGL   +99999+99999GF102995999999000611999999MA1102785102475REMMET09010/25/23 04:38:01 METAR KMJX 250938Z 00000KT 2 1/2SM BR FEW002 03/03 A3035 RMK AO2 VIS 1V5EQDD01      0ADE726
0200720407004622023102509457+39928-074292FM-15+0025KMJX V0209999C000052200059N0144845N5+00405+00305999999ADDGA1025+000615999GD11991+0006159GE19AGL   +99999+99999GF102995999999000611999999MA1102785102475REMMET07510/25/23 04:45:01 METAR KMJX 250945Z 00000KT 9SM FEW002 04/03 A3035 RMK AO2EQDD01      0ADE726
0193720407004622023102509567+39928-074292FM-15+0025KMJX V0209999C000052200059N0064375N5+00445+00395102795ADDAU100001015AW1105GA1005+999999999GD10991+9999999GF100991999999999999999999MA1102785102475REMMET09210/25/23 04:56:01 METAR KMJX 250956Z 00000KT 4SM BR CLR 04/04 A3035 RMK AO2 SLP279 T00440039
0201720407004622023102510357+39928-074292FM-15+0025KMJX V0209999C000052200059N0160935N5+00305+00305999999ADDGA1045+000615999GD12991+0006159GE19AGL   +99999+99999GF104995999999000611999999MA1102745102445REMMET07610/25/23 05:35:01 METAR KMJX 251035Z 00000KT 10SM SCT002 03/03 A3034 RMK AO2EQDD01      0ADE726
0182720407004622023102510447+39928-074292FM-15+0025KMJX V0209999C00005000615MN0160935N5+00405+00305999999ADDGA1075+000615999GD13991+0006159GE19AGL   +99999+99999GF199999999999000611999999MA1102785102475REMMET07610/25/23 05:44:01 METAR KMJX 251044Z 00000KT 10SM BKN002 04/03 A3035 RMK AO2
0199720407004622023102510567+39928-074292FM-15+0025KMJX V0209999C00005000615MN0160935N5+00395+00335102805ADDGA1085+000615999GD14991+0006159GE19AGL   +99999+99999GF199999999999000611999999MA1102785102475REMMET09310/25/23 05:56:01 METAR KMJX 251056Z 00000KT 10SM OVC002 04/03 A3035 RMK AO2 SLP280 T00390033
0200720407004622023102511097+39928-074292FM-15+0025KMJX V0202105N00155000915WN0016095N5+00405+00405999999ADDAU100001015AW1105GA1095+000915999GD15991+0009159GE19AGL   +99999+99999GF109991999999000911999999MA1102785102475REMMET07710/25/23 06:09:01 METAR KMJX 251109Z 21003KT 1SM BR VV003 04/04 A3035 RMK AO2
0202720407004622023102511117+39928-074292FM-15+0025KMJX V0209999C00005000915WN0008055N5+00405+00405999999ADDAU100002015AW1305GA1095+000915999GD15991+0009159GE19AGL   +99999+99999GF109991999999000911999999MA1102785102475REMMET07910/25/23 06:11:01 METAR KMJX 251111Z 00000KT 1/2SM FG VV003 04/04 A3035 RMK AO2
0200720407004622023102511217+39928-074292FM-15+0025KMJX V0201805N00155000915WN0016095N5+00405+00405999999ADDAU100001015AW1105GA1095+000915999GD15991+0009159GE19AGL   +99999+99999GF109991999999000911999999MA1102745102445REMMET07710/25/23 06:21:01 METAR KMJX 251121Z 18003KT 1SM BR VV003 04/04 A3034 RMK AO2
0211720407004622023102511257+39928-074292FM-15+0025KMJX V0209999C00005000915WN0016095V5+00405+00405999999ADDAU100001015AW1105GA1095+000915999GD15991+0009159GE19AGL   +99999+99999GF109991999999000911999999MA1102745102445REMMET08810/25/23 06:25:01 METAR KMJX 251125Z 00000KT 1SM BR VV003 04/04 A3034 RMK AO2 VIS M1/4V5
0189720407004622023102511287+39928-074292FM-15+0025KMJX V0209999C000052200059N0012075V5+00405+00405999999ADDAU100001015AW1105GA1005+999999999GD10991+9999999GF100991999999999999999999MA1102785102475REMMET08810/25/23 06:28:01 METAR KMJX 251128Z 00000KT 3/4SM BR CLR 04/04 A3035 RMK AO2 VIS M1/4V5
0176720407004622023102511357+39928-074292FM-15+0025KMJX V0209999C000052200059N0064375N5+00405+00405999999ADDAU100001015AW1105GA1005+999999999GD10991+9999999GF100991999999999999999999MA1102785102475REMMET07510/25/23 06:35:01 METAR KMJX 251135Z 00000KT 4SM BR CLR 04/04 A3035 RMK AO2
0202720407004622023102511527+39928-074292FM-15+0025KMJX V0202305N00155000915WN0012075N5+00505+00405999999ADDAU100001015AW1105GA1095+000915999GD15991+0009159GE19AGL   +99999+99999GF109991999999000911999999MA1102785102475REMMET07910/25/23 06:52:01 METAR KMJX 251152Z 23003KT 3/4SM BR VV003 05/04 A3035 RMK AO2
0202720407004622023102511547+39928-074292FM-15+0025KMJX V0202205N00155000915WN0004025N5+00505+00505999999ADDAU100002015AW1305GA1095+000915999GD15991+0009159GE19AGL   +99999+99999GF109991999999000911999999MA1102785102475REMMET07910/25/23 06:54:01 METAR KMJX 251154Z 22003KT 1/4SM FG VV003 05/05 A3035 RMK AO2
0277720407004622023102511567+39928-074292FM-15+0025KMJX V0202105N00155000915WN0004025N5+00505+00505102805ADDAU100002015AW1305GA1095+000915999GD15991+0009159GE19AGL   +99999+99999GF109991999999000911999999KA1060M+00721KA2060N+00281MA1102785102475MD1190049+9999REMMET11410/25/23 06:56:01 METAR KMJX 251156Z 21003KT 1/4SM FG VV003 05/05 A3035 RMK AO2 SLP280 T00500050 10072 20028 51004
0212720407004622023102512057+39928-074292FM-15+0025KMJX V0202205N00155000915WN0012075V5+00705+00605999999ADDAU100001015AW1105GA1095+000915999GD15991+0009159GE19AGL   +99999+99999GF109991999999000911999999MA1102785102475REMMET08910/25/23 07:05:01 METAR KMJX 251205Z 22003KT 3/4SM BR VV003 07/06 A3035 RMK AO2 VIS 1/4V5
0274720407004622023102512177+39928-074292FM-15+0025KMJX V0202205N002152200059N0020125N5+00805+00805999999ADDAA101000021AU110020015AU200001015AW1105AW2615GA1025+000915999GD11991+0009159GE19AGL   +99999+99999GF102995999999000911999999MA1102785102475MW1615REMMET09810/25/23 07:17:01 METAR KMJX 251217Z 22004KT 1 1/4SM -RA BR FEW003 08/08 A3035 RMK AO2 RAB10 P0000EQDD01      0ADE726
0182720407004622023102512257+39928-074292FM-15+0025KMJX V0202205N002152200059N0128755N5+01005+01005999999ADDAA101000021GA1005+999999999GD10991+9999999GF100991999999999999999999MA1102785102475REMMET08710/25/23 07:25:01 METAR KMJX 251225Z 22004KT 8SM CLR 10/10 A3035 RMK AO2 RAB10E22 P0000
0200720407004622023102512567+39928-074292FM-15+0025KMJX V0202105N001552200059N0160935N5+01285+01225102805ADDAA101000021GA1005+999999999GD10991+9999999GF100991999999999999999999MA1102785102475REMMET10510/25/23 07:56:01 METAR KMJX 251256Z 21003KT 10SM CLR 13/12 A3035 RMK AO2 RAB10E22 SLP280 P0000 T01280122
0174720407004622023102513567+39928-074292FM-15+0025KMJX V0202305N005752200059N0160935N5+01565+01115102815ADDGA1005+999999999GD10991+9999999GF100991999999999999999999MA1102785102475REMMET09010/25/23 08:56:02 METAR KMJX 251356Z 23011KT 10SM CLR 16/11 A3035 RMK AO2 SLP281 T01560111
0241720407004622023102514567+39928-074292FM-15+0025KMJX V0202505N005152200059N0160935N5+01945+01005102795ADDAA103000021GA1005+999999999GD10991+9999999GF100991999999999999999999MA1102745102445MD1890029+9999OC100775REMMET10510/25/23 09:56:02 METAR KMJX 251456Z 25010G15KT 10SM CLR 19/10 A3034 RMK AO2 SLP279 60000 T01940100 58002EQDQ01  00008PRCP03
0174720407004622023102515567+39928-074292FM-15+0025KMJX V0202305N004152200059N0160935N5+02115+00945102735ADDGA1005+999999999GD10991+9999999GF100991999999999999999999MA1102715102415REMMET09010/25/23 10:56:02 METAR KMJX 251556Z 23008KT 10SM CLR 21/09 A3033 RMK AO2 SLP273 T02110094
0174720407004622023102516567+39928-074292FM-15+0025KMJX V0202405N007752200059N0160935N5+02225+00725102665ADDGA1005+999999999GD10991+9999999GF100991999999999999999999MA1102645102345REMMET09010/25/23 11:56:02 METAR KMJX 251656Z 24015KT 10SM CLR 22/07 A3031 RMK AO2 SLP266 T02220072
0268720407004622023102517567+39928-074292FM-15+0025KMJX V0202205N005152200059N0160935N5+02175+01005102575ADDAA106000021GA1005+999999999GD10991+9999999GF100991999999999999999999KA1060M+02281KA2060N+00501MA1102545102245MD1890219+9999REMMET11410/25/23 12:56:02 METAR KMJX 251756Z 22010KT 10SM CLR 22/10 A3028 RMK AO2 SLP257 60000 T02170100 10228 20050 58021EQDQ01  00008PRCP06
0174720407004622023102518567+39928-074292FM-15+0025KMJX V0202205N003152200059N0160935N5+02175+01065102525ADDGA1005+999999999GD10991+9999999GF100991999999999999999999MA1102475102175REMMET09010/25/23 13:56:02 METAR KMJX 251856Z 22006KT 10SM CLR 22/11 A3026 RMK AO2 SLP252 T02170106
0174720407004622023102519567+39928-074292FM-15+0025KMJX V0202505N005152200059N0160935N5+02335+00895102515ADDGA1005+999999999GD10991+9999999GF100991999999999999999999MA1102475102175REMMET09010/25/23 14:56:02 METAR KMJX 251956Z 25010KT 10SM CLR 23/09 A3026 RMK AO2 SLP251 T02330089
0194720407004622023102520567+39928-074292FM-15+0025KMJX V0202205N003152200059N0160935N5+02285+01005102505ADDGA1005+999999999GD10991+9999999GF100991999999999999999999MA1102475102175MD1690079+9999REMMET09610/25/23 15:56:02 METAR KMJX 252056Z 22006KT 10SM CLR 23/10 A3026 RMK AO2 SLP250 T02280100 56007
0174720407004622023102521567+39928-074292FM-15+0025KMJX V0202005N002152200059N0160935N5+01945+01065102545ADDGA1005+999999999GD10991+9999999GF100991999999999999999999MA1102515102205REMMET09010/25/23 16:56:02 METAR KMJX 252156Z 20004KT 10SM CLR 19/11 A3027 RMK AO2 SLP254 T01940106
0174720407004622023102522567+39928-074292FM-15+0025KMJX V0201905N002652200059N0160935N5+01785+01065102525ADDGA1005+999999999GD10991+9999999GF100991999999999999999999MA1102475102175REMMET09010/25/23 17:56:02 METAR KMJX 252256Z 19005KT 10SM CLR 18/11 A3026 RMK AO2 SLP252 T01780106
0232720407004622023102523567+39928-074292FM-15+0025KMJX V0202105N001552200059N0160935N5+01675+01175102555ADDGA1005+999999999GD10991+9999999GF100991999999999999999999KA1060M+02331KA2060N+01671MA1102515102205MD1190059+9999REMMET10810/25/23 18:56:02 METAR KMJX 252356Z 21003KT 10SM CLR 17/12 A3027 RMK AO2 SLP255 T01670117 10233 20167 51005
0174720407004622023102600567+39928-074292FM-15+0025KMJX V0209999C000052200059N0160935N5+01505+01175102585ADDGA1005+999999999GD10991+9999999GF100991999999999999999999MA1102545102245REMMET09010/25/23 19:56:01 METAR KMJX 260056Z 00000KT 10SM CLR 15/12 A3028 RMK AO2 SLP258 T01500117
0174720407004622023102601567+39928-074292FM-15+0025KMJX V0202305N003652200059N0160935N5+01505+01225102625ADDGA1005+999999999GD10991+9999999GF100991999999999999999999MA1102615102305REMMET09010/25/23 20:56:01 METAR KMJX 260156Z 23007KT 10SM CLR 15/12 A3030 RMK AO2 SLP262 T01500122
0194720407004622023102602567+39928-074292FM-15+0025KMJX V0202405N003152200059N0160935N5+01395+01115102625ADDGA1005+999999999GD10991+9999999GF100991999999999999999999MA1102575102275MD1090069+9999REMMET09610/25/23 21:56:01 METAR KMJX 260256Z 24006KT 10SM CLR 14/11 A3029 RMK AO2 SLP262 T01390111 50006
0174720407004622023102603567+39928-074292FM-15+0025KMJX V0202305N003152200059N0160935N5+01505+01115102565ADDGA1005+999999999GD10991+9999999GF100991999999999999999999MA1102545102245REMMET09010/25/23 22:56:01 METAR KMJX 260356Z 23006KT 10SM CLR 15/11 A3028 RMK AO2 SLP256 T01500111
0210720407004622023102604567+39928-074292FM-15+0025KMJX V0202305N003652200059N0160935N5+01505+01115102545ADDGA1005+999999999GD10991+9999999GF100991999999999999999999KA1240M+02331KA2240N+00281MA1102515102205REMMET10010/25/23 23:56:01 METAR KMJX 260456Z 23007KT 10SM CLR 15/11 A3027 RMK AO2 SLP254 T01500111 402330028
003972040700462202310260459O+39928-074292SOD  +0025KMJX V020999999999999999999999999999+99999+99999999999ADDAT1AU16RA  5AT2AU01FG  5AT3AU13BR  5
0232720407004622023102605567+39928-074292FM-15+0025KMJX V0202305N003652200059N0160935N5+01395+01175102525ADDGA1005+999999999GD10991+9999999GF100991999999999999999999KA1060M+01671KA2060N+01391MA1102475102175MD1690109+9999REMMET10810/26/23 00:56:01 METAR KMJX 260556Z 23007KT 10SM CLR 14/12 A3026 RMK AO2 SLP252 T01390117 10167 20139 56010
0174720407004622023102606567+39928-074292FM-15+0025KMJX V0202305N001552200059N0160935N5+01335+01175102505ADDGA1005+999999999GD10991+9999999GF100991999999999999999999MA1102475102175REMMET09010/26/23 01:56:01 METAR KMJX 260656Z 23003KT 10SM CLR 13/12 A3026 RMK AO2 SLP250 T01330117
0174720407004622023102607567+39928-074292FM-15+0025KMJX V0202305N002152200059N0160935N5+01225+01115102455ADDGA1005+999999999GD10991+9999999GF100991999999999999999999MA1102405102105REMMET09010/26/23 02:56:01 METAR KMJX 260756Z 23004KT 10SM CLR 12/11 A3024 RMK AO2 SLP245 T01220111
0194720407004622023102608567+39928-074292FM-15+0025KMJX V0202205N002152200059N0160935N5+01115+01115102475ADDGA1005+999999999GD10991+9999999GF100991999999999999999999MA1102445102145MD1590059+9999REMMET09610/26/23 03:56:01 METAR KMJX 260856Z 22004KT 10SM CLR 11/11 A3025 RMK AO2 SLP247 T01110111 55005
0174720407004622023102609567+39928-074292FM-15+0025KMJX V0209999C000052200059N0160935N5+00945+00895102515ADDGA1005+999999999GD10991+9999999GF100991999999999999999999MA1102475102175REMMET09010/26/23 04:56:01 METAR KMJX 260956Z 00000KT 10SM CLR 09/09 A3026 RMK AO2 SLP251 T00940089
0180720407004622023102610237+39928-074292FM-15+0025KMJX V0209999C000052200059N0028165N5+00805+00805999999ADDAU100001015AW1105GA1005+999999999GD10991+9999999GF100991999999999999999999MA1102475102175REMMET07910/26/23 05:23:01 METAR KMJX 261023Z 00000KT 1 3/4SM BR CLR 08/08 A3026 RMK AO2
0176720407004622023102610307+39928-074292FM-15+0025KMJX V0209999C000052200059N0048285N5+00805+00805999999ADDAU100001015AW1105GA1005+999999999GD10991+9999999GF100991999999999999999999MA1102475102175REMMET07510/26/23 05:30:01 METAR KMJX 261030Z 00000KT 3SM BR CLR 08/08 A3026 RMK AO2
0174720407004622023102610567+39928-074292FM-15+0025KMJX V0209999C000052200059N0160935N5+00835+00785102535ADDGA1005+999999999GD10991+9999999GF100991999999999999999999MA1102515102205REMMET09010/26/23 05:56:01 METAR KMJX 261056Z 00000KT 10SM CLR 08/08 A3027 RMK AO2 SLP253 T00830078
0201720407004622023102611037+39928-074292FM-15+0025KMJX V0209999C000052200059N0160935N5+00805+00805999999ADDGA1025+000615999GD11991+0006159GE19AGL   +99999+99999GF102995999999000611999999MA1102515102205REMMET07610/26/23 06:03:01 METAR KMJX 261103Z 00000KT 10SM FEW002 08/08 A3027 RMK AO2EQDD01      0ADE726
0232720407004622023102611567+39928-074292FM-15+0025KMJX V0202005N002152200059N0160935N5+00835+00785102575ADDGA1005+999999999GD10991+9999999GF100991999999999999999999KA1060M+01391KA2060N+00781MA1102545102245MD1190109+9999REMMET10810/26/23 06:56:01 METAR KMJX 261156Z 20004KT 10SM CLR 08/08 A3028 RMK AO2 SLP257 T00830078 10139 20078 51010
0174720407004622023102612567+39928-074292FM-15+0025KMJX V0202105N002152200059N0160935N5+01505+01335102605ADDGA1005+999999999GD10991+9999999GF100991999999999999999999MA1102575102275REMMET09010/26/23 07:56:01 METAR KMJX 261256Z 21004KT 10SM CLR 15/13 A3029 RMK AO2 SLP260 T01500133
0174720407004622023102613567+39928-074292FM-15+0025KMJX V0202405N004152200059N0160935N5+01835+01395102605ADDGA1005+999999999GD10991+9999999GF100991999999999999999999MA1102575102275REMMET09010/26/23 08:56:02 METAR KMJX 261356Z 24008KT 10SM CLR 18/14 A3029 RMK AO2 SLP260 T01830139
0194720407004622023102614567+39928-074292FM-15+0025KMJX V0202705N002652200059N0160935N5+02065+01335102545ADDGA1005+999999999GD10991+9999999GF100991999999999999999999MA1102515102205MD1890029+9999REMMET09610/26/23 09:56:02 METAR KMJX 261456Z 27005KT 10SM CLR 21/13 A3027 RMK AO2 SLP254 T02060133 58002
0174720407004622023102615567+39928-074292FM-15+0025KMJX V0209999V001552200059N0160935N5+02225+01335102495ADDGA1005+999999999GD10991+9999999GF100991999999999999999999MA1102475102175REMMET09010/26/23 10:56:02 METAR KMJX 261556Z VRB03KT 10SM CLR 22/13 A3026 RMK AO2 SLP249 T02220133
0174720407004622023102616567+39928-074292FM-15+0025KMJX V0203205N002152200059N0160935N5+02335+01335102405ADDGA1005+999999999GD10991+9999999GF100991999999999999999999MA1102375102075REMMET09010/26/23 11:56:02 METAR KMJX 261656Z 32004KT 10SM CLR 23/13 A3023 RMK AO2 SLP240 T02330133
0232720407004622023102617567+39928-074292FM-15+0025KMJX V0209999V001552200059N0160935N5+02565+01175102335ADDGA1005+999999999GD10991+9999999GF100991999999999999999999KA1060M+02561KA2060N+00831MA1102305102005MD1890219+9999REMMET10810/26/23 12:56:02 METAR KMJX 261756Z VRB03KT 10SM CLR 26/12 A3021 RMK AO2 SLP233 T02560117 10256 20083 58021
0174720407004622023102618567+39928-074292FM-15+0025KMJX V0203005N001552200059N0160935N5+02675+00945102285ADDGA1005+999999999GD10991+9999999GF100991999999999999999999MA1102245101935REMMET09010/26/23 13:56:02 METAR KMJX 261856Z 30003KT 10SM CLR 27/09 A3019 RMK AO2 SLP228 T02670094
0174720407004622023102619567+39928-074292FM-15+0025KMJX V0201905N003152200059N0160935N5+02615+01115102255ADDGA1005+999999999GD10991+9999999GF100991999999999999999999MA1102245101935REMMET09010/26/23 14:56:02 METAR KMJX 261956Z 19006KT 10SM CLR 26/11 A3019 RMK AO2 SLP225 T02610111
0194720407004622023102620567+39928-074292FM-15+0025KMJX V0201905N001552200059N0160935N5+02565+01065102245ADDGA1005+999999999GD10991+9999999GF100991999999999999999999MA1102205101905MD1690099+9999REMMET09610/26/23 15:56:02 METAR KMJX 262056Z 19003KT 10SM CLR 26/11 A3018 RMK AO2 SLP224 T02560106 56009
0173720407004622023102621567+39928-074292FM-15+0025KMJX V0209999C000052200059N0128755N5+02005+01445102275ADDGA1005+999999999GD10991+9999999GF100991999999999999999999MA1102245101935REMMET08910/26/23 16:56:02 METAR KMJX 262156Z 00000KT 8SM CLR 20/14 A3019 RMK AO2 SLP227 T02000144
0174720407004622023102622567+39928-074292FM-15+0025KMJX V0209999C000052200059N0160935N5+01615+01335102305ADDGA1005+999999999GD10991+9999999GF100991999999999999999999MA1102275101975REMMET09010/26/23 17:56:02 METAR KMJX 262256Z 00000KT 10SM CLR 16/13 A3020 RMK AO2 SLP230 T01610133
0232720407004622023102623567+39928-074292FM-15+0025KMJX V0209999C000052200059N0160935N5+01395+01175102305ADDGA1005+999999999GD10991+9999999GF100991999999999999999999KA1060M+02671KA2060N+01391MA1102275101975MD1190069+9999REMMET10810/26/23 18:56:02 METAR KMJX 262356Z 00000KT 10SM CLR 14/12 A3020 RMK AO2 SLP230 T01390117 10267 20139 51006
0174720407004622023102700567+39928-074292FM-15+0025KMJX V0209999C000052200059N0160935N5+01395+01225102305ADDGA1005+999999999GD10991+9999999GF100991999999999999999999MA1102275101975REMMET09010/26/23 19:56:01 METAR KMJX 270056Z 00000KT 10SM CLR 14/12 A3020 RMK AO2 SLP230 T01390122
0174720407004622023102701567+39928-074292FM-15+0025KMJX V0209999C000052200059N0160935N5+01175+01065102305ADDGA1005+999999999GD10991+9999999GF100991999999999999999999MA1102275101975REMMET09010/26/23 20:56:01 METAR KMJX 270156Z 00000KT 10SM CLR 12/11 A3020 RMK AO2 SLP230 T01170106
0194720407004622023102702567+39928-074292FM-15+0025KMJX V0202405N001552200059N0160935N5+01335+01175102315ADDGA1005+999999999GD10991+9999999GF100991999999999999999999MA1102275101975MD1390019+9999REMMET09610/26/23 21:56:01 METAR KMJX 270256Z 24003KT 10SM CLR 13/12 A3020 RMK AO2 SLP231 T01330117 53001
0174720407004622023102703567+39928-074292FM-15+0025KMJX V0202305N001552200059N0160935N5+01225+01175102275ADDGA1005+999999999GD10991+9999999GF100991999999999999999999MA1102245101935REMMET09010/26/23 22:56:01 METAR KMJX 270356Z 23003KT 10SM CLR 12/12 A3019 RMK AO2 SLP227 T01220117
0210720407004622023102704567+39928-074292FM-15+0025KMJX V0209999C000052200059N0160935N5+01065+01005102255ADDGA1005+999999999GD10991+9999999GF100991999999999999999999KA1240M+02671KA2240N+00781MA1102245101935REMMET10010/26/23 23:56:01 METAR KMJX 270456Z 00000KT 10SM CLR 11/10 A3019 RMK AO2 SLP225 T01060100 402670078
001572040700462202310270459O+39928-074292SOD  +0025KMJX V020999999999999999999999999999+99999+99999999999ADDAT1AU13BR  5
0232720407004622023102705567+39928-074292FM-15+0025KMJX V0209999C000052200059N0160935N5+01005+01005102285ADDGA1005+999999999GD10991+9999999GF100991999999999999999999KA1060M+01391KA2060N+01001MA1102245101935MD1590039+9999REMMET10810/27/23 00:56:01 METAR KMJX 270556Z 00000KT 10SM CLR 10/10 A3019 RMK AO2 SLP228 T01000100 10139 20100 55003
0174720407004622023102706567+39928-074292FM-15+0025KMJX V0209999C000052200059N0160935N5+00945+00895102245ADDGA1005+999999999GD10991+9999999GF100991999999999999999999MA1102205101905REMMET09010/27/23 01:56:01 METAR KMJX 270656Z 00000KT 10SM CLR 09/09 A3018 RMK AO2 SLP224 T00940089
0173720407004622023102707567+39928-074292FM-15+0025KMJX V0202305N001552200059N0144845N5+01065+01005102225ADDGA1005+999999999GD10991+9999999GF100991999999999999999999MA1102205101905REMMET08910/27/23 02:56:01 METAR KMJX 270756Z 23003KT 9SM CLR 11/10 A3018 RMK AO2 SLP222 T01060100
0193720407004622023102708567+39928-074292FM-15+0025KMJX V0202205N002152200059N0144845N5+01175+01115102205ADDGA1005+999999999GD10991+9999999GF100991999999999999999999MA1102175101875MD1690079+9999REMMET09510/27/23 03:56:01 METAR KMJX 270856Z 22004KT 9SM CLR 12/11 A3017 RMK AO2 SLP220 T01170111 56007
0174720407004622023102709567+39928-074292FM-15+0025KMJX V0202205N003652200059N0160935N5+01565+01505102185ADDGA1005+999999999GD10991+9999999GF100991999999999999999999MA1102135101835REMMET09010/27/23 04:56:01 METAR KMJX 270956Z 22007KT 10SM CLR 16/15 A3016 RMK AO2 SLP218 T01560150
0174720407004622023102710567+39928-074292FM-15+0025KMJX V0202305N003652200059N0160935N5+01505+01505102195ADDGA1005+999999999GD10991+9999999GF100991999999999999999999MA1102175101875REMMET09010/27/23 05:56:01 METAR KMJX 271056Z 23007KT 10SM CLR 15/15 A3017 RMK AO2 SLP219 T01500150
0174720407004622023102712567+39928-074292FM-15+0025KMJX V0202605N004152200059N0160935N5+01725+01505102235ADDGA1005+999999999GD10991+9999999GF100991999999999999999999MA1102205101905REMMET09010/27/23 07:56:01 METAR KMJX 271256Z 26008KT 10SM CLR 17/15 A3018 RMK AO2 SLP223 T01720150
0174720407004622023102713567+39928-074292FM-15+0025KMJX V0202505N003652200059N0160935N5+02065+01565102225ADDGA1005+999999999GD10991+9999999GF100991999999999999999999MA1102205101905REMMET09010/27/23 08:56:02 METAR KMJX 271356Z 25007KT 10SM CLR 21/16 A3018 RMK AO2 SLP222 T02060156
0194720407004622023102714567+39928-074292FM-15+0025KMJX V0202405N002152200059N0160935N5+02065+01565102155ADDGA1005+999999999GD10991+9999999GF100991999999999999999999MA1102135101835MD1890039+9999REMMET09610/27/23 09:56:02 METAR KMJX 271456Z 24004KT 10SM CLR 21/16 A3016 RMK AO2 SLP215 T02060156 58003
0174720407004622023102715567+39928-074292FM-15+0025KMJX V0202305N003152200059N0160935N5+02225+01565102115ADDGA1005+999999999GD10991+9999999GF100991999999999999999999MA1102075101765REMMET09010/27/23 10:56:02 METAR KMJX 271556Z 23006KT 10SM CLR 22/16 A3014 RMK AO2 SLP211 T02220156
0174720407004622023102716567+39928-074292FM-15+0025KMJX V0202905N003152200059N0160935N5+02395+01565102055ADDGA1005+999999999GD10991+9999999GF100991999999999999999999MA1102035101735REMMET09010/27/23 11:56:01 METAR KMJX 271656Z 29006KT 10SM CLR 24/16 A3013 RMK AO2 SLP205 T02390156
0232720407004622023102717567+39928-074292FM-15+0025KMJX V0202805N003652200059N0160935N5+02445+01615101995ADDGA1005+999999999GD10991+9999999GF100991999999999999999999KA1060M+02441KA2060N+01561MA1101965101665MD1890169+9999REMMET10810/27/23 12:56:02 METAR KMJX 271756Z 28007KT 10SM CLR 24/16 A3011 RMK AO2 SLP199 T02440161 10244 20156 58016
0174720407004622023102718567+39928-074292FM-15+0025KMJX V0202905N002152200059N0160935N5+02285+01505101935ADDGA1005+999999999GD10991+9999999GF100991999999999999999999MA1101905101595REMMET09010/27/23 13:56:02 METAR KMJX 271856Z 29004KT 10SM CLR 23/15 A3009 RMK AO2 SLP193 T02280150
0174720407004622023102719567+39928-074292FM-15+0025KMJX V0202305N002652200059N0160935N5+02285+01445101885ADDGA1005+999999999GD10991+9999999GF100991999999999999999999MA1101865101565REMMET09010/27/23 14:56:02 METAR KMJX 271956Z 23005KT 10SM CLR 23/14 A3008 RMK AO2 SLP188 T02280144
0194720407004622023102720567+39928-074292FM-15+0025KMJX V0201905N001552200059N0160935N5+02225+01615101875ADDGA1005+999999999GD10991+9999999GF100991999999999999999999MA1101835101535MD1690129+9999REMMET09610/27/23 15:56:02 METAR KMJX 272056Z 19003KT 10SM CLR 22/16 A3007 RMK AO2 SLP187 T02220161 56012
0174720407004622023102721567+39928-074292FM-15+0025KMJX V0202205N001552200059N0160935N5+01945+01675101875ADDGA1005+999999999GD10991+9999999GF100991999999999999999999MA1101835101535REMMET09010/27/23 16:56:02 METAR KMJX 272156Z 22003KT 10SM CLR 19/17 A3007 RMK AO2 SLP187 T01940167
0174720407004622023102722567+39928-074292FM-15+0025KMJX V0202005N001552200059N0160935N5+01675+01505101895ADDGA1005+999999999GD10991+9999999GF100991999999999999999999MA1101865101565REMMET09010/27/23 17:56:02 METAR KMJX 272256Z 20003KT 10SM CLR 17/15 A3008 RMK AO2 SLP189 T01670150
0232720407004622023102723567+39928-074292FM-15+0025KMJX V0202105N002152200059N0160935N5+01725+01565101895ADDGA1005+999999999GD10991+9999999GF100991999999999999999999KA1060M+02441KA2060N+01611MA1101865101565MD1090029+9999REMMET10810/27/23 18:56:02 METAR KMJX 272356Z 21004KT 10SM CLR 17/16 A3008 RMK AO2 SLP189 T01720156 10244 20161 50002
0174720407004622023102800567+39928-074292FM-15+0025KMJX V0202605N002152200059N0160935N5+01615+01505101895ADDGA1005+999999999GD10991+9999999GF100991999999999999999999MA1101865101565REMMET09010/27/23 19:56:01 METAR KMJX 280056Z 26004KT 10SM CLR 16/15 A3008 RMK AO2 SLP189 T01610150
0174720407004622023102801567+39928-074292FM-15+0025KMJX V0202105N001552200059N0160935N5+01505+01445101885ADDGA1005+999999999GD10991+9999999GF100991999999999999999999MA1101865101565REMMET09010/27/23 20:56:01 METAR KMJX 280156Z 21003KT 10SM CLR 15/14 A3008 RMK AO2 SLP188 T01500144
0194720407004622023102802567+39928-074292FM-15+0025KMJX V0202205N002152200059N0160935N5+01445+01335101875ADDGA1005+999999999GD10991+9999999GF100991999999999999999999MA1101835101535MD1890029+9999REMMET09610/27/23 21:56:02 METAR KMJX 280256Z 22004KT 10SM CLR 14/13 A3007 RMK AO2 SLP187 T01440133 58002
0174720407004622023102803567+39928-074292FM-15+0025KMJX V0202505N002652200059N0160935N5+01565+01445101835ADDGA1005+999999999GD10991+9999999GF100991999999999999999999MA1101795101495REMMET09010/27/23 22:56:02 METAR KMJX 280356Z 25005KT 10SM CLR 16/14 A3006 RMK AO2 SLP183 T01560144
0210720407004622023102804567+39928-074292FM-15+0025KMJX V0202405N002152200059N0160935N5+01565+01445101815ADDGA1005+999999999GD10991+9999999GF100991999999999999999999KA1240M+02441KA2240N+00941MA1101765101465REMMET10010/27/23 23:56:02 METAR KMJX 280456Z 24004KT 10SM CLR 16/14 A3005 RMK AO2 SLP181 T01560144 402440094
0276720407004622023102805567+39928-074292FM-15+0025KMJX V0202205N002152200059N0160935N5+01505+01445101775ADDGA1045+025915999GD12991+0259159GE19AGL   +99999+99999GF104995999999025911999999KA1060M+01721KA2060N+01391MA1101765101465MD1690099+9999REMMET11110/28/23 00:56:02 METAR KMJX 280556Z 22004KT 10SM SCT085 15/14 A3005 RMK AO2 SLP177 T01500144 10172 20139 56009EQDD01      0ADE726
0237720407004622023102806567+39928-074292FM-15+0025KMJX V0202305N00215025915MN0160935N5+01615+01505101735ADDGA1025+019815999GA2085+025915999GD11991+0198159GD24991+0259159GE19AGL   +99999+99999GF199999999999019811999999MA1101695101395REMMET10010/28/23 01:56:02 METAR KMJX 280656Z 23004KT 10SM FEW065 OVC085 16/15 A3003 RMK AO2 SLP173 T01610150
0199720407004622023102807567+39928-074292FM-15+0025KMJX V0202405N00315021345MN0160935N5+01675+01505101705ADDGA1075+021345999GD13991+0213459GE19AGL   +99999+99999GF199999999999021341999999MA1101665101365REMMET09310/28/23 02:56:02 METAR KMJX 280756Z 24006KT 10SM BKN070 17/15 A3002 RMK AO2 SLP170 T01670150
0174720407004622023102809567+39928-074292FM-15+0025KMJX V0202605N003152200059N0160935N5+01675+01505101735ADDGA1005+999999999GD10991+9999999GF100991999999999999999999MA1101695101395REMMET09010/28/23 04:56:02 METAR KMJX 280956Z 26006KT 10SM CLR 17/15 A3003 RMK AO2 SLP173 T01670150
0174720407004622023102810567+39928-074292FM-15+0025KMJX V0202605N002652200059N0160935N5+01615+01445101775ADDGA1005+999999999GD10991+9999999GF100991999999999999999999MA1101735101435REMMET09010/28/23 05:56:02 METAR KMJX 281056Z 26005KT 10SM CLR 16/14 A3004 RMK AO2 SLP177 T01610144
0148720407004622023102812567+39928-074292FM-15+0025KMJX V0202705N003159999999N0160935N5+02005+01565101845ADDMA1101835101535REMMET08610/28/23 07:56:02 METAR KMJX 281256Z 27006KT 10SM 20/16 A3007 RMK AO2 SLP184 T02000156EQDR01      7SKY009R02      7GAS009
0174720407004622023102813567+39928-074292FM-15+0025KMJX V0202905N005152200059N0160935N5+02335+01615101825ADDGA1005+999999999GD10991+9999999GF100991999999999999999999MA1101795101495REMMET09010/28/23 08:56:02 METAR KMJX 281356Z 29010KT 10SM CLR 23/16 A3006 RMK AO2 SLP182 T02330161
0194720407004622023102814567+39928-074292FM-15+0025KMJX V0203005N006752200059N0160935N5+02445+01675101815ADDGA1005+999999999GD10991+9999999GF100991999999999999999999MA1101765101465MD1090009+9999REMMET09610/28/23 09:56:02 METAR KMJX 281456Z 30013KT 10SM CLR 24/17 A3005 RMK AO2 SLP181 T02440167 50000
0174720407004622023102815567+39928-074292FM-15+0025KMJX V0202805N006752200059N0160935N5+02615+01675101785ADDGA1005+999999999GD10991+9999999GF100991999999999999999999MA1101765101465REMMET09010/28/23 10:56:02 METAR KMJX 281556Z 28013KT 10SM CLR 26/17 A3005 RMK AO2 SLP178 T02610167
0174720407004622023102816567+39928-074292FM-15+0025KMJX V0203105N004652200059N0160935N5+02615+01615101735ADDGA1005+999999999GD10991+9999999GF100991999999999999999999MA1101695101395REMMET09010/28/23 11:56:02 METAR KMJX 281656Z 31009KT 10SM CLR 26/16 A3003 RMK AO2 SLP173 T02610161
0232720407004622023102817567+39928-074292FM-15+0025KMJX V0202905N004652200059N0160935N5+02725+01615101665ADDGA1005+999999999GD10991+9999999GF100991999999999999999999KA1060M+02721KA2060N+01671MA1101635101325MD1890159+9999REMMET10810/28/23 12:56:02 METAR KMJX 281756Z 29009KT 10SM CLR 27/16 A3001 RMK AO2 SLP166 T02720161 10272 20167 58015
0185720407004622023102818567+39928-074292FM-15+0025KMJX V0202605N005752200059N0160935N5+02835+01565101605ADDGA1005+999999999GD10991+9999999GF100991999999999999999999MA1101565101265OC100885REMMET09310/28/23 13:56:02 METAR KMJX 281856Z 26011G17KT 10SM CLR 28/16 A2999 RMK AO2 SLP160 T02830156
0174720407004622023102819567+39928-074292FM-15+0025KMJX V0202905N005152200059N0160935N5+02785+01675101625ADDGA1005+999999999GD10991+9999999GF100991999999999999999999MA1101595101295REMMET09010/28/23 14:56:02 METAR KMJX 281956Z 29010KT 10SM CLR 28/17 A3000 RMK AO2 SLP162 T02780167
0205720407004622023102820567+39928-074292FM-15+0025KMJX V0202805N005152200059N0160935N5+02675+01615101675ADDGA1005+999999999GD10991+9999999GF100991999999999999999999MA1101665101365MD1390029+9999OC100725REMMET09910/28/23 15:56:02 METAR KMJX 282056Z 28010G14KT 10SM CLR 27/16 A3002 RMK AO2 SLP167 T02670161 53002
0174720407004622023102821567+39928-074292FM-15+0025KMJX V0202605N002152200059N0160935N5+02445+01675101705ADDGA1005+999999999GD10991+9999999GF100991999999999999999999MA1101695101395REMMET09010/28/23 16:56:02 METAR KMJX 282156Z 26004KT 10SM CLR 24/17 A3003 RMK AO2 SLP170 T02440167
0174720407004622023102822567+39928-074292FM-15+0025KMJX V0202205N002152200059N0160935N5+02115+01675101775ADDGA1005+999999999GD10991+9999999GF100991999999999999999999MA1101735101435REMMET09010/28/23 17:56:02 METAR KMJX 282256Z 22004KT 10SM CLR 21/17 A3004 RMK AO2 SLP177 T02110167
0174720407004622023102900567+39928-074292FM-15+0025KMJX V0202805N001552200059N0160935N5+01785+01565101835ADDGA1005+999999999GD10991+9999999GF100991999999999999999999MA1101795101495REMMET09010/28/23 19:56:01 METAR KMJX 290056Z 28003KT 10SM CLR 18/16 A3006 RMK AO2 SLP183 T01780156
0174720407004622023102901567+39928-074292FM-15+0025KMJX V0209999C000052200059N0160935N5+01675+01505101855ADDGA1005+999999999GD10991+9999999GF100991999999999999999999MA1101835101535REMMET09010/28/23 20:56:01 METAR KMJX 290156Z 00000KT 10SM CLR 17/15 A3007 RMK AO2 SLP185 T01670150
0237720407004622023102906567+39928-074292FM-15+0025KMJX V0200205N00155016765MN0160935N5+01725+01335101935ADDGA1075+016765999GA2085+033535999GD13991+0167659GD24991+0335359GE19AGL   +99999+99999GF199999999999016761999999MA1101905101595REMMET10010/29/23 01:56:02 METAR KMJX 290656Z 02003KT 10SM BKN055 OVC110 17/13 A3009 RMK AO2 SLP193 T01720133
0199720407004622023102907567+39928-074292FM-15+0025KMJX V0209999C00005015245MN0160935N5+01615+01065101935ADDGA1085+015245999GD14991+0152459GE19AGL   +99999+99999GF199999999999015241999999MA1101905101595REMMET09310/29/23 02:56:02 METAR KMJX 290756Z 00000KT 10SM OVC050 16/11 A3009 RMK AO2 SLP193 T01610106
0238720407004622023102908567+39928-074292FM-15+0025KMJX V0200505N001552200059N0160935N5+01445+01005101965ADDGA1045+033535999GD12991+0335359GE19AGL   +99999+99999GF104995999999033531999999MA1101935101635MD1390029+9999REMMET09910/29/23 03:56:02 METAR KMJX 290856Z 05003KT 10SM SCT110 14/10 A3010 RMK AO2 SLP196 T01440100 53002EQDD01      0ADE726
0218720407004622023102909567+39928-074292FM-15+0025KMJX V0200705N002152200059N0160935N5+01505+01065101975ADDGA1045+018295999GD12991+0182959GE19AGL   +99999+99999GF104995999999018291999999MA1101935101635REMMET09310/29/23 04:56:02 METAR KMJX 290956Z 07004KT 10SM SCT060 15/11 A3010 RMK AO2 SLP197 T01500106EQDD01      0ADE726
0218720407004622023102910567+39928-074292FM-15+0025KMJX V0209999V002152200059N0160935N5+01565+01005101995ADDGA1045+033535999GD12991+0335359GE19AGL   +99999+99999GF104995999999033531999999MA1101965101665REMMET09310/29/23 05:56:02 METAR KMJX 291056Z VRB04KT 10SM SCT110 16/10 A3011 RMK AO2 SLP199 T01560100EQDD01      0ADE726
0257720407004622023102911567+39928-074292FM-15+0025KMJX V0200705N00315019815MN0160935N5+01565+00835101975ADDGA1075+019815999GD13991+0198159GE19AGL   +99999+99999GF199999999999019811999999KA1060M+01781KA2060N+01441MA1101935101635MD1090009+9999REMMET11110/29/23 06:56:02 METAR KMJX 291156Z 07006KT 10SM BKN065 16/08 A3010 RMK AO2 SLP197 T01560083 10178 20144 50000
0174720407004622023102912567+39928-074292FM-15+0025KMJX V0200705N002652200059N0160935N5+01565+00945102005ADDGA1005+999999999GD10991+9999999GF100991999999999999999999MA1101965101665REMMET09010/29/23 07:56:02 METAR KMJX 291256Z 07005KT 10SM CLR 16/09 A3011 RMK AO2 SLP200 T01560094
0268720407004622023102913567+39928-074292FM-15+0025KMJX V0200705N002652200059N0160935N5+01565+01115101975ADDAA101000021AU110020015AW1615GA1025+033535999GD11991+0335359GE19AGL   +99999+99999GF102995999999033531999999MA1101935101635MW1615REMMET10910/29/23 08:56:02 METAR KMJX 291356Z 07005KT 10SM -RA FEW110 16/11 A3010 RMK AO2 RAB11 SLP197 P0000 T01560111EQDD01      0ADE726
0174720407004622023102915567+39928-074292FM-15+0025KMJX V0200605V003652200059N0160935N5+01785+01225101905ADDGA1005+999999999GD10991+9999999GF100991999999999999999999MA1101865101565REMMET09010/29/23 10:56:02 METAR KMJX 291556Z 06007KT 10SM CLR 18/12 A3008 RMK AO2 SLP190 T01780122
0174720407004622023102916567+39928-074292FM-15+0025KMJX V0200605N004652200059N0160935N5+01785+01285101855ADDGA1005+999999999GD10991+9999999GF100991999999999999999999MA1101835101535REMMET09010/29/23 11:56:02 METAR KMJX 291656Z 06009KT 10SM CLR 18/13 A3007 RMK AO2 SLP185 T01780128
0231720407004622023102917537+39928-074292FM-15+0025KMJX V0200705N00575008235MN0160935N5+01805+01305999999ADDGA1045+006405999GA2075+008235999GD12991+0064059GD23991+0082359GE19AGL   +99999+99999GF199999999999006401999999MA1101765101465OC100725REMMET08610/29/23 12:53:02 METAR KMJX 291753Z 07011G14KT 10SM SCT021 BKN027 18/13 A3005 RMK AO2
0342720407004622023102917567+39928-074292FM-15+0025KMJX V0200605N00515007625MN0160935N5+01785+01285101785ADDAA106000021GA1045+006405999GA2075+007625999GD12991+0064059GD23991+0076259GE19AGL   +99999+99999GF199999999999006401999999KA1060M+01831KA2060N+01561MA1101765101465MD1690139+9999OC100725REMMET12710/29/23 12:56:02 METAR KMJX 291756Z 06010G14KT 10SM SCT021 BKN025 18/13 A3005 RMK AO2 SLP178 60000 T01780128 10183 20156 56013EQDQ01  00008PRCP06
0201720407004622023102918037+39928-074292FM-15+0025KMJX V0200405N006752200059N0160935N5+01805+01305999999ADDGA1045+005795999GD12991+0057959GE19AGL   +99999+99999GF104995999999005791999999MA1101735101435REMMET07610/29/23 13:03:02 METAR KMJX 291803Z 04013KT 10SM SCT019 18/13 A3004 RMK AO2EQDD01      0ADE726
0182720407004622023102918137+39928-074292FM-15+0025KMJX V0200505N00465005795MN0160935N5+01705+01305999999ADDGA1075+005795999GD13991+0057959GE19AGL   +99999+99999GF199999999999005791999999MA1101735101435REMMET07610/29/23 13:13:02 METAR KMJX 291813Z 05009KT 10SM BKN019 17/13 A3004 RMK AO2
0199720407004622023102918567+39928-074292FM-15+0025KMJX V0200605N00575005185MN0160935N5+01615+01225101715ADDGA1085+005185999GD14991+0051859GE19AGL   +99999+99999GF199999999999005181999999MA1101695101395REMMET09310/29/23 13:56:02 METAR KMJX 291856Z 06011KT 10SM OVC017 16/12 A3003 RMK AO2 SLP171 T01610122
0237720407004622023102919567+39928-074292FM-15+0025KMJX V0200705N00465005185MN0160935N5+01675+01285101675ADDGA1075+005185999GA2085+028965999GD13991+0051859GD24991+0289659GE19AGL   +99999+99999GF199999999999005181999999MA1101635101325REMMET10010/29/23 14:56:02 METAR KMJX 291956Z 07009KT 10SM BKN017 OVC095 17/13 A3001 RMK AO2 SLP167 T01670128
0257720407004622023102920567+39928-074292FM-15+0025KMJX V0200605N00315003965MN0160935N5+01615+01335101665ADDGA1075+003965999GA2085+033535999GD13991+0039659GD24991+0335359GE19AGL   +99999+99999GF199999999999003961999999MA1101635101325MD1690119+9999REMMET10610/29/23 15:56:02 METAR KMJX 292056Z 06006KT 10SM BKN013 OVC110 16/13 A3001 RMK AO2 SLP166 T01610133 56011
0199720407004622023102921567+39928-074292FM-15+0025KMJX V0200705N00315003355MN0160935N5+01565+01335101655ADDGA1085+003355999GD14991+0033559GE19AGL   +99999+99999GF199999999999003351999999MA1101635101325REMMET09310/29/23 16:56:02 METAR KMJX 292156Z 07006KT 10SM OVC011 16/13 A3001 RMK AO2 SLP165 T01560133
0199720407004622023102922567+39928-074292FM-15+0025KMJX V0200505N00265003355MN0160935N5+01565+01395101685ADDGA1085+003355999GD14991+0033559GE19AGL   +99999+99999GF199999999999003351999999MA1101665101365REMMET09310/29/23 17:56:02 METAR KMJX 292256Z 05005KT 10SM OVC011 16/14 A3002 RMK AO2 SLP168 T01560139
0257720407004622023102923567+39928-074292FM-15+0025KMJX V0200605N00365002745MN0160935N5+01565+01445101665ADDGA1085+002745999GD14991+0027459GE19AGL   +99999+99999GF199999999999002741999999KA1060M+01781KA2060N+01501MA1101635101325MD1890019+9999REMMET11110/29/23 18:56:02 METAR KMJX 292356Z 06007KT 10SM OVC009 16/14 A3001 RMK AO2 SLP166 T01560144 10178 20150 58001
0199720407004622023103000567+39928-074292FM-15+0025KMJX V0200705N00315002135MN0160935N5+01615+01505101665ADDGA1085+002135999GD14991+0021359GE19AGL   +99999+99999GF199999999999002131999999MA1101635101325REMMET09310/29/23 19:56:01 METAR KMJX 300056Z 07006KT 10SM OVC007 16/15 A3001 RMK AO2 SLP166 T01610150
0198720407004622023103001567+39928-074292FM-15+0025KMJX V0200705N00265002135MN0128755N5+01615+01505101605ADDGA1085+002135999GD14991+0021359GE19AGL   +99999+99999GF199999999999002131999999MA1101565101265REMMET09210/29/23 20:56:01 METAR KMJX 300156Z 07005KT 8SM OVC007 16/15 A2999 RMK AO2 SLP160 T01610150
0218720407004622023103002567+39928-074292FM-15+0025KMJX V0200505N00265002135MN0128755N5+01565+01505101565ADDGA1085+002135999GD14991+0021359GE19AGL   +99999+99999GF199999999999002131999999MA1101525101225MD1890099+9999REMMET09810/29/23 21:56:02 METAR KMJX 300256Z 05005KT 8SM OVC007 16/15 A2998 RMK AO2 SLP156 T01560150 58009
0198720407004622023103003567+39928-074292FM-15+0025KMJX V0203605N00215002135MN0128755N5+01565+01505101525ADDGA1085+002135999GD14991+0021359GE19AGL   +99999+99999GF199999999999002131999999MA1101495101195REMMET09210/29/23 22:56:02 METAR KMJX 300356Z 36004KT 8SM OVC007 16/15 A2997 RMK AO2 SLP152 T01560150
0254720407004622023103004567+39928-074292FM-15+0025KMJX V0203405N00265001525MN0080475N5+01505+01395101485ADDAU100001015AW1105GA1085+001525999GD14991+0015259GE19AGL   +99999+99999GF199999999999001521999999KA1240M+01831KA2240N+01441MA1101465101165REMMET10510/29/23 23:56:02 METAR KMJX 300456Z 34005KT 5SM BR OVC005 15/14 A2996 RMK AO2 SLP148 T01500139 401830144
002772040700462202310300459O+39928-074292SOD  +0025KMJX V020999999999999999999999999999+99999+99999999999ADDAT1AU16RA  5AT2AU13BR  5
0205720407004622023103005137+39928-074292FM-15+0025KMJX V0203505N00265000915MN0040235N5+01405+01405999999ADDAU100001015AW1105GA1085+000915999GD14991+0009159GE19AGL   +99999+99999GF199999999999000911999999MA1101425101125REMMET08210/30/23 00:13:02 METAR KMJX 300513Z 35005KT 2 1/2SM BR OVC003 14/14 A2995 RMK AO2
0296720407004622023103005567+39928-074292FM-15+0025KMJX V0203505N00265000915MN0028165V5+01395+01395101435ADDAU100001015AW1105GA1085+000915999GD14991+0009159GE19AGL   +99999+99999GF199999999999000911999999KA1060M+01611KA2060N+01391MA1101395101095MD1890139+9999REMMET13310/30/23 00:56:02 METAR KMJX 300556Z 35005KT 1 3/4SM BR OVC003 14/14 A2994 RMK AO2 VIS 1 1/4V2 1/2 SLP143 T01390139 10161 20139 58013
0201720407004622023103006197+39928-074292FM-15+0025KMJX V0200105N00215000915MN0016095N5+01405+01405999999ADDAU100001015AW1105GA1085+000915999GD14991+0009159GE19AGL   +99999+99999GF199999999999000911999999MA1101355101055REMMET07810/30/23 01:19:02 METAR KMJX 300619Z 01004KT 1SM BR OVC003 14/14 A2993 RMK AO2
0255720407004622023103006347+39928-074292FM-15+0025KMJX V0200205N00465000915MN0020125N5+01405+01405999999ADDAA101000021AU110020015AU200001015AW1105AW2615GA1085+000915999GD14991+0009159GE19AGL   +99999+99999GF199999999999000911999999MA1101295100995MW1615REMMET09810/30/23 01:34:02 METAR KMJX 300634Z 02009KT 1 1/4SM -RA BR OVC003 14/14 A2991 RMK AO2 RAB21 P0000
0251720407004622023103006477+39928-074292FM-15+0025KMJX V0209999V00155000915MN0016095N5+01405+01405999999ADDAA101000021AU110020015AU200001015AW1105AW2615GA1085+000915999GD14991+0009159GE19AGL   +99999+99999GF199999999999000911999999MA1101295100995MW1615REMMET09410/30/23 01:47:02 METAR KMJX 300647Z VRB03KT 1SM -RA BR OVC003 14/14 A2991 RMK AO2 RAB21 P0000
0246720407004622023103006567+39928-074292FM-15+0025KMJX V0209999C00005000915MN0012075N5+01395+01395101325ADDAA101000021AU100001015AW1105GA1085+000915999GD14991+0009159GE19AGL   +99999+99999GF199999999999000911999999MA1101295100995REMMET11210/30/23 01:56:02 METAR KMJX 300656Z 00000KT 3/4SM BR OVC003 14/14 A2991 RMK AO2 RAB21E50 SLP132 P0000 T01390139
0220720407004622023103007567+39928-074292FM-15+0025KMJX V0203305N00215000915MN0008055N5+01395+01395101245ADDAU100002015AW1305GA1085+000915999GD14991+0009159GE19AGL   +99999+99999GF199999999999000911999999MA1101225100925REMMET09710/30/23 02:56:02 METAR KMJX 300756Z 33004KT 1/2SM FG OVC003 14/14 A2989 RMK AO2 SLP124 T01390139
0276720407004622023103008567+39928-074292FM-15+0025KMJX V0209999C00005000915MN0008055N5+01395+01395101145ADDAA103000021AU100002015AW1305GA1085+000915999GD14991+0009159GE19AGL   +99999+99999GF199999999999000911999999MA1101125100825MD1690299+9999REMMET10910/30/23 03:56:02 METAR KMJX 300856Z 00000KT 1/2SM FG OVC003 14/14 A2986 RMK AO2 SLP114 60000 T01390139 56029EQDQ01  00008PRCP03
0220720407004622023103009567+39928-074292FM-15+0025KMJX V0203105N00155000915MN0008055N5+01395+01395101085ADDAU100002015AW1305GA1085+000915999GD14991+0009159GE19AGL   +99999+99999GF199999999999000911999999MA1101055100755REMMET09710/30/23 04:56:02 METAR KMJX 300956Z 31003KT 1/2SM FG OVC003 14/14 A2984 RMK AO2 SLP108 T01390139
0220720407004622023103010567+39928-074292FM-15+0025KMJX V0203305N00215000915MN0012075N5+01285+01285101045ADDAU100001015AW1105GA1085+000915999GD14991+0009159GE19AGL   +99999+99999GF199999999999000911999999MA1101025100725REMMET09710/30/23 05:56:02 METAR KMJX 301056Z 33004KT 3/4SM BR OVC003 13/13 A2983 RMK AO2 SLP104 T01280128
0203720407004622023103011077+39928-074292FM-15+0025KMJX V0203105N00215000915MN0008055N5+01305+01305999999ADDAU100002015AW1305GA1085+000915999GD14991+0009159GE19AGL   +99999+99999GF199999999999000911999999MA1101025100725REMMET08010/30/23 06:07:02 METAR KMJX 301107Z 31004KT 1/2SM FG OVC003 13/13 A2983 RMK AO2
0203720407004622023103011217+39928-074292FM-15+0025KMJX V0203205N00155000915MN0004025N5+01305+01305999999ADDAU100002015AW1305GA1085+000915999GD14991+0009159GE19AGL   +99999+99999GF199999999999000911999999MA1100985100685REMMET08010/30/23 06:21:02 METAR KMJX 301121Z 32003KT 1/4SM FG OVC003 13/13 A2982 RMK AO2
0314720407004622023103011567+39928-074292FM-15+0025KMJX V0209999C00005000915MN0004025N5+01285+01285101005ADDAA106000021AU100002015AW1305GA1085+000915999GD14991+0009159GE19AGL   +99999+99999GF199999999999000911999999KA1060M+01391KA2060N+01281MA1100985100685MD1690149+9999REMMET12110/30/23 06:56:02 METAR KMJX 301156Z 00000KT 1/4SM FG OVC003 13/13 A2982 RMK AO2 SLP100 60000 T01280128 10139 20128 56014EQDQ01  00008PRCP06
0203720407004622023103012407+39928-074292FM-15+0025KMJX V0209999C00005000915MN0008055N5+01305+01305999999ADDAU100002015AW1305GA1085+000915999GD14991+0009159GE19AGL   +99999+99999GF199999999999000911999999MA1100915100625REMMET08010/30/23 07:40:02 METAR KMJX 301240Z 00000KT 1/2SM FG OVC003 13/13 A2980 RMK AO2
0203720407004622023103012497+39928-074292FM-15+0025KMJX V0209999C00005000915MN0004025N5+01305+01305999999ADDAU100002015AW1305GA1085+000915999GD14991+0009159GE19AGL   +99999+99999GF199999999999000911999999MA1100915100625REMMET08010/30/23 07:49:02 METAR KMJX 301249Z 00000KT 1/4SM FG OVC003 13/13 A2980 RMK AO2
0220720407004622023103012567+39928-074292FM-15+0025KMJX V0209999C00005000915MN0004025N5+01395+01395100935ADDAU100002015AW1305GA1085+000915999GD14991+0009159GE19AGL   +99999+99999GF199999999999000911999999MA1100915100625REMMET09710/30/23 07:56:02 METAR KMJX 301256Z 00000KT 1/4SM FG OVC003 14/14 A2980 RMK AO2 SLP093 T01390139
0201720407004622023103013467+39928-074292FM-15+0025KMJX V0201905N00155000915MN0016095N5+01505+01505999999ADDAU100001015AW1105GA1085+000915999GD14991+0009159GE19AGL   +99999+99999GF199999999999000911999999MA1100855100555REMMET07810/30/23 08:46:02 METAR KMJX 301346Z 19003KT 1SM BR OVC003 15/15 A2978 RMK AO2
0213720407004622023103013537+39928-074292FM-15+0025KMJX V0201805N00265000915MN0032195V5+01505+01505999999ADDAU100001015AW1105GA1085+000915999GD14991+0009159GE19AGL   +99999+99999GF199999999999000911999999MA1100855100555REMMET09010/30/23 08:53:02 METAR KMJX 301353Z 18005KT 2SM BR OVC003 15/15 A2978 RMK AO2 VIS 1 1/4V4
0230720407004622023103013567+39928-074292FM-15+0025KMJX V0201805N00215000915MN0040235V5+01505+01505100875ADDAU100001015AW1105GA1085+000915999GD14991+0009159GE19AGL   +99999+99999GF199999999999000911999999MA1100855100555REMMET10710/30/23 08:56:02 METAR KMJX 301356Z 18004KT 2 1/2SM BR OVC003 15/15 A2978 RMK AO2 VIS 2V4 SLP087 T01500150
0201720407004622023103014157+39928-074292FM-15+0025KMJX V0202305N00155000915MN0080475N5+01605+01605999999ADDAU100001015AW1105GA1085+000915999GD14991+0009159GE19AGL   +99999+99999GF199999999999000911999999MA1100855100555REMMET07810/30/23 09:15:02 METAR KMJX 301415Z 23003KT 5SM BR OVC003 16/16 A2978 RMK AO2
0231720407004622023103014567+39928-074292FM-15+0025KMJX V0202105N00365001525MN0160935N5+01785+01785100795ADDGA1085+001525999GD14991+0015251GE19AGL   +99999+99999GF199999999999001521999999MA1100785100485MD1590149+9999REMMET11110/30/23 09:56:02 METAR KMJX 301456Z 21007KT 10SM OVC005 18/18 A2976 RMK AO2 CIG 003V008 SLP079 T01780178 55014
0194720407004622023103015067+39928-074292FM-15+0025KMJX V0202305N00315002135MN0160935N5+01805+01705999999ADDGA1075+002135999GD13991+0021351GE19AGL   +99999+99999GF199999999999002131999999MA1100755100455REMMET08810/30/23 10:06:02 METAR KMJX 301506Z 23006KT 10SM BKN007 18/17 A2975 RMK AO2 CIG 004V009
0232720407004622023103015207+39928-074292FM-15+0025KMJX V0202205N00265003355MN0160935N5+01805+01705999999ADDGA1075+003355999GA2075+022865999GD13991+0033551GD23991+0228659GE19AGL   +99999+99999GF199999999999003351999999MA1100755100455REMMET09510/30/23 10:20:02 METAR KMJX 301520Z 22005KT 10SM BKN011 BKN075 18/17 A2975 RMK AO2 CIG 006V013
0220720407004622023103015307+39928-074292FM-15+0025KMJX V0202305N00365022865MN0160935N5+01905+01705999999ADDGA1025+003355999GA2075+022865999GD11991+0033559GD23991+0228659GE19AGL   +99999+99999GF199999999999003351999999MA1100755100455REMMET08310/30/23 10:30:02 METAR KMJX 301530Z 23007KT 10SM FEW011 BKN075 19/17 A2975 RMK AO2
0218720407004622023103015567+39928-074292FM-15+0025KMJX V0202505N004152200059N0160935N5+02065+01725100705ADDGA1025+022865999GD11991+0228659GE19AGL   +99999+99999GF102995999999022861999999MA1100685100385REMMET09310/30/23 10:56:02 METAR KMJX 301556Z 25008KT 10SM FEW075 21/17 A2973 RMK AO2 SLP070 T02060172EQDD01      0ADE726
0174720407004622023103016567+39928-074292FM-15+0025KMJX V0202005N004652200059N0160935N5+02445+01725100595ADDGA1005+999999999GD10991+9999999GF100991999999999999999999MA1100585100285REMMET09010/30/23 11:56:02 METAR KMJX 301656Z 20009KT 10SM CLR 24/17 A2970 RMK AO2 SLP059 T02440172
0248720407004622023103019567+39928-074292FM-15+0025KMJX V0202905N00885027435MN0160935N5+02005+01505100655ADDGA1025+006105999GA2075+027435999GD11991+0061059GD23991+0274359GE19AGL   +99999+99999GF199999999999006101999999MA1100615100315OC101035REMMET10310/30/23 14:56:02 METAR KMJX 301956Z 29017G20KT 10SM FEW020 BKN090 20/15 A2971 RMK AO2 SLP065 T02000150
0231720407004622023103020327+39928-074292FM-15+0025KMJX V0203005N00675008845MN0160935N5+01805+01405999999ADDGA1075+008845999GA2085+021345999GD13991+0088459GD24991+0213459GE19AGL   +99999+99999GF199999999999008841999999MA1100685100385OC100885REMMET08610/30/23 15:32:02 METAR KMJX 302032Z 30013G17KT 10SM BKN029 OVC070 18/14 A2973 RMK AO2
0258720407004622023103020517+39928-074292FM-15+0025KMJX V0203105N00675010975MN0160935N5+01805+01305999999ADDGA1045+008845999GA2075+010975999GA3085+021345999GD12991+0088459GD23991+0109759GD34991+0213459GE19AGL   +99999+99999GF199999999999008841999999MA1100715100415REMMET09010/30/23 15:51:02 METAR KMJX 302051Z 31013KT 10SM SCT029 BKN036 OVC070 18/13 A2974 RMK AO2
0295720407004622023103020567+39928-074292FM-15+0025KMJX V0203105N00575010975MN0160935N5+01785+01335100755ADDGA1025+008845999GA2075+010975999GA3085+021345999GD11991+0088459GD23991+0109759GD34991+0213459GE19AGL   +99999+99999GF199999999999008841999999MA1100715100415MD1190209+9999REMMET11310/30/23 15:56:02 METAR KMJX 302056Z 31011KT 10SM FEW029 BKN036 OVC070 18/13 A2974 RMK AO2 SLP075 T01780133 51020
0231720407004622023103021367+39928-074292FM-15+0025KMJX V0203105N00675006405MN0160935N5+01705+01205999999ADDGA1075+006405999GA2085+014025999GD13991+0064059GD24991+0140259GE19AGL   +99999+99999GF199999999999006401999999MA1100815100515OC100985REMMET08610/30/23 16:36:02 METAR KMJX 302136Z 31013G19KT 10SM BKN021 OVC046 17/12 A2977 RMK AO2
0231720407004622023103021457+39928-074292FM-15+0025KMJX V0203105N00625015245MN0160935N5+01705+01205999999ADDGA1045+006405999GA2085+015245999GD12991+0064059GD24991+0152459GE19AGL   +99999+99999GF199999999999006401999999MA1100855100555OC100935REMMET08610/30/23 16:45:02 METAR KMJX 302145Z 31012G18KT 10SM SCT021 OVC050 17/12 A2978 RMK AO2
0231720407004622023103021527+39928-074292FM-15+0025KMJX V0203205N00675007015MN0160935N5+01605+01205999999ADDGA1075+007015999GA2085+015245999GD13991+0070159GD24991+0152459GE19AGL   +99999+99999GF199999999999007011999999MA1100855100555OC101135REMMET08610/30/23 16:52:02 METAR KMJX 302152Z 32013G22KT 10SM BKN023 OVC050 16/12 A2978 RMK AO2
0248720407004622023103021567+39928-074292FM-15+0025KMJX V0203105N00625007015MN0160935N5+01615+01175100905ADDGA1075+007015999GA2085+015245999GD13991+0070159GD24991+0152459GE19AGL   +99999+99999GF199999999999007011999999MA1100885100585OC101085REMMET10310/30/23 16:56:02 METAR KMJX 302156Z 31012G21KT 10SM BKN023 OVC050 16/12 A2979 RMK AO2 SLP090 T01610117
0259720407004622023103022564+39933-074300FM-15+002599999V0203101N006210064019N016093199+01501+01111101081ADDAA101000021AW1611GD13991+0064019GD23991+0079219GD34991+0167619GE19AGL   +99999+99999GF199999999999006401999999MA1101051999999OC101181REMMET114METAR KMJX 302256Z AUTO 31012G23KT 10SM -RA BKN021 BKN026 OVC055 15/11 A2984 RMK AO2 RAB50 SLP108 P0000 T01500111=
0225720407004622023103023084+39933-074300FM-16+002599999V0203201N003610182919N016093199+01401+01101999999ADDAA101000021AW1611GD11991+0070119GD22991+0091419GD34991+0182919GE19AGL   +99999+99999GF199999999999007011999999MA1101021999999REMMET088SPECI KMJX 302308Z AUTO 32007KT 10SM -RA FEW023 SCT030 OVC060 14/11 A2983 RMK AO2 P0000=
0310720407004622023103023564+39933-074300FM-15+002599999V0203301N007210182919N016093199+01281+00891101241ADDAA101000021AA206000021AW1611GD14991+0182919GE19AGL   +99999+99999GF199999999999018291999999KA1060M+02671KA2060N+01281MA1101221999999MD1310361+9999OC101031REMMET125METAR KMJX 302356Z AUTO 33014G20KT 10SM -RA OVC060 13/09 A2989 RMK AO2 PRESRR SLP124 P0000 60000 T01280089 10267 20128 53036=EQDQ01  00008PRCP06
0243720407004622023103101567+39928-074292FM-15+0025KMJX V0203305N00265021345MN0160935N5+01065+00945101395ADDAA101000395AU110020015AW1615GA1085+021345999GD14991+0213459GE19AGL   +99999+99999GF199999999999021341999999MA1101355101055MW1615REMMET10310/30/23 20:56:01 METAR KMJX 310156Z 33005KT 10SM -RA OVC070 11/09 A2993 RMK AO2 SLP139 P0001 T01060094
0278720407004622023103102567+39928-074292FM-15+0025KMJX V0203105N00515022865MN0160935N5+01005+00725101535ADDAA101000021AA203001091GA1085+022865999GD14991+0228659GE19AGL   +99999+99999GF199999999999022861999999MA1101495101195MD1390299+9999REMMET11710/30/23 21:56:02 METAR KMJX 310256Z 31010KT 10SM OVC075 10/07 A2997 RMK AO2 RAE04 SLP153 P0000 60004 T01000072 53029EQDQ01  00108PRCP03
0237720407004622023103103567+39928-074292FM-15+0025KMJX V0203205N00265025915MN0160935N5+00945+00615101595ADDGA1075+025915999GA2075+036585999GD13991+0259159GD23991+0365859GE19AGL   +99999+99999GF199999999999025911999999MA1101565101265REMMET10010/30/23 22:56:02 METAR KMJX 310356Z 32005KT 10SM BKN085 BKN120 09/06 A2999 RMK AO2 SLP159 T00940061
0235720407004622023103104567+39928-074292FM-15+0025KMJX V0203205N00265033535MN0160935N5+00945+00565101645ADDGA1085+033535999GD14991+0335359GE19AGL   +99999+99999GF199999999999033531999999KA1240M+02671KA2240N+00941MA1101635101325REMMET10310/30/23 23:56:02 METAR KMJX 310456Z 32005KT 10SM OVC110 09/06 A3001 RMK AO2 SLP164 T00940056 402670094
003972040700462202310310459O+39928-074292SOD  +0025KMJX V020999999999999999999999999999+99999+99999999999ADDAT1AU16RA  5AT2AU01FG  5AT3AU13BR  5
0225720407004622023103106567+39928-074292FM-15+0025KMJX V0203005N00215033535MN0160935N5+00895+00505101735ADDAA101000021GA1085+033535999GD14991+0335359GE19AGL   +99999+99999GF199999999999033531999999MA1101695101395REMMET10810/31/23 01:56:02 METAR KMJX 310656Z 30004KT 10SM OVC110 09/05 A3003 RMK AO2 RAB16E33 SLP173 P0000 T00890050
0199720407004622023103107567+39928-074292FM-15+0025KMJX V0203205N00265033535MN0160935N5+00895+00505101735ADDGA1085+033535999GD14991+0335359GE19AGL   +99999+99999GF199999999999033531999999MA1101695101395REMMET09310/31/23 02:56:02 METAR KMJX 310756Z 32005KT 10SM OVC110 09/05 A3003 RMK AO2 SLP173 T00890050
0271720407004622023103108567+39928-074292FM-15+0025KMJX V0203205N00265033535MN0160935N5+00895+00445101795ADDAA103000021GA1085+033535999GD14991+0335359GE19AGL   +99999+99999GF199999999999033531999999MA1101765101465MD1390129+9999REMMET10510/31/23 03:56:02 METAR KMJX 310856Z 32005KT 10SM OVC110 09/04 A3005 RMK AO2 SLP179 60000 T00890044 53012EQDQ01  00002PRCP03Q02  00008PRCP03
0199720407004622023103109567+39928-074292FM-15+0025KMJX V0203305N00365036585MN0160935N5+00835+00335101865ADDGA1085+036585999GD14991+0365859GE19AGL   +99999+99999GF199999999999036581999999MA1101835101535REMMET09310/31/23 04:56:02 METAR KMJX 310956Z 33007KT 10SM OVC120 08/03 A3007 RMK AO2 SLP186 T00830033
0199720407004622023103110567+39928-074292FM-15+0025KMJX V0203405N00215036585MN0160935N5+00835+00395101945ADDGA1075+036585999GD13991+0365859GE19AGL   +99999+99999GF199999999999036581999999MA1101905101595REMMET09310/31/23 05:56:02 METAR KMJX 311056Z 34004KT 10SM BKN120 08/04 A3009 RMK AO2 SLP194 T00830039
0317720407004622023103111567+39928-074292FM-15+0025KMJX V0203405N003152200059N0160935N5+00835+00335101995ADDAA106000021AA224001091GA1005+999999999GD10991+9999999GF100991999999999999999999KA1060M+00891KA2060N+00831MA1101965101665MD1190199+9999REMMET12010/31/23 06:56:02 METAR KMJX 311156Z 34006KT 10SM CLR 08/03 A3011 RMK AO2 SLP199 60000 70004 T00830033 10089 20083 51019EQDQ01  00002PRCP06Q02  00008PRCP06Q03  00108PRCP24
0174720407004622023103112567+39928-074292FM-15+0025KMJX V0203505N003652200059N0160935N5+00835+00175102055ADDGA1005+999999999GD10991+9999999GF100991999999999999999999MA1102035101735REMMET09010/31/23 07:56:02 METAR KMJX 311256Z 35007KT 10SM CLR 08/02 A3013 RMK AO2 SLP205 T00830017
0199720407004622023103113567+39928-074292FM-15+0025KMJX V0203505N00465009755MN0160935N5+00835+00175102065ADDGA1085+009755999GD14991+0097559GE19AGL   +99999+99999GF199999999999009751999999MA1102035101735REMMET09310/31/23 08:56:02 METAR KMJX 311356Z 35009KT 10SM OVC032 08/02 A3013 RMK AO2 SLP206 T00830017
0257720407004622023103114567+39928-074292FM-15+0025KMJX V0200205N00415010975MN0160935N5+00895+00225102055ADDGA1075+010975999GA2085+015245999GD13991+0109759GD24991+0152459GE19AGL   +99999+99999GF199999999999010971999999MA1102035101735MD1090069+9999REMMET10610/31/23 09:56:02 METAR KMJX 311456Z 02008KT 10SM BKN036 OVC050 09/02 A3013 RMK AO2 SLP205 T00890022 50006
0237720407004622023103115567+39928-074292FM-15+0025KMJX V0200605N00515010975MN0160935N5+01115+00285101995ADDGA1075+010975999GA2085+018295999GD13991+0109759GD24991+0182959GE19AGL   +99999+99999GF199999999999010971999999MA1101965101665REMMET10010/31/23 10:56:02 METAR KMJX 311556Z 06010KT 10SM BKN036 OVC060 11/03 A3011 RMK AO2 SLP199 T01110028
0237720407004622023103119567+39928-074292FM-15+0025KMJX V0200505N00415012195MN0160935N5+01005+00285101765ADDGA1075+012195999GA2085+015245999GD13991+0121959GD24991+0152459GE19AGL   +99999+99999GF199999999999012191999999MA1101735101435REMMET10010/31/23 14:56:02 METAR KMJX 311956Z 05008KT 10SM BKN040 OVC050 10/03 A3004 RMK AO2 SLP176 T01000028
0219720407004622023103120567+39928-074292FM-15+0025KMJX V0200605N00215012195MN0160935N5+01005+00285101735ADDGA1085+012195999GD14991+0121959GE19AGL   +99999+99999GF199999999999012191999999MA1101695101395MD1690159+9999REMMET09910/31/23 15:56:02 METAR KMJX 312056Z 06004KT 10SM OVC040 10/03 A3003 RMK AO2 SLP173 T01000028 56015
0199720407004622023103121567+39928-074292FM-15+0025KMJX V0200505N00365010365MN0160935N5+00945+00335101665ADDGA1085+010365999GD14991+0103659GE19AGL   +99999+99999GF199999999999010361999999MA1101635101325REMMET09310/31/23 16:56:02 METAR KMJX 312156Z 05007KT 10SM OVC034 09/03 A3001 RMK AO2 SLP166 T00940033
0182720407004622023103122467+39928-074292FM-15+0025KMJX V0200605N00365008535MN0160935N5+00905+00405999999ADDGA1085+008535999GD14991+0085359GE19AGL   +99999+99999GF199999999999008531999999MA1101635101325REMMET07610/31/23 17:46:02 METAR KMJX 312246Z 06007KT 10SM OVC028 09/04 A3001 RMK AO2
0171720407004622023103122564+39933-074300FM-15+002599999V0200601N002610085319N016093199+00941+00441101661ADDGD14991+0085319GE19AGL   +99999+99999GF199999999999008531999999MA1101631999999REMMET081METAR KMJX 312256Z AUTO 06005KT 10SM OVC028 09/04 A3001 RMK AO2 SLP166 T00940044=
0154720407004622023103123184+39933-074300FM-16+002599999V0200501N003110091419N016093199+00901+00401999999ADDGD14991+0091419GE19AGL   +99999+99999GF199999999999009141999999MA1101631999999REMMET064SPECI KMJX 312318Z AUTO 05006KT 10SM OVC030 09/04 A3001 RMK AO2=
0154720407004622023103123294+39933-074300FM-16+002599999V0200301N003610088419N016093199+00901+00501999999ADDGD14991+0088419GE19AGL   +99999+99999GF199999999999008841999999MA1101631999999REMMET064SPECI KMJX 312329Z AUTO 03007KT 10SM OVC029 09/05 A3001 RMK AO2=
0229720407004622023103123564+39933-074300FM-15+002599999V0200801N001510082319N016093199+00891+00501101651ADDGD14991+0082319GE19AGL   +99999+99999GF199999999999008231999999KA1060M+01061KA2060N+00891MA1101631999999MD1610081+9999REMMET099METAR KMJX 312356Z AUTO 08003KT 10SM OVC027 09/05 A3001 RMK AO2 SLP165 T00890050 10106 20089 56008=
0193720407004622023110100564+39933-074300FM-15+002599999V0200501N004110082319N016093199+00941+00441101611ADDGD13991+0082319GD24991+0094519GE19AGL   +99999+99999GF199999999999008231999999MA1101591999999REMMET088METAR KMJX 010056Z AUTO 05008KT 10SM BKN027 OVC031 09/04 A3000 RMK AO2 SLP161 T00940044=
0154720407004622023110101194+39933-074300FM-16+002599999V0200601N002610094519N016093199+00901+00501999999ADDGD14991+0094519GE19AGL   +99999+99999GF199999999999009451999999MA1101521999999REMMET064SPECI KMJX 010119Z AUTO 06005KT 10SM OVC031 09/05 A2998 RMK AO2=
0171720407004622023110101564+39933-074300FM-15+002599999V0200501N004110079219N016093199+00941+00501101571ADDGD14991+0079219GE19AGL   +99999+99999GF199999999999007921999999MA1101521999999REMMET081METAR KMJX 010156Z AUTO 05008KT 10SM OVC026 09/05 A2998 RMK AO2 SLP157 T00940050=
0154720407004622023110102374+39933-074300FM-16+002599999V0200401N002610091419N016093199+00901+00501999999ADDGD14991+0091419GE19AGL   +99999+99999GF199999999999009141999999MA1101491999999REMMET064SPECI KMJX 010237Z AUTO 04005KT 10SM OVC030 09/05 A2997 RMK AO2=
0191720407004622023110102564+39933-074300FM-15+002599999V0200101N002110085319N016093199+00941+00501101531ADDGD14991+0085319GE19AGL   +99999+99999GF199999999999008531999999MA1101491999999MD1610121+9999REMMET087METAR KMJX 010256Z AUTO 01004KT 10SM OVC028 09/05 A2997 RMK AO2 SLP153 T00940050 56012=
0186720407004622023110103494+39933-074300FM-16+002599999V0203301N004110091419N011265199+00701+00601999999ADDAA101000021AW1611GD14991+0091419GE19AGL   +99999+99999GF199999999999009141999999MA1101461999999REMMET079SPECI KMJX 010349Z AUTO 33008KT 7SM -RA OVC030 07/06 A2996 RMK AO2 RAB07 P0000=
0226720407004622023110103564+39933-074300FM-15+002599999V0203301N003610091419N016093199+00721+00611101491ADDAA101000021AW1611GD13991+0091419GD24991+0106719GE19AGL   +99999+99999GF199999999999009141999999MA1101461999999REMMET104METAR KMJX 010356Z AUTO 33007KT 10SM -RA BKN030 OVC035 07/06 A2996 RMK AO2 RAB07 SLP149 P0000 T00720061=
0243720407004622023110104564+39933-074300FM-15+002599999V0203301N003110097519N016093199+00721+00611101471ADDAA101000021AW1611GD14991+0097519GE19AGL   +99999+99999GF199999999999009751999999KA1240M+01171KA2240N+00721MA1101461999999REMMET110METAR KMJX 010456Z AUTO 33006KT 10SM -RA OVC032 07/06 A2996 RMK AO2 RAE14B44 SLP147 P0000 T00720061 401170072=
001572040700462202311010459O+39928-074292SOD  +0025KMJX V020999999999999999999999999999+99999+99999999999ADDAT1AW16RA  1
0226720407004622023110106167+39928-074292FM-15+0025KMJX V0203205N00465008535MN0160935N5+00705+00605999999ADDAA101000395AU110020015AW1615GA1085+008535999GD14991+0085359GE19AGL   +99999+99999GF199999999999008531999999MA1101425101125MW1615REMMET08611/01/23 01:16:02 METAR KMJX 010616Z 32009KT 10SM -RA OVC028 07/06 A2995 RMK AO2 P0001
0243720407004622023110106567+39928-074292FM-15+0025KMJX V0203205N00365008535MN0160935N5+00615+00565101425ADDAA101000395AU110020015AW1615GA1085+008535999GD14991+0085359GE19AGL   +99999+99999GF199999999999008531999999MA1101395101095MW1615REMMET10311/01/23 01:56:02 METAR KMJX 010656Z 32007KT 10SM -RA OVC028 06/06 A2994 RMK AO2 SLP142 P0001 T00610056
0226720407004622023110107137+39928-074292FM-15+0025KMJX V0203205N00415009145MN0160935N5+00605+00605999999ADDAA101000395AU110020015AW1615GA1085+009145999GD14991+0091459GE19AGL   +99999+99999GF199999999999009141999999MA1101395101095MW1615REMMET08611/01/23 02:13:02 METAR KMJX 010713Z 32008KT 10SM -RA OVC030 06/06 A2994 RMK AO2 P0001
0242720407004622023110107567+39928-074292FM-15+0025KMJX V0203205N00465009755MN0144845N5+00615+00505101435ADDAA101000595AU110020015AW1615GA1085+009755999GD14991+0097559GE19AGL   +99999+99999GF199999999999009751999999MA1101395101095MW1615REMMET10211/01/23 02:56:02 METAR KMJX 010756Z 32009KT 9SM -RA OVC032 06/05 A2994 RMK AO2 SLP143 P0002 T00610050
0299720407004622023110108567+39928-074292FM-15+0025KMJX V0203605N00315012805MN0160935N5+00565+00565101415ADDAA101000895AA203001591AU110020015AW1615GA1085+012805999GD14991+0128059GE19AGL   +99999+99999GF199999999999012801999999MA1101395101095MD1690039+9999MW1615REMMET11511/01/23 03:56:02 METAR KMJX 010856Z 36006KT 10SM -RA OVC042 06/06 A2994 RMK AO2 SLP141 P0003 60006 T00560056 56003EQDQ01  00158PRCP03
0222720407004622023110109567+39928-074292FM-15+0025KMJX V0203305N00265016765MN0160935N5+00565+00505101435ADDAA101000395GA1085+016765999GD14991+0167659GE19AGL   +99999+99999GF199999999999016761999999MA1101395101095REMMET10511/01/23 04:56:02 METAR KMJX 010956Z 33005KT 10SM OVC055 06/05 A2994 RMK AO2 RAE35 SLP143 P0001 T00560050
0249720407004622023110110567+39928-074292FM-15+0025KMJX V0203105N00315018295MN0160935N5+00565+00565101495ADDAA101000021AU110020015AW1615GA1085+018295999GD14991+0182959GE19AGL   +99999+99999GF199999999999018291999999MA1101465101165MW1615REMMET10911/01/23 05:56:02 METAR KMJX 011056Z 31006KT 10SM -RA OVC060 06/06 A2996 RMK AO2 RAB50 SLP149 P0000 T00560056
0349720407004622023110111567+39928-074292FM-15+0025KMJX V0203205N00315021345MN0160935N5+00505+00505101545ADDAA101000021AA206001891AA324001891GA1085+021345999GD14991+0213459GE19AGL   +99999+99999GF199999999999021341999999KA1060M+00671KA2060N+00501MA1101525101225MD1390139+9999REMMET13511/01/23 06:56:02 METAR KMJX 011156Z 32006KT 10SM OVC070 05/05 A2998 RMK AO2 RAE19 SLP154 P0000 60007 70007 T00500050 10067 20050 53013EQDQ01  00178PRCP06Q02  00178PRCP24
0225720407004622023110112567+39928-074292FM-15+0025KMJX V0203105N00215022865MN0160935N5+00505+00395101675ADDAA101000021GA1085+022865999GD14991+0228659GE19AGL   +99999+99999GF199999999999022861999999MA1101635101325REMMET10811/01/23 07:56:02 METAR KMJX 011256Z 31004KT 10SM OVC075 05/04 A3001 RMK AO2 RAB14E31 SLP167 P0000 T00500039
0227720407004622023110113567+39928-074292FM-15+0025KMJX V0203105N00315027435MN0160935N5+00565+00445101695ADDAA101000021GA1085+027435999GD14991+0274359GE19AGL   +99999+99999GF199999999999027431999999MA1101665101365REMMET11011/01/23 08:56:02 METAR KMJX 011356Z 31006KT 10SM OVC090 06/04 A3002 RMK AO2 RAB1257E45 SLP169 P0000 T00560044
0282720407004622023110114567+39928-074292FM-15+0025KMJX V0203305N00515027435MN0160935N5+00725+00285101715ADDAA103000021GA1085+027435999GD14991+0274359GE19AGL   +99999+99999GF199999999999027431999999MA1101695101395MD1190179+9999OC100825REMMET10811/01/23 09:56:02 METAR KMJX 011456Z 33010G16KT 10SM OVC090 07/03 A3003 RMK AO2 SLP171 60000 T00720028 51017EQDQ01  00002PRCP03Q02  00008PRCP03
0249720407004622023110115567+39928-074292FM-15+0025KMJX V0203205N00675030485MN0160935N5+00835-00065101755ADDGA1045+013115999GA2075+030485999GD12991+0131159GD23991+0304859GE19AGL   +99999+99999GF199999999999013111999999MA1101735101435OC100985REMMET10411/01/23 10:56:02 METAR KMJX 011556Z 32013G19KT 10SM SCT043 BKN100 08/M01 A3004 RMK AO2 SLP175 T00831006
0287720407004622023110116567+39928-074292FM-15+0025KMJX V0203205N00415015245MN0160935N5+00945-00175101775ADDGA1075+015245999GA2075+018295999GA3075+033535999GD13991+0152459GD23991+0182959GD33991+0335359GE19AGL   +99999+99999GF199999999999015241999999MA1101735101435OC101135REMMET11111/01/23 11:56:02 METAR KMJX 011656Z 32008G22KT 10SM BKN050 BKN060 BKN110 09/M02 A3004 RMK AO2 SLP177 T00941017
0359720407004622023110117567+39928-074292FM-15+0025KMJX V0203505N00625015245MN0160935N5+00895-00175101785ADDAA106000021GA1075+015245999GA2085+018295999GD13991+0152459GD24991+0182959GE19AGL   +99999+99999GF199999999999015241999999KA1060M+01001KA2060N+00501MA1101765101465MD1190079+9999OC100935REMMET12811/01/23 12:56:02 METAR KMJX 011756Z 35012G18KT 10SM BKN050 OVC060 09/M02 A3005 RMK AO2 SLP178 60000 T00891017 10100 20050 51007EQDQ01  00002PRCP06Q02  00008PRCP06
0211720407004622023110119567+39928-074292FM-15+0025KMJX V0203205N00675018295MN0160935N5+01005-00335101885ADDGA1075+018295999GD13991+0182959GE19AGL   +99999+99999GF199999999999018291999999MA1101865101565OC100985REMMET09711/01/23 14:56:02 METAR KMJX 011956Z 32013G19KT 10SM BKN060 10/M03 A3008 RMK AO2 SLP188 T01001033
0195720407004622023110120567+39928-074292FM-15+0025KMJX V0203105N005152200059N0160935N5+00835-00445102005ADDGA1005+999999999GD10991+9999999GF100991999999999999999999MA1101965101665MD1390229+9999REMMET09711/01/23 15:56:02 METAR KMJX 012056Z 31010KT 10SM CLR 08/M04 A3011 RMK AO2 SLP200 T00831044 53022
0175720407004622023110121567+39928-074292FM-15+0025KMJX V0203105N002652200059N0160935N5+00615-00395102095ADDGA1005+999999999GD10991+9999999GF100991999999999999999999MA1102075101765REMMET09111/01/23 16:56:02 METAR KMJX 012156Z 31005KT 10SM CLR 06/M04 A3014 RMK AO2 SLP209 T00611039
0175720407004622023110122567+39928-074292FM-15+0025KMJX V0203005N001552200059N0160935N5+00395-00285102245ADDGA1005+999999999GD10991+9999999GF100991999999999999999999MA1102205101905REMMET09111/01/23 17:56:02 METAR KMJX 012256Z 30003KT 10SM CLR 04/M03 A3018 RMK AO2 SLP224 T00391028
0182720407004622023110200567+39928-074292FM-15+0025KMJX V0203005N002652200059N0160935N5+00225-00445102505ADDGA1005+999999999GD10991+9999999GF100991999999999999999999MA1102445102145REMMET09811/01/23 19:56:01 METAR KMJX 020056Z 30005KT 10SM CLR 02/M04 A3025 RMK AO2 SLP250 T00221044 FZRANO
0182720407004622023110201567+39928-074292FM-15+0025KMJX V0203305N002652200059N0160935N5+00175-00395102595ADDGA1005+999999999GD10991+9999999GF100991999999999999999999MA1102545102245REMMET09811/01/23 20:56:01 METAR KMJX 020156Z 33005KT 10SM CLR 02/M04 A3028 RMK AO2 SLP259 T00171039 FZRANO
0202720407004622023110202567+39928-074292FM-15+0025KMJX V0203205N003152200059N0160935N5+00225-00445102695ADDGA1005+999999999GD10991+9999999GF100991999999999999999999MA1102645102345MD1190309+9999REMMET10411/01/23 21:56:02 METAR KMJX 020256Z 32006KT 10SM CLR 02/M04 A3031 RMK AO2 SLP269 T00221044 51030 FZRANO
0182720407004622023110203567+39928-074292FM-15+0025KMJX V0203205N002652200059N0160935N5+00175-00445102745ADDGA1005+999999999GD10991+9999999GF100991999999999999999999MA1102715102415REMMET09811/01/23 22:56:02 METAR KMJX 020356Z 32005KT 10SM CLR 02/M04 A3033 RMK AO2 SLP274 T00171044 FZRANO
0218720407004622023110204567+39928-074292FM-15+0025KMJX V0203205N002652200059N0160935N5+00175-00395102795ADDGA1005+999999999GD10991+9999999GF100991999999999999999999KA1240M+01001KA2240N+00001MA1102745102445REMMET10811/01/23 23:56:02 METAR KMJX 020456Z 32005KT 10SM CLR 02/M04 A3034 RMK AO2 SLP279 T00171039 401000000 FZRANO
001572040700462202311020459O+39928-074292SOD  +0025KMJX V020999999999999999999999999999+99999+99999999999ADDAT1AU16RA  5
0240720407004622023110205567+39928-074292FM-15+0025KMJX V0203205N001552200059N0160935N5+00065-00395102835ADDGA1005+999999999GD10991+9999999GF100991999999999999999999KA1060M+00391KA2060N+00001MA1102785102475MD1190149+9999REMMET11611/02/23 00:56:02 METAR KMJX 020556Z 32003KT 10SM CLR 01/M04 A3035 RMK AO2 SLP283 T00061039 10039 20000 51014 FZRANO
0183720407004622023110207567+39928-074292FM-15+0025KMJX V0202005N001552200059N0160935N5-00335-00505102965ADDGA1005+999999999GD10991+9999999GF100991999999999999999999MA1102915102615REMMET09911/02/23 02:56:02 METAR KMJX 020756Z 20003KT 10SM CLR M03/M05 A3039 RMK AO2 SLP296 T10331050 FZRANO
0203720407004622023110208567+39928-074292FM-15+0025KMJX V0202905N001552200059N0160935N5-00395-00565103015ADDGA1005+999999999GD10991+9999999GF100991999999999999999999MA1102955102645MD1190189+9999REMMET10511/02/23 03:56:02 METAR KMJX 020856Z 29003KT 10SM CLR M04/M06 A3040 RMK AO2 SLP301 T10391056 51018 FZRANO
0183720407004622023110209567+39928-074292FM-15+0025KMJX V0209999C000052200059N0160935N5-00505-00615103115ADDGA1005+999999999GD10991+9999999GF100991999999999999999999MA1103055102745REMMET09911/02/23 04:56:02 METAR KMJX 020956Z 00000KT 10SM CLR M05/M06 A3043 RMK AO2 SLP311 T10501061 FZRANO
0183720407004622023110210567+39928-074292FM-15+0025KMJX V0203005N002652200059N0160935N5-00225-00335103185ADDGA1005+999999999GD10991+9999999GF100991999999999999999999MA1103155102845REMMET09911/02/23 05:56:02 METAR KMJX 021056Z 30005KT 10SM CLR M02/M03 A3046 RMK AO2 SLP318 T10221033 FZRANO
0241720407004622023110211567+39928-074292FM-15+0025KMJX V0209999C000052200059N0160935N5-00395-00565103275ADDGA1005+999999999GD10991+9999999GF100991999999999999999999KA1060M+00061KA2060N-00501MA1103225102915MD1190269+9999REMMET11711/02/23 06:56:02 METAR KMJX 021156Z 00000KT 10SM CLR M04/M06 A3048 RMK AO2 SLP327 T10391056 10006 21050 51026 FZRANO
0182720407004622023110212567+39928-074292FM-15+0025KMJX V0203005N002652200059N0160935N5+00225-00175103355ADDGA1005+999999999GD10991+9999999GF100991999999999999999999MA1103325103015REMMET09811/02/23 07:56:02 METAR KMJX 021256Z 30005KT 10SM CLR 02/M02 A3051 RMK AO2 SLP335 T00221017 FZRANO
0175720407004622023110213567+39928-074292FM-15+0025KMJX V0202905N003152200059N0160935N5+00505-00285103405ADDGA1005+999999999GD10991+9999999GF100991999999999999999999MA1103355103055REMMET09111/02/23 08:56:02 METAR KMJX 021356Z 29006KT 10SM CLR 05/M03 A3052 RMK AO2 SLP340 T00501028
0195720407004622023110214567+39928-074292FM-15+0025KMJX V0203605N003652200059N0160935N5+00675-00445103405ADDGA1005+999999999GD10991+9999999GF100991999999999999999999MA1103355103055MD1190139+9999REMMET09711/02/23 09:56:02 METAR KMJX 021456Z 36007KT 10SM CLR 07/M04 A3052 RMK AO2 SLP340 T00671044 51013
0175720407004622023110215567+39928-074292FM-15+0025KMJX V0202905N004152200059N0160935N5+00785-00505103375ADDGA1005+999999999GD10991+9999999GF100991999999999999999999MA1103325103015REMMET09111/02/23 10:56:02 METAR KMJX 021556Z 29008KT 10SM CLR 08/M05 A3051 RMK AO2 SLP337 T00781050
0175720407004622023110216567+39928-074292FM-15+0025KMJX V0203305N002652200059N0160935N5+00785-00505103315ADDGA1005+999999999GD10991+9999999GF100991999999999999999999MA1103285102985REMMET09111/02/23 11:56:02 METAR KMJX 021656Z 33005KT 10SM CLR 08/M05 A3050 RMK AO2 SLP331 T00781050
0175720407004622023110218567+39928-074292FM-15+0025KMJX V0209999V002152200059N0160935N5+01005-00565103245ADDGA1005+999999999GD10991+9999999GF100991999999999999999999MA1103185102885REMMET09111/02/23 13:56:02 METAR KMJX 021856Z VRB04KT 10SM CLR 10/M06 A3047 RMK AO2 SLP324 T01001056
0175720407004622023110219567+39928-074292FM-15+0025KMJX V0209999V002152200059N0160935N5+00945-00565103245ADDGA1005+999999999GD10991+9999999GF100991999999999999999999MA1103185102885REMMET09111/02/23 14:56:02 METAR KMJX 021956Z VRB04KT 10SM CLR 09/M06 A3047 RMK AO2 SLP324 T00941056
0230720407004622023110220567+39928-074292FM-15+0025KMJX V0202605N003152200059N0160935N5+00895-00505103275ADDGA1005+999999999GD10991+9999999GF100991999999999999999999MA1103225102915MD1390009+9999REMMET09711/02/23 15:56:02 METAR KMJX 022056Z 26006KT 10SM CLR 09/M05 A3048 RMK AO2 SLP327 T00891050 53000EQDQ013     3APCTENQ020     3APC3  
0175720407004622023110221567+39928-074292FM-15+0025KMJX V0209999C000052200059N0160935N5+00505-00065103265ADDGA1005+999999999GD10991+9999999GF100991999999999999999999MA1103225102915REMMET09111/02/23 16:56:02 METAR KMJX 022156Z 00000KT 10SM CLR 05/M01 A3048 RMK AO2 SLP326 T00501006
0175720407004622023110222567+39928-074292FM-15+0025KMJX V0209999C000052200059N0160935N5+00335-00115103325ADDGA1005+999999999GD10991+9999999GF100991999999999999999999MA1103285102985REMMET09111/02/23 17:56:02 METAR KMJX 022256Z 00000KT 10SM CLR 03/M01 A3050 RMK AO2 SLP332 T00331011
0240720407004622023110223567+39928-074292FM-15+0025KMJX V0209999C000052200059N0160935N5+00115-00225103365ADDGA1005+999999999GD10991+9999999GF100991999999999999999999KA1060M+01001KA2060N+00111MA1103325103015MD1390099+9999REMMET11611/02/23 18:56:02 METAR KMJX 022356Z 00000KT 10SM CLR 01/M02 A3051 RMK AO2 SLP336 T00111022 10100 20011 53009 FZRANO
0183720407004622023110300567+39928-074292FM-15+0025KMJX V0209999C000052200059N0160935N5-00065-00285103355ADDGA1005+999999999GD10991+9999999GF100991999999999999999999MA1103325103015REMMET09911/02/23 19:56:01 METAR KMJX 030056Z 00000KT 10SM CLR M01/M03 A3051 RMK AO2 SLP335 T10061028 FZRANO
0203720407004622023110302567+39928-074292FM-15+0025KMJX V0209999C000052200059N0160935N5-00225-00335103385ADDGA1005+999999999GD10991+9999999GF100991999999999999999999MA1103325103015MD1390029+9999REMMET10511/02/23 21:56:02 METAR KMJX 030256Z 00000KT 10SM CLR M02/M03 A3051 RMK AO2 SLP338 T10221033 53002 FZRANO
0183720407004622023110303567+39928-074292FM-15+0025KMJX V0209999C000052200059N0160935N5-00335-00445103365ADDGA1005+999999999GD10991+9999999GF100991999999999999999999MA1103325103015REMMET09911/02/23 22:56:02 METAR KMJX 030356Z 00000KT 10SM CLR M03/M04 A3051 RMK AO2 SLP336 T10331044 FZRANO
0241720407004622023110305567+39928-074292FM-15+0025KMJX V0209999C000052200059N0160935N5-00395-00505103345ADDGA1005+999999999GD10991+9999999GF100991999999999999999999KA1060M+00111KA2060N-00391MA1103285102985MD1690039+9999REMMET11711/03/23 00:56:02 METAR KMJX 030556Z 00000KT 10SM CLR M04/M05 A3050 RMK AO2 SLP334 T10391050 10011 21039 56003 FZRANO
0183720407004622023110306567+39928-074292FM-15+0025KMJX V0209999C000052200059N0160935N5-00445-00565103355ADDGA1005+999999999GD10991+9999999GF100991999999999999999999MA1103325103015REMMET09911/03/23 01:56:02 METAR KMJX 030656Z 00000KT 10SM CLR M04/M06 A3051 RMK AO2 SLP335 T10441056 FZRANO
0183720407004622023110307567+39928-074292FM-15+0025KMJX V0209999C000052200059N0160935N5-00445-00565103325ADDGA1005+999999999GD10991+9999999GF100991999999999999999999MA1103285102985REMMET09911/03/23 02:56:02 METAR KMJX 030756Z 00000KT 10SM CLR M04/M06 A3050 RMK AO2 SLP332 T10441056 FZRANO
0203720407004622023110308567+39928-074292FM-15+0025KMJX V0209999C000052200059N0160935N5-00505-00615103355ADDGA1005+999999999GD10991+9999999GF100991999999999999999999MA1103325103015MD1390019+9999REMMET10511/03/23 03:56:02 METAR KMJX 030856Z 00000KT 10SM CLR M05/M06 A3051 RMK AO2 SLP335 T10501061 53001 FZRANO
0183720407004622023110309567+39928-074292FM-15+0025KMJX V0209999C000052200059N0160935N5-00505-00615103365ADDGA1005+999999999GD10991+9999999GF100991999999999999999999MA1103325103015REMMET09911/03/23 04:56:02 METAR KMJX 030956Z 00000KT 10SM CLR M05/M06 A3051 RMK AO2 SLP336 T10501061 FZRANO
0183720407004622023110310567+39928-074292FM-15+0025KMJX V0209999C000052200059N0160935N5-00565-00675103375ADDGA1005+999999999GD10991+9999999GF100991999999999999999999MA1103325103015REMMET09911/03/23 05:56:02 METAR KMJX 031056Z 00000KT 10SM CLR M06/M07 A3051 RMK AO2 SLP337 T10561067 FZRANO
0241720407004622023110311567+39928-074292FM-15+0025KMJX V0209999C000052200059N0160935N5-00505-00615103405ADDGA1005+999999999GD10991+9999999GF100991999999999999999999KA1060M-00391KA2060N-00561MA1103355103055MD1390049+9999REMMET11711/03/23 06:56:02 METAR KMJX 031156Z 00000KT 10SM CLR M05/M06 A3052 RMK AO2 SLP340 T10501061 11039 21056 53004 FZRANO
0174720407004622023110312567+39928-074292FM-15+0025KMJX V0209999C000052200059N0160935N5+00285+00175103415ADDGA1005+999999999GD10991+9999999GF100991999999999999999999MA1103355103055REMMET09011/03/23 07:56:02 METAR KMJX 031256Z 00000KT 10SM CLR 03/02 A3052 RMK AO2 SLP341 T00280017
0174720407004622023110313567+39928-074292FM-15+0025KMJX V0201905N002652200059N0160935N5+00895+00115103405ADDGA1005+999999999GD10991+9999999GF100991999999999999999999MA1103355103055REMMET09011/03/23 08:56:02 METAR KMJX 031356Z 19005KT 10SM CLR 09/01 A3052 RMK AO2 SLP340 T00890011
0175720407004622023110315567+39928-074292FM-15+0025KMJX V0201905N002652200059N0160935N5+01285-00175103315ADDGA1005+999999999GD10991+9999999GF100991999999999999999999MA1103285102985REMMET09111/03/23 10:56:02 METAR KMJX 031556Z 19005KT 10SM CLR 13/M02 A3050 RMK AO2 SLP331 T01281017
0175720407004622023110316567+39928-074292FM-15+0025KMJX V0202205N003152200059N0160935N5+01395-00285103215ADDGA1005+999999999GD10991+9999999GF100991999999999999999999MA1103185102885REMMET09111/03/23 11:56:02 METAR KMJX 031656Z 22006KT 10SM CLR 14/M03 A3047 RMK AO2 SLP321 T01391028
0233720407004622023110317567+39928-074292FM-15+0025KMJX V0209999C000052200059N0160935N5+01445-00225103115ADDGA1005+999999999GD10991+9999999GF100991999999999999999999KA1060M+01441KA2060N-00501MA1103085102785MD1890249+9999REMMET10911/03/23 12:56:02 METAR KMJX 031756Z 00000KT 10SM CLR 14/M02 A3044 RMK AO2 SLP311 T01441022 10144 21050 58024
0175720407004622023110318567+39928-074292FM-15+0025KMJX V0201705N004652200059N0160935N5+01505-00225103045ADDGA1005+999999999GD10991+9999999GF100991999999999999999999MA1102985102685REMMET09111/03/23 13:56:02 METAR KMJX 031856Z 17009KT 10SM CLR 15/M02 A3041 RMK AO2 SLP304 T01501022
0174720407004622023110319567+39928-074292FM-15+0025KMJX V0202005N004152200059N0160935N5+01395+00005103025ADDGA1005+999999999GD10991+9999999GF100991999999999999999999MA1102985102685REMMET09011/03/23 14:56:02 METAR KMJX 031956Z 20008KT 10SM CLR 14/00 A3041 RMK AO2 SLP302 T01390000
0194720407004622023110320567+39928-074292FM-15+0025KMJX V0201805N005152200059N0160935N5+01285+00065102975ADDGA1005+999999999GD10991+9999999GF100991999999999999999999MA1102915102615MD1690149+9999REMMET09611/03/23 15:56:02 METAR KMJX 032056Z 18010KT 10SM CLR 13/01 A3039 RMK AO2 SLP297 T01280006 56014
0174720407004622023110321567+39928-074292FM-15+0025KMJX V0201705N002152200059N0160935N5+00945+00115102955ADDGA1005+999999999GD10991+9999999GF100991999999999999999999MA1102915102615REMMET09011/03/23 16:56:02 METAR KMJX 032156Z 17004KT 10SM CLR 09/01 A3039 RMK AO2 SLP295 T00940011
0174720407004622023110322567+39928-074292FM-15+0025KMJX V0201805N002152200059N0160935N5+00615+00115102975ADDGA1005+999999999GD10991+9999999GF100991999999999999999999MA1102915102615REMMET09011/03/23 17:56:02 METAR KMJX 032256Z 18004KT 10SM CLR 06/01 A3039 RMK AO2 SLP297 T00610011
0182720407004622023110400567+39928-074292FM-15+0025KMJX V0209999C000052200059N0160935N5+00225-00065102925ADDGA1005+999999999GD10991+9999999GF100991999999999999999999MA1102885102575REMMET09811/03/23 19:56:01 METAR KMJX 040056Z 00000KT 10SM CLR 02/M01 A3038 RMK AO2 SLP292 T00221006 FZRANO
0182720407004622023110401567+39928-074292FM-15+0025KMJX V0209999C000052200059N0160935N5+00065-00175102895ADDGA1005+999999999GD10991+9999999GF100991999999999999999999MA1102845102545REMMET09811/03/23 20:56:01 METAR KMJX 040156Z 00000KT 10SM CLR 01/M02 A3037 RMK AO2 SLP289 T00061017 FZRANO
0202720407004622023110402567+39928-074292FM-15+0025KMJX V0209999C000052200059N0160935N5+00005-00175102865ADDGA1005+999999999GD10991+9999999GF100991999999999999999999MA1102815102515MD1690089+9999REMMET10411/03/23 21:56:02 METAR KMJX 040256Z 00000KT 10SM CLR 00/M02 A3036 RMK AO2 SLP286 T00001017 56008 FZRANO
0183720407004622023110403567+39928-074292FM-15+0025KMJX V0209999C000052200059N0160935N5-00175-00285102835ADDGA1005+999999999GD10991+9999999GF100991999999999999999999MA1102785102475REMMET09911/03/23 22:56:02 METAR KMJX 040356Z 00000KT 10SM CLR M02/M03 A3035 RMK AO2 SLP283 T10171028 FZRANO
0219720407004622023110404567+39928-074292FM-15+0025KMJX V0209999C000052200059N0160935N5-00175-00335102815ADDGA1005+999999999GD10991+9999999GF100991999999999999999999KA1240M+01561KA2240N-00561MA1102785102475REMMET10911/03/23 23:56:02 METAR KMJX 040456Z 00000KT 10SM CLR M02/M03 A3035 RMK AO2 SLP281 T10171033 401561056 FZRANO
0241720407004622023110405567+39928-074292FM-15+0025KMJX V0209999C000052200059N0160935N5-00175-00285102755ADDGA1005+999999999GD10991+9999999GF100991999999999999999999KA1060M+00331KA2060N-00171MA1102715102415MD1890129+9999REMMET11711/04/23 00:56:02 METAR KMJX 040556Z 00000KT 10SM CLR M02/M03 A3033 RMK AO2 SLP275 T10171028 10033 21017 58012 FZRANO
0183720407004622023110406567+39928-074292FM-15+0025KMJX V0209999C000052200059N0160935N5-00175-00335102705ADDGA1005+999999999GD10991+9999999GF100991999999999999999999MA1102645102345REMMET09911/04/23 01:56:02 METAR KMJX 040656Z 00000KT 10SM CLR M02/M03 A3031 RMK AO2 SLP270 T10171033 FZRANO
0183720407004622023110407567+39928-074292FM-15+0025KMJX V0209999C000052200059N0160935N5-00285-00395102655ADDGA1005+999999999GD10991+9999999GF100991999999999999999999MA1102615102305REMMET09911/04/23 02:56:02 METAR KMJX 040756Z 00000KT 10SM CLR M03/M04 A3030 RMK AO2 SLP265 T10281039 FZRANO
0203720407004622023110408567+39928-074292FM-15+0025KMJX V0209999C000052200059N0160935N5-00285-00395102625ADDGA1005+999999999GD10991+9999999GF100991999999999999999999MA1102575102275MD1690139+9999REMMET10511/04/23 03:56:02 METAR KMJX 040856Z 00000KT 10SM CLR M03/M04 A3029 RMK AO2 SLP262 T10281039 56013 FZRANO
0183720407004622023110409567+39928-074292FM-15+0025KMJX V0209999C000052200059N0160935N5-00285-00445102605ADDGA1005+999999999GD10991+9999999GF100991999999999999999999MA1102575102275REMMET09911/04/23 04:56:02 METAR KMJX 040956Z 00000KT 10SM CLR M03/M04 A3029 RMK AO2 SLP260 T10281044 FZRANO
0210720407004622023110410407+39928-074292FM-15+0025KMJX V0209999C000052200059N0160935N5-00305-00405999999ADDGA1025+000615999GD11991+0006159GE19AGL   +99999+99999GF102995999999000611999999MA1102545102245REMMET08511/04/23 05:40:02 METAR KMJX 041040Z 00000KT 10SM FEW002 M03/M04 A3028 RMK AO2 FZRANOEQDD01      0ADE726
0227720407004622023110410567+39928-074292FM-15+0025KMJX V0209999C000052200059N0160935N5-00285-00395102585ADDGA1025+000615999GD11991+0006159GE19AGL   +99999+99999GF102995999999000611999999MA1102545102245REMMET10211/04/23 05:56:02 METAR KMJX 041056Z 00000KT 10SM FEW002 M03/M04 A3028 RMK AO2 SLP258 T10281039 FZRANOEQDD01      0ADE726
0233720407004622023110411247+39928-074292FM-15+0025KMJX V0209999C000052200059N0040235N5-00305-00405999999ADDAU100001015AW1105GA1025+000615999GD11991+0006159GE19AGL   +99999+99999GF102995999999000611999999MA1102545102245REMMET09111/04/23 06:24:02 METAR KMJX 041124Z 00000KT 2 1/2SM BR FEW002 M03/M04 A3028 RMK AO2 FZRANOEQDD01      0ADE726
0166720407004622023110411317+39928-074292FM-15+0025KMJX V0209999C000052200059N0160935N5-00305-00405999999ADDGA1005+999999999GD10991+9999999GF100991999999999999999999MA1102545102245REMMET08211/04/23 06:31:02 METAR KMJX 041131Z 00000KT 10SM CLR M03/M04 A3028 RMK AO2 FZRANO
0241720407004622023110411567+39928-074292FM-15+0025KMJX V0209999C000052200059N0160935N5-00175-00285102565ADDGA1005+999999999GD10991+9999999GF100991999999999999999999KA1060M-00171KA2060N-00331MA1102515102205MD1690069+9999REMMET11711/04/23 06:56:02 METAR KMJX 041156Z 00000KT 10SM CLR M02/M03 A3027 RMK AO2 SLP256 T10171028 11017 21033 56006 FZRANO
0174720407004622023110412567+39928-074292FM-15+0025KMJX V0209999C000052200059N0160935N5+00285+00175102595ADDGA1005+999999999GD10991+9999999GF100991999999999999999999MA1102545102245REMMET09011/04/23 07:56:02 METAR KMJX 041256Z 00000KT 10SM CLR 03/02 A3028 RMK AO2 SLP259 T00280017
0174720407004622023110413567+39928-074292FM-15+0025KMJX V0202205N002152200059N0160935N5+01065+00725102565ADDGA1005+999999999GD10991+9999999GF100991999999999999999999MA1102515102205REMMET09011/04/23 08:56:02 METAR KMJX 041356Z 22004KT 10SM CLR 11/07 A3027 RMK AO2 SLP256 T01060072
0194720407004622023110414567+39928-074292FM-15+0025KMJX V0202205N004152200059N0160935N5+01445+00395102495ADDGA1005+999999999GD10991+9999999GF100991999999999999999999MA1102475102175MD1890069+9999REMMET09611/04/23 09:56:02 METAR KMJX 041456Z 22008KT 10SM CLR 14/04 A3026 RMK AO2 SLP249 T01440039 58006
0174720407004622023110415567+39928-074292FM-15+0025KMJX V0202505N002652200059N0160935N5+01565+00225102465ADDGA1005+999999999GD10991+9999999GF100991999999999999999999MA1102445102145REMMET09011/04/23 10:56:02 METAR KMJX 041556Z 25005KT 10SM CLR 16/02 A3025 RMK AO2 SLP246 T01560022
0174720407004622023110416567+39928-074292FM-15+0025KMJX V0202805N003152200059N0160935N5+01675+00335102355ADDGA1005+999999999GD10991+9999999GF100991999999999999999999MA1102345102035REMMET09011/04/23 11:56:02 METAR KMJX 041656Z 28006KT 10SM CLR 17/03 A3022 RMK AO2 SLP235 T01670033
0232720407004622023110417567+39928-074292FM-15+0025KMJX V0209999V001552200059N0160935N5+01785+00445102275ADDGA1005+999999999GD10991+9999999GF100991999999999999999999KA1060M+01781KA2060N-00171MA1102245101935MD1890229+9999REMMET10811/04/23 12:56:02 METAR KMJX 041756Z VRB03KT 10SM CLR 18/04 A3019 RMK AO2 SLP227 T01780044 10178 21017 58022
0174720407004622023110418567+39928-074292FM-15+0025KMJX V0202305N001552200059N0160935N5+01725+00445102225ADDGA1005+999999999GD10991+9999999GF100991999999999999999999MA1102205101905REMMET09011/04/23 13:56:02 METAR KMJX 041856Z 23003KT 10SM CLR 17/04 A3018 RMK AO2 SLP222 T01720044
0174720407004622023110419567+39928-074292FM-15+0025KMJX V0202505N002652200059N0160935N5+01675+00505102195ADDGA1005+999999999GD10991+9999999GF100991999999999999999999MA1102175101875REMMET09011/04/23 14:56:02 METAR KMJX 041956Z 25005KT 10SM CLR 17/05 A3017 RMK AO2 SLP219 T01670050
0238720407004622023110420567+39928-074292FM-15+0025KMJX V0203305N002152200059N0160935N5+01395+00675102175ADDGA1025+033535999GD11991+0335359GE19AGL   +99999+99999GF102995999999033531999999MA1102135101835MD1690109+9999REMMET09911/04/23 15:56:02 METAR KMJX 042056Z 33004KT 10SM FEW110 14/07 A3016 RMK AO2 SLP217 T01390067 56010EQDD01      0ADE726
0174720407004622023110421567+39928-074292FM-15+0025KMJX V0209999C000052200059N0160935N5+01225+00675102165ADDGA1005+999999999GD10991+9999999GF100991999999999999999999MA1102135101835REMMET09011/04/23 16:56:02 METAR KMJX 042156Z 00000KT 10SM CLR 12/07 A3016 RMK AO2 SLP216 T01220067
0174720407004622023110422567+39928-074292FM-15+0025KMJX V0209999C000052200059N0160935N5+01065+00675102155ADDGA1005+999999999GD10991+9999999GF100991999999999999999999MA1102105101805REMMET09011/04/23 17:56:02 METAR KMJX 042256Z 00000KT 10SM CLR 11/07 A3015 RMK AO2 SLP215 T01060067
0232720407004622023110423567+39928-074292FM-15+0025KMJX V0209999C000052200059N0160935N5+00945+00615102135ADDGA1005+999999999GD10991+9999999GF100991999999999999999999KA1060M+01781KA2060N+00941MA1102105101805MD1890049+9999REMMET10811/04/23 18:56:02 METAR KMJX 042356Z 00000KT 10SM CLR 09/06 A3015 RMK AO2 SLP213 T00940061 10178 20094 58004
0174720407004622023110500567+39928-074292FM-15+0025KMJX V0209999C000052200059N0160935N5+00835+00505102125ADDGA1005+999999999GD10991+9999999GF100991999999999999999999MA1102075101765REMMET09011/04/23 19:56:01 METAR KMJX 050056Z 00000KT 10SM CLR 08/05 A3014 RMK AO2 SLP212 T00830050
0174720407004622023110501567+39928-074292FM-15+0025KMJX V0209999C000052200059N0160935N5+00615+00445102075ADDGA1005+999999999GD10991+9999999GF100991999999999999999999MA1102035101735REMMET09011/04/23 20:56:01 METAR KMJX 050156Z 00000KT 10SM CLR 06/04 A3013 RMK AO2 SLP207 T00610044
0194720407004622023110502567+39928-074292FM-15+0025KMJX V0209999C000052200059N0160935N5+00505+00395102035ADDGA1005+999999999GD10991+9999999GF100991999999999999999999MA1102005101705MD1890099+9999REMMET09611/04/23 21:56:02 METAR KMJX 050256Z 00000KT 10SM CLR 05/04 A3012 RMK AO2 SLP203 T00500039 58009
0174720407004622023110503567+39928-074292FM-15+0025KMJX V0209999C000052200059N0160935N5+00505+00395101975ADDGA1005+999999999GD10991+9999999GF100991999999999999999999MA1101935101635REMMET09011/04/23 22:56:02 METAR KMJX 050356Z 00000KT 10SM CLR 05/04 A3010 RMK AO2 SLP197 T00500039
0210720407004622023110504567+39928-074292FM-15+0025KMJX V0209999C000052200059N0160935N5+00395+00225101955ADDGA1005+999999999GD10991+9999999GF100991999999999999999999KA1240M+01781KA2240N-00331MA1101935101635REMMET10011/04/23 23:56:02 METAR KMJX 050456Z 00000KT 10SM CLR 04/02 A3010 RMK AO2 SLP195 T00390022 401781033
001572040700462202311050459O+39928-074292SOD  +0025KMJX V020999999999999999999999999999+99999+99999999999ADDAT1AU13BR  5
0239720407004622023110505567+39928-074292FM-15+0025KMJX V0209999C000052200059N0160935N5+00225+00115101935ADDGA1005+999999999GD10991+9999999GF100991999999999999999999KA1060M+00941KA2060N+00221MA1101905101595MD1690109+9999REMMET11511/05/23 00:56:02 METAR KMJX 050556Z 00000KT 10SM CLR 02/01 A3009 RMK AO2 SLP193 T00220011 10094 20022 56010 FZRANO
0181720407004622023110506567+39928-074292FM-15+0025KMJX V0209999C000052200059N0160935N5+00175+00065101865ADDGA1005+999999999GD10991+9999999GF100991999999999999999999MA1101835101535REMMET09711/05/23 01:56:02 METAR KMJX 050656Z 00000KT 10SM CLR 02/01 A3007 RMK AO2 SLP186 T00170006 FZRANO
0182720407004622023110507567+39928-074292FM-15+0025KMJX V0209999C000052200059N0160935N5+00065-00065101815ADDGA1005+999999999GD10991+9999999GF100991999999999999999999MA1101765101465REMMET09811/05/23 02:56:02 METAR KMJX 050756Z 00000KT 10SM CLR 01/M01 A3005 RMK AO2 SLP181 T00061006 FZRANO
0202720407004622023110508567+39928-074292FM-15+0025KMJX V0209999C000052200059N0160935N5+00005-00115101805ADDGA1005+999999999GD10991+9999999GF100991999999999999999999MA1101765101465MD1690139+9999REMMET10411/05/23 03:56:02 METAR KMJX 050856Z 00000KT 10SM CLR 00/M01 A3005 RMK AO2 SLP180 T00001011 56013 FZRANO
0183720407004622023110509567+39928-074292FM-15+0025KMJX V0209999C000052200059N0160935N5-00065-00175101795ADDGA1005+999999999GD10991+9999999GF100991999999999999999999MA1101765101465REMMET09911/05/23 04:56:02 METAR KMJX 050956Z 00000KT 10SM CLR M01/M02 A3005 RMK AO2 SLP179 T10061017 FZRANO
0183720407004622023110510567+39928-074292FM-15+0025KMJX V0209999C000052200059N0160935N5-00065-00115101785ADDGA1005+999999999GD10991+9999999GF100991999999999999999999MA1101735101435REMMET09911/05/23 05:56:02 METAR KMJX 051056Z 00000KT 10SM CLR M01/M01 A3004 RMK AO2 SLP178 T10061011 FZRANO
0241720407004622023110511567+39928-074292FM-15+0025KMJX V0209999C000052200059N0160935N5-00065-00115101805ADDGA1005+999999999GD10991+9999999GF100991999999999999999999KA1060M+00281KA2060N-00061MA1101765101465MD1590019+9999REMMET11711/05/23 06:56:02 METAR KMJX 051156Z 00000KT 10SM CLR M01/M01 A3005 RMK AO2 SLP180 T10061011 10028 21006 55001 FZRANO
0174720407004622023110512567+39928-074292FM-15+0025KMJX V0209999C000052200059N0160935N5+00505+00335101825ADDGA1005+999999999GD10991+9999999GF100991999999999999999999MA1101795101495REMMET09011/05/23 07:56:02 METAR KMJX 051256Z 00000KT 10SM CLR 05/03 A3006 RMK AO2 SLP182 T00500033
0174720407004622023110513567+39928-074292FM-15+0025KMJX V0202805N002152200059N0160935N5+01225+00785101785ADDGA1005+999999999GD10991+9999999GF100991999999999999999999MA1101765101465REMMET09011/05/23 08:56:02 METAR KMJX 051356Z 28004KT 10SM CLR 12/08 A3005 RMK AO2 SLP178 T01220078
0194720407004622023110514567+39928-074292FM-15+0025KMJX V0202905N004152200059N0160935N5+01615+00335101775ADDGA1005+999999999GD10991+9999999GF100991999999999999999999MA1101735101435MD1890019+9999REMMET09611/05/23 09:56:02 METAR KMJX 051456Z 29008KT 10SM CLR 16/03 A3004 RMK AO2 SLP177 T01610033 58001
0199720407004622023110515567+39928-074292FM-15+0025KMJX V0202305N00365025915MN0160935N5+01785+00175101735ADDGA1075+025915999GD13991+0259159GE19AGL   +99999+99999GF199999999999025911999999MA1101695101395REMMET09311/05/23 10:56:02 METAR KMJX 051556Z 23007KT 10SM BKN085 18/02 A3003 RMK AO2 SLP173 T01780017
0199720407004622023110516567+39928-074292FM-15+0025KMJX V0203105N00265024385MN0160935N5+01835+00175101655ADDGA1085+024385999GD14991+0243859GE19AGL   +99999+99999GF199999999999024381999999MA1101635101325REMMET09311/05/23 11:56:02 METAR KMJX 051656Z 31005KT 10SM OVC080 18/02 A3001 RMK AO2 SLP165 T01830017
0232720407004622023110517567+39928-074292FM-15+0025KMJX V0203105N003152200059N0160935N5+01895+00115101605ADDGA1005+999999999GD10991+9999999GF100991999999999999999999KA1060M+01941KA2060N-00061MA1101565101265MD1890189+9999REMMET10811/05/23 12:56:02 METAR KMJX 051756Z 31006KT 10SM CLR 19/01 A2999 RMK AO2 SLP160 T01890011 10194 21006 58018
0174720407004622023110518567+39928-074292FM-15+0025KMJX V0203205N002652200059N0160935N5+01945+00225101545ADDGA1005+999999999GD10991+9999999GF100991999999999999999999MA1101525101225REMMET09011/05/23 13:56:02 METAR KMJX 051856Z 32005KT 10SM CLR 19/02 A2998 RMK AO2 SLP154 T01940022
0174720407004622023110519567+39928-074292FM-15+0025KMJX V0203105N002152200059N0160935N5+01895+00285101545ADDGA1005+999999999GD10991+9999999GF100991999999999999999999MA1101525101225REMMET09011/05/23 14:56:02 METAR KMJX 051956Z 31004KT 10SM CLR 19/03 A2998 RMK AO2 SLP154 T01890028
0194720407004622023110520567+39928-074292FM-15+0025KMJX V0203205N002652200059N0160935N5+01835+00395101595ADDGA1005+999999999GD10991+9999999GF100991999999999999999999MA1101565101265MD1590009+9999REMMET09611/05/23 15:56:02 METAR KMJX 052056Z 32005KT 10SM CLR 18/04 A2999 RMK AO2 SLP159 T01830039 55000
0174720407004622023110521567+39928-074292FM-15+0025KMJX V0201105N001552200059N0160935N5+01445+00675101665ADDGA1005+999999999GD10991+9999999GF100991999999999999999999MA1101635101325REMMET09011/05/23 16:56:02 METAR KMJX 052156Z 11003KT 10SM CLR 14/07 A3001 RMK AO2 SLP166 T01440067
0174720407004622023110522567+39928-074292FM-15+0025KMJX V0209999C000052200059N0160935N5+01005+00565101755ADDGA1005+999999999GD10991+9999999GF100991999999999999999999MA1101695101395REMMET09011/05/23 17:56:02 METAR KMJX 052256Z 00000KT 10SM CLR 10/06 A3003 RMK AO2 SLP175 T01000056
0232720407004622023110523567+39928-074292FM-15+0025KMJX V0209999C000052200059N0160935N5+00725+00445101815ADDGA1005+999999999GD10991+9999999GF100991999999999999999999KA1060M+02001KA2060N+00721MA1101765101465MD1190219+9999REMMET10811/05/23 18:56:02 METAR KMJX 052356Z 00000KT 10SM CLR 07/04 A3005 RMK AO2 SLP181 T00720044 10200 20072 51021
0174720407004622023110601567+39928-074292FM-15+0025KMJX V0203405N002652200059N0160935N5+00945+00505101985ADDGA1005+999999999GD10991+9999999GF100991999999999999999999MA1101965101665REMMET09011/05/23 20:56:01 METAR KMJX 060156Z 34005KT 10SM CLR 09/05 A3011 RMK AO2 SLP198 T00940050
0174720407004622023110603567+39928-074292FM-15+0025KMJX V0203405N002652200059N0160935N5+00725+00335102055ADDGA1005+999999999GD10991+9999999GF100991999999999999999999MA1102035101735REMMET09011/05/23 22:56:02 METAR KMJX 060356Z 34005KT 10SM CLR 07/03 A3013 RMK AO2 SLP205 T00720033
0210720407004622023110604567+39928-074292FM-15+0025KMJX V0203405N003152200059N0160935N5+00675+00335102065ADDGA1005+999999999GD10991+9999999GF100991999999999999999999KA1240M+02001KA2240N-00061MA1102035101735REMMET10011/05/23 23:56:02 METAR KMJX 060456Z 34006KT 10SM CLR 07/03 A3013 RMK AO2 SLP206 T00670033 402001006
0232720407004622023110605567+39928-074292FM-15+0025KMJX V0203505N001552200059N0160935N5+00565+00285102065ADDGA1005+999999999GD10991+9999999GF100991999999999999999999KA1060M+00941KA2060N+00561MA1102035101735MD1190049+9999REMMET10811/06/23 00:56:02 METAR KMJX 060556Z 35003KT 10SM CLR 06/03 A3013 RMK AO2 SLP206 T00560028 10094 20056 51004
0174720407004622023110606567+39928-074292FM-15+0025KMJX V0209999C000052200059N0160935N5+00335+00175102075ADDGA1005+999999999GD10991+9999999GF100991999999999999999999MA1102035101735REMMET09011/06/23 01:56:02 METAR KMJX 060656Z 00000KT 10SM CLR 03/02 A3013 RMK AO2 SLP207 T00330017
0174720407004622023110607567+39928-074292FM-15+0025KMJX V0203505N002152200059N0160935N5+00505+00285102085ADDGA1005+999999999GD10991+9999999GF100991999999999999999999MA1102035101735REMMET09011/06/23 02:56:02 METAR KMJX 060756Z 35004KT 10SM CLR 05/03 A3013 RMK AO2 SLP208 T00500028
0194720407004622023110608567+39928-074292FM-15+0025KMJX V0203405N002152200059N0160935N5+00505+00225102125ADDGA1005+999999999GD10991+9999999GF100991999999999999999999MA1102105101805MD1390069+9999REMMET09611/06/23 03:56:02 METAR KMJX 060856Z 34004KT 10SM CLR 05/02 A3015 RMK AO2 SLP212 T00500022 53006
0174720407004622023110609567+39928-074292FM-15+0025KMJX V0200405N001552200059N0160935N5+00445+00225102155ADDGA1005+999999999GD10991+9999999GF100991999999999999999999MA1102105101805REMMET09011/06/23 04:56:02 METAR KMJX 060956Z 04003KT 10SM CLR 04/02 A3015 RMK AO2 SLP215 T00440022
0174720407004622023110610567+39928-074292FM-15+0025KMJX V0203405N001552200059N0160935N5+00505+00225102215ADDGA1005+999999999GD10991+9999999GF100991999999999999999999MA1102175101875REMMET09011/06/23 05:56:02 METAR KMJX 061056Z 34003KT 10SM CLR 05/02 A3017 RMK AO2 SLP221 T00500022
0232720407004622023110611567+39928-074292FM-15+0025KMJX V0203405N001552200059N0160935N5+00445+00225102265ADDGA1005+999999999GD10991+9999999GF100991999999999999999999KA1060M+00561KA2060N+00221MA1102245101935MD1390139+9999REMMET10811/06/23 06:56:02 METAR KMJX 061156Z 34003KT 10SM CLR 04/02 A3019 RMK AO2 SLP226 T00440022 10056 20022 53013
0174720407004622023110613567+39928-074292FM-15+0025KMJX V0200405N002652200059N0160935N5+01005+00445102295ADDGA1005+999999999GD10991+9999999GF100991999999999999999999MA1102275101975REMMET09011/06/23 08:56:02 METAR KMJX 061356Z 04005KT 10SM CLR 10/04 A3020 RMK AO2 SLP229 T01000044
0174720407004622023110615567+39928-074292FM-15+0025KMJX V0200305N002152200059N0160935N5+01285+00565102195ADDGA1005+999999999GD10991+9999999GF100991999999999999999999MA1102175101875REMMET09011/06/23 10:56:02 METAR KMJX 061556Z 03004KT 10SM CLR 13/06 A3017 RMK AO2 SLP219 T01280056
0151720407004622023110616566+39928-074292FM-15+0025KMJX V0209999V001552200059N0160935N5+01505+00675102075ADDGA1025+009145999GD11991+0091459MA1102035101735REMMET09311/06/23 11:56:02 METAR KMJX 061656Z VRB03KT 10SM FEW030 15/07 A3013 RMK AO2 SLP207 T01500067
0183720407004622023110617566+39928-074292FM-15+0025KMJX V0209999V00215010365MN0160935N5+01615+00675101995ADDGA1075+010365999GD13991+0103659MA1101965101665MD1890269+9999REMMET11111/06/23 12:56:02 METAR KMJX 061756Z VRB04KT 10SM BKN034 16/07 A3011 RMK AO2 SLP199 T01610067 10161 20039 58026
0151720407004622023110618566+39928-074292FM-15+0025KMJX V0201705N002152200059N0160935N5+01505+00725101945ADDGA1025+009145999GD11991+0091459MA1101905101595REMMET09311/06/23 13:56:02 METAR KMJX 061856Z 17004KT 10SM FEW030 15/07 A3009 RMK AO2 SLP194 T01500072
0148720407004622023110619566+39928-074292FM-15+0025KMJX V0200905N002652200059N0160935N5+01445+00725101895ADDGA1005+999999999GD10991+9999999MA1101865101565REMMET09011/06/23 14:56:02 METAR KMJX 061956Z 09005KT 10SM CLR 14/07 A3008 RMK AO2 SLP189 T01440072
0194720407004622023110620567+39928-074292FM-15+0025KMJX V0201305N003152200059N0160935N5+01285+00785101865ADDGA1005+999999999GD10991+9999999GF100991999999999999999999MA1101835101535MD1690149+9999REMMET09611/06/23 15:56:02 METAR KMJX 062056Z 13006KT 10SM CLR 13/08 A3007 RMK AO2 SLP186 T01280078 56014
0174720407004622023110621567+39928-074292FM-15+0025KMJX V0209999C000052200059N0160935N5+01115+00785101845ADDGA1005+999999999GD10991+9999999GF100991999999999999999999MA1101795101495REMMET09011/06/23 16:56:02 METAR KMJX 062156Z 00000KT 10SM CLR 11/08 A3006 RMK AO2 SLP184 T01110078
0174720407004622023110622567+39928-074292FM-15+0025KMJX V0209999C000052200059N0160935N5+00785+00615101875ADDGA1005+999999999GD10991+9999999GF100991999999999999999999MA1101835101535REMMET09011/06/23 17:56:02 METAR KMJX 062256Z 00000KT 10SM CLR 08/06 A3007 RMK AO2 SLP187 T00780061
0232720407004622023110623567+39928-074292FM-15+0025KMJX V0209999C000052200059N0160935N5+00615+00505101825ADDGA1005+999999999GD10991+9999999GF100991999999999999999999KA1060M+01611KA2060N+00561MA1101795101495MD1890049+9999REMMET10811/06/23 18:56:02 METAR KMJX 062356Z 00000KT 10SM CLR 06/05 A3006 RMK AO2 SLP182 T00610050 10161 20056 58004
0174720407004622023110700567+39928-074292FM-15+0025KMJX V0209999C000052200059N0160935N5+00565+00445101795ADDGA1005+999999999GD10991+9999999GF100991999999999999999999MA1101765101465REMMET09011/06/23 19:56:01 METAR KMJX 070056Z 00000KT 10SM CLR 06/04 A3005 RMK AO2 SLP179 T00560044
0174720407004622023110701567+39928-074292FM-15+0025KMJX V0201705N001552200059N0160935N5+00565+00445101715ADDGA1005+999999999GD10991+9999999GF100991999999999999999999MA1101665101365REMMET09011/06/23 20:56:01 METAR KMJX 070156Z 17003KT 10SM CLR 06/04 A3002 RMK AO2 SLP171 T00560044
0194720407004622023110702567+39928-074292FM-15+0025KMJX V0201805N001552200059N0160935N5+00945+00835101635ADDGA1005+999999999GD10991+9999999GF100991999999999999999999MA1101595101295MD1890189+9999REMMET09611/06/23 21:56:01 METAR KMJX 070256Z 18003KT 10SM CLR 09/08 A3000 RMK AO2 SLP163 T00940083 58018
0174720407004622023110703567+39928-074292FM-15+0025KMJX V0209999C000052200059N0160935N5+00785+00675101575ADDGA1005+999999999GD10991+9999999GF100991999999999999999999MA1101565101265REMMET09011/06/23 22:56:02 METAR KMJX 070356Z 00000KT 10SM CLR 08/07 A2999 RMK AO2 SLP157 T00780067
0210720407004622023110704567+39928-074292FM-15+0025KMJX V0209999C000052200059N0160935N5+00675+00615101465ADDGA1005+999999999GD10991+9999999GF100991999999999999999999KA1240M+01611KA2240N+00221MA1101425101125REMMET10011/06/23 23:56:02 METAR KMJX 070456Z 00000KT 10SM CLR 07/06 A2995 RMK AO2 SLP146 T00670061 401610022
0276720407004622023110705567+39928-074292FM-15+0025KMJX V0201705N002152200059N0160935N5+00675+00565101355ADDGA1025+033535999GD11991+0335359GE19AGL   +99999+99999GF102995999999033531999999KA1060M+01001KA2060N+00501MA1101325101025MD1890289+9999REMMET11111/07/23 00:56:02 METAR KMJX 070556Z 17004KT 10SM FEW110 07/06 A2992 RMK AO2 SLP135 T00670056 10100 20050 58028EQDD01      0ADE726
0199720407004622023110706567+39928-074292FM-15+0025KMJX V0201905N00265027435MN0160935N5+01175+01115101295ADDGA1075+027435999GD13991+0274359GE19AGL   +99999+99999GF199999999999027431999999MA1101255100955REMMET09311/07/23 01:56:02 METAR KMJX 070656Z 19005KT 10SM BKN090 12/11 A2990 RMK AO2 SLP129 T01170111
0219720407004622023110708567+39928-074292FM-15+0025KMJX V0202105N00415028965MN0160935N5+01335+01065101135ADDGA1085+028965999GD14991+0289659GE19AGL   +99999+99999GF199999999999028961999999MA1101125100825MD1890219+9999REMMET09911/07/23 03:56:02 METAR KMJX 070856Z 21008KT 10SM OVC095 13/11 A2986 RMK AO2 SLP113 T01330106 58021
0199720407004622023110709567+39928-074292FM-15+0025KMJX V0202205N00465027435MN0160935N5+01285+01065101075ADDGA1085+027435999GD14991+0274359GE19AGL   +99999+99999GF199999999999027431999999MA1101055100755REMMET09311/07/23 04:56:02 METAR KMJX 070956Z 22009KT 10SM OVC090 13/11 A2984 RMK AO2 SLP107 T01280106
0218720407004622023110710567+39928-074292FM-15+0025KMJX V0202205N003652200059N0160935N5+01285+01005101035ADDGA1045+027435999GD12991+0274359GE19AGL   +99999+99999GF104995999999027431999999MA1101025100725REMMET09311/07/23 05:56:02 METAR KMJX 071056Z 22007KT 10SM SCT090 13/10 A2983 RMK AO2 SLP103 T01280100EQDD01      0ADE726
0232720407004622023110711567+39928-074292FM-15+0025KMJX V0202205N004152200059N0160935N5+01285+01005101045ADDGA1005+999999999GD10991+9999999GF100991999999999999999999KA1060M+01331KA2060N+00671MA1101025100725MD1590099+9999REMMET10811/07/23 06:56:02 METAR KMJX 071156Z 22008KT 10SM CLR 13/10 A2983 RMK AO2 SLP104 T01280100 10133 20067 55009
0218720407004622023110712567+39928-074292FM-15+0025KMJX V0202205N005152200059N0160935N5+01445+01005101045ADDGA1025+024385999GD11991+0243859GE19AGL   +99999+99999GF102995999999024381999999MA1101025100725REMMET09311/07/23 07:56:02 METAR KMJX 071256Z 22010KT 10SM FEW080 14/10 A2983 RMK AO2 SLP104 T01440100EQDD01      0ADE726
0199720407004622023110713567+39928-074292FM-15+0025KMJX V0202305N00515030485MN0160935N5+01615+01005101015ADDGA1075+030485999GD13991+0304859GE19AGL   +99999+99999GF199999999999030481999999MA1100985100685REMMET09311/07/23 08:56:02 METAR KMJX 071356Z 23010KT 10SM BKN100 16/10 A2982 RMK AO2 SLP101 T01610100
0194720407004622023110714567+39928-074292FM-15+0025KMJX V0202405N004652200059N0160935N5+01785+01005101005ADDGA1005+999999999GD10991+9999999GF100991999999999999999999MA1100985100685MD1890049+9999REMMET09611/07/23 09:56:02 METAR KMJX 071456Z 24009KT 10SM CLR 18/10 A2982 RMK AO2 SLP100 T01780100 58004
0174720407004622023110715567+39928-074292FM-15+0025KMJX V0202505N005152200059N0160935N5+01835+01005100965ADDGA1005+999999999GD10991+9999999GF100991999999999999999999MA1100915100625REMMET09011/07/23 10:56:02 METAR KMJX 071556Z 25010KT 10SM CLR 18/10 A2980 RMK AO2 SLP096 T01830100
0185720407004622023110716567+39928-074292FM-15+0025KMJX V0202605N004152200059N0160935N5+01835+01065100895ADDGA1005+999999999GD10991+9999999GF100991999999999999999999MA1100855100555OC100725REMMET09311/07/23 11:56:02 METAR KMJX 071656Z 26008G14KT 10SM CLR 18/11 A2978 RMK AO2 SLP089 T01830106
0232720407004622023110717567+39928-074292FM-15+0025KMJX V0202405N004152200059N0160935N5+01835+01065100835ADDGA1005+999999999GD10991+9999999GF100991999999999999999999KA1060M+01831KA2060N+01281MA1100815100515MD1890179+9999REMMET10811/07/23 12:56:02 METAR KMJX 071756Z 24008KT 10SM CLR 18/11 A2977 RMK AO2 SLP083 T01830106 10183 20128 58017
0174720407004622023110718567+39928-074292FM-15+0025KMJX V0202405N003652200059N0160935N5+01835+01065100795ADDGA1005+999999999GD10991+9999999GF100991999999999999999999MA1100755100455REMMET09011/07/23 13:56:02 METAR KMJX 071856Z 24007KT 10SM CLR 18/11 A2975 RMK AO2 SLP079 T01830106
0174720407004622023110719567+39928-074292FM-15+0025KMJX V0202505N003652200059N0160935N5+01835+01065100785ADDGA1005+999999999GD10991+9999999GF100991999999999999999999MA1100755100455REMMET09011/07/23 14:56:02 METAR KMJX 071956Z 25007KT 10SM CLR 18/11 A2975 RMK AO2 SLP078 T01830106
0194720407004622023110720567+39928-074292FM-15+0025KMJX V0202505N003152200059N0160935N5+01785+01065100765ADDGA1005+999999999GD10991+9999999GF100991999999999999999999MA1100715100415MD1690079+9999REMMET09611/07/23 15:56:02 METAR KMJX 072056Z 25006KT 10SM CLR 18/11 A2974 RMK AO2 SLP076 T01780106 56007
0174720407004622023110721567+39928-074292FM-15+0025KMJX V0209999C000052200059N0160935N5+01445+01065100825ADDGA1005+999999999GD10991+9999999GF100991999999999999999999MA1100785100485REMMET09011/07/23 16:56:02 METAR KMJX 072156Z 00000KT 10SM CLR 14/11 A2976 RMK AO2 SLP082 T01440106
0174720407004622023110722567+39928-074292FM-15+0025KMJX V0202105N002152200059N0160935N5+01065+00895100905ADDGA1005+999999999GD10991+9999999GF100991999999999999999999MA1100885100585REMMET09011/07/23 17:56:02 METAR KMJX 072256Z 21004KT 10SM CLR 11/09 A2979 RMK AO2 SLP090 T01060089
0232720407004622023110723567+39928-074292FM-15+0025KMJX V0202405N001552200059N0160935N5+00895+00785100965ADDGA1005+999999999GD10991+9999999GF100991999999999999999999KA1060M+01831KA2060N+00891MA1100915100625MD1190209+9999REMMET10811/07/23 18:56:02 METAR KMJX 072356Z 24003KT 10SM CLR 09/08 A2980 RMK AO2 SLP096 T00890078 10183 20089 51020
0174720407004622023110801567+39928-074292FM-15+0025KMJX V0202705N002652200059N0160935N5+01285+00895101095ADDGA1005+999999999GD10991+9999999GF100991999999999999999999MA1101055100755REMMET09011/07/23 20:56:01 METAR KMJX 080156Z 27005KT 10SM CLR 13/09 A2984 RMK AO2 SLP109 T01280089
0194720407004622023110802567+39928-074292FM-15+0025KMJX V0203305N002652200059N0160935N5+01225+00835101205ADDGA1005+999999999GD10991+9999999GF100991999999999999999999MA1101195100895MD1390249+9999REMMET09611/07/23 21:56:01 METAR KMJX 080256Z 33005KT 10SM CLR 12/08 A2988 RMK AO2 SLP120 T01220083 53024
0174720407004622023110803567+39928-074292FM-15+0025KMJX V0203105N001552200059N0160935N5+01005+00725101255ADDGA1005+999999999GD10991+9999999GF100991999999999999999999MA1101225100925REMMET09011/07/23 22:56:02 METAR KMJX 080356Z 31003KT 10SM CLR 10/07 A2989 RMK AO2 SLP125 T01000072
0210720407004622023110804567+39928-074292FM-15+0025KMJX V0203105N003652200059N0160935N5+01065+00615101335ADDGA1005+999999999GD10991+9999999GF100991999999999999999999KA1240M+01831KA2240N+00611MA1101295100995REMMET10011/07/23 23:56:02 METAR KMJX 080456Z 31007KT 10SM CLR 11/06 A2991 RMK AO2 SLP133 T01060061 401830061
0232720407004622023110805567+39928-074292FM-15+0025KMJX V0203305N002152200059N0160935N5+00945+00505101355ADDGA1005+999999999GD10991+9999999GF100991999999999999999999KA1060M+01331KA2060N+00781MA1101325101025MD1190159+9999REMMET10811/08/23 00:56:02 METAR KMJX 080556Z 33004KT 10SM CLR 09/05 A2992 RMK AO2 SLP135 T00940050 10133 20078 51015
0174720407004622023110806567+39928-074292FM-15+0025KMJX V0203205N002652200059N0160935N5+00895+00395101405ADDGA1005+999999999GD10991+9999999GF100991999999999999999999MA1101355101055REMMET09011/08/23 01:56:02 METAR KMJX 080656Z 32005KT 10SM CLR 09/04 A2993 RMK AO2 SLP140 T00890039
0174720407004622023110807567+39928-074292FM-15+0025KMJX V0203105N002652200059N0160935N5+00725+00335101445ADDGA1005+999999999GD10991+9999999GF100991999999999999999999MA1101425101125REMMET09011/08/23 02:56:02 METAR KMJX 080756Z 31005KT 10SM CLR 07/03 A2995 RMK AO2 SLP144 T00720033
0194720407004622023110808567+39928-074292FM-15+0025KMJX V0203105N002652200059N0160935N5+00725+00285101545ADDGA1005+999999999GD10991+9999999GF100991999999999999999999MA1101495101195MD1390199+9999REMMET09611/08/23 03:56:02 METAR KMJX 080856Z 31005KT 10SM CLR 07/03 A2997 RMK AO2 SLP154 T00720028 53019
0174720407004622023110809567+39928-074292FM-15+0025KMJX V0203005N002152200059N0160935N5+00615+00225101635ADDGA1005+999999999GD10991+9999999GF100991999999999999999999MA1101595101295REMMET09011/08/23 04:56:02 METAR KMJX 080956Z 30004KT 10SM CLR 06/02 A3000 RMK AO2 SLP163 T00610022
0174720407004622023110810567+39928-074292FM-15+0025KMJX V0203405N001552200059N0160935N5+00565+00225101715ADDGA1005+999999999GD10991+9999999GF100991999999999999999999MA1101695101395REMMET09011/08/23 05:56:02 METAR KMJX 081056Z 34003KT 10SM CLR 06/02 A3003 RMK AO2 SLP171 T00560022
0239720407004622023110811567+39928-074292FM-15+0025KMJX V0203305N002152200059N0160935N5+00175+00065101815ADDGA1005+999999999GD10991+9999999GF100991999999999999999999KA1060M+00941KA2060N+00171MA1101765101465MD1390269+9999REMMET11511/08/23 06:56:02 METAR KMJX 081156Z 33004KT 10SM CLR 02/01 A3005 RMK AO2 SLP181 T00170006 10094 20017 53026 FZRANO
0174720407004622023110812567+39928-074292FM-15+0025KMJX V0203405N004652200059N0160935N5+00675+00175101915ADDGA1005+999999999GD10991+9999999GF100991999999999999999999MA1101905101595REMMET09011/08/23 07:56:02 METAR KMJX 081256Z 34009KT 10SM CLR 07/02 A3009 RMK AO2 SLP191 T00670017
0175720407004622023110813567+39928-074292FM-15+0025KMJX V0203405N006252200059N0160935N5+00835-00065101975ADDGA1005+999999999GD10991+9999999GF100991999999999999999999MA1101935101635REMMET09111/08/23 08:56:02 METAR KMJX 081356Z 34012KT 10SM CLR 08/M01 A3010 RMK AO2 SLP197 T00831006
0206720407004622023110814567+39928-074292FM-15+0025KMJX V0203205N005752200059N0160935N5+00895-00115102045ADDGA1005+999999999GD10991+9999999GF100991999999999999999999MA1102005101705MD1190249+9999OC100825REMMET10011/08/23 09:56:02 METAR KMJX 081456Z 32011G16KT 10SM CLR 09/M01 A3012 RMK AO2 SLP204 T00891011 51024
0186720407004622023110815567+39928-074292FM-15+0025KMJX V0203505N005152200059N0160935N5+00945-00225102045ADDGA1005+999999999GD10991+9999999GF100991999999999999999999MA1102005101705OC100725REMMET09411/08/23 10:56:02 METAR KMJX 081556Z 35010G14KT 10SM CLR 09/M02 A3012 RMK AO2 SLP204 T00941022
0175720407004622023110816567+39928-074292FM-15+0025KMJX V0203405N003652200059N0160935N5+01065-00175101965ADDGA1005+999999999GD10991+9999999GF100991999999999999999999MA1101935101635REMMET09111/08/23 11:56:02 METAR KMJX 081656Z 34007KT 10SM CLR 11/M02 A3010 RMK AO2 SLP196 T01061017
0233720407004622023110817567+39928-074292FM-15+0025KMJX V0203505N004152200059N0160935N5+01175-00335101925ADDGA1005+999999999GD10991+9999999GF100991999999999999999999KA1060M+01171KA2060N+00171MA1101905101595MD1890129+9999REMMET10911/08/23 12:56:02 METAR KMJX 081756Z 35008KT 10SM CLR 12/M03 A3009 RMK AO2 SLP192 T01171033 10117 20017 58012
0175720407004622023110819567+39928-074292FM-15+0025KMJX V0203405N003152200059N0160935N5+01175-00395101875ADDGA1005+999999999GD10991+9999999GF100991999999999999999999MA1101835101535REMMET09111/08/23 14:56:02 METAR KMJX 081956Z 34006KT 10SM CLR 12/M04 A3007 RMK AO2 SLP187 T01171039
0195720407004622023110820567+39928-074292FM-15+0025KMJX V0209999C000052200059N0160935N5+01115-00445101895ADDGA1005+999999999GD10991+9999999GF100991999999999999999999MA1101865101565MD1590039+9999REMMET09711/08/23 15:56:02 METAR KMJX 082056Z 00000KT 10SM CLR 11/M04 A3008 RMK AO2 SLP189 T01111044 55003
0174720407004622023110821567+39928-074292FM-15+0025KMJX V0209999C000052200059N0160935N5+00675+00175101955ADDGA1005+999999999GD10991+9999999GF100991999999999999999999MA1101905101595REMMET09011/08/23 16:56:02 METAR KMJX 082156Z 00000KT 10SM CLR 07/02 A3009 RMK AO2 SLP195 T00670017
0175720407004622023110822567+39928-074292FM-15+0025KMJX V0209999C000052200059N0160935N5+00335-00065101985ADDGA1005+999999999GD10991+9999999GF100991999999999999999999MA1101935101635REMMET09111/08/23 17:56:02 METAR KMJX 082256Z 00000KT 10SM CLR 03/M01 A3010 RMK AO2 SLP198 T00331006
0240720407004622023110823567+39928-074292FM-15+0025KMJX V0209999C000052200059N0160935N5+00175-00225102005ADDGA1005+999999999GD10991+9999999GF100991999999999999999999KA1060M+01221KA2060N+00171MA1101965101665MD1190109+9999REMMET11611/08/23 18:56:02 METAR KMJX 082356Z 00000KT 10SM CLR 02/M02 A3011 RMK AO2 SLP200 T00171022 10122 20017 51010 FZRANO
0182720407004622023110900567+39928-074292FM-15+0025KMJX V0209999C000052200059N0160935N5+00065-00285101955ADDGA1005+999999999GD10991+9999999GF100991999999999999999999MA1101905101595REMMET09811/08/23 19:56:01 METAR KMJX 090056Z 00000KT 10SM CLR 01/M03 A3009 RMK AO2 SLP195 T00061028 FZRANO
0182720407004622023110901567+39928-074292FM-15+0025KMJX V0209999C000052200059N0160935N5+00005-00285101935ADDGA1005+999999999GD10991+9999999GF100991999999999999999999MA1101905101595REMMET09811/08/23 20:56:01 METAR KMJX 090156Z 00000KT 10SM CLR 00/M03 A3009 RMK AO2 SLP193 T00001028 FZRANO
0203720407004622023110902567+39928-074292FM-15+0025KMJX V0209999C000052200059N0160935N5-00065-00225101895ADDGA1005+999999999GD10991+9999999GF100991999999999999999999MA1101835101535MD1690129+9999REMMET10511/08/23 21:56:01 METAR KMJX 090256Z 00000KT 10SM CLR M01/M02 A3007 RMK AO2 SLP189 T10061022 56012 FZRANO
0183720407004622023110903567+39928-074292FM-15+0025KMJX V0209999C000052200059N0160935N5-00115-00285101865ADDGA1005+999999999GD10991+9999999GF100991999999999999999999MA1101835101535REMMET09911/08/23 22:56:01 METAR KMJX 090356Z 00000KT 10SM CLR M01/M03 A3007 RMK AO2 SLP186 T10111028 FZRANO
0219720407004622023110904567+39928-074292FM-15+0025KMJX V0209999C000052200059N0160935N5-00175-00335101815ADDGA1005+999999999GD10991+9999999GF100991999999999999999999KA1240M+01221KA2240N-00221MA1101765101465REMMET10911/08/23 23:56:02 METAR KMJX 090456Z 00000KT 10SM CLR M02/M03 A3005 RMK AO2 SLP181 T10171033 401221022 FZRANO
0303720407004622023110905567+39928-074292FM-15+0025KMJX V0209999C00005018295MN0160935N5+00115-00175101775ADDGA1075+018295999GA2085+022865999GD13991+0182959GD24991+0228659GE19AGL   +99999+99999GF199999999999018291999999KA1060M+00281KA2060N-00221MA1101735101435MD1890129+9999REMMET12611/09/23 00:56:02 METAR KMJX 090556Z 00000KT 10SM BKN060 OVC075 01/M02 A3004 RMK AO2 SLP177 T00111017 10028 21022 58012 FZRANO
0199720407004622023110906567+39928-074292FM-15+0025KMJX V0209999C00005019815MN0160935N5+00335+00005101705ADDGA1085+019815999GD14991+0198159GE19AGL   +99999+99999GF199999999999019811999999MA1101665101365REMMET09311/09/23 01:56:02 METAR KMJX 090656Z 00000KT 10SM OVC065 03/00 A3002 RMK AO2 SLP170 T00330000
0199720407004622023110907567+39928-074292FM-15+0025KMJX V0209999C00005018295MN0160935N5+00335+00005101625ADDGA1085+018295999GD14991+0182959GE19AGL   +99999+99999GF199999999999018291999999MA1101595101295REMMET09311/09/23 02:56:02 METAR KMJX 090756Z 00000KT 10SM OVC060 03/00 A3000 RMK AO2 SLP162 T00330000
0219720407004622023110908567+39928-074292FM-15+0025KMJX V0209999C00005016765MN0160935N5+00445+00115101535ADDGA1085+016765999GD14991+0167659GE19AGL   +99999+99999GF199999999999016761999999MA1101495101195MD1890239+9999REMMET09911/09/23 03:56:02 METAR KMJX 090856Z 00000KT 10SM OVC055 04/01 A2997 RMK AO2 SLP153 T00440011 58023
0237720407004622023110909567+39928-074292FM-15+0025KMJX V0209999C00005015245MN0160935N5+00675+00335101485ADDGA1025+013725999GA2085+015245999GD11991+0137259GD24991+0152459GE19AGL   +99999+99999GF199999999999013721999999MA1101465101165REMMET10011/09/23 04:56:02 METAR KMJX 090956Z 00000KT 10SM FEW045 OVC050 07/03 A2996 RMK AO2 SLP148 T00670033
0237720407004622023110910567+39928-074292FM-15+0025KMJX V0201405N00265009455MN0160935N5+00945+00565101375ADDGA1075+009455999GA2085+011585999GD13991+0094559GD24991+0115859GE19AGL   +99999+99999GF199999999999009451999999MA1101325101025REMMET10011/09/23 05:56:02 METAR KMJX 091056Z 14005KT 10SM BKN031 OVC038 09/06 A2992 RMK AO2 SLP137 T00940056
0220720407004622023110911087+39928-074292FM-15+0025KMJX V0201505N00265008845MN0160935N5+01005+00605999999ADDGA1075+008845999GA2085+010365999GD13991+0088459GD24991+0103659GE19AGL   +99999+99999GF199999999999008841999999MA1101295100995REMMET08311/09/23 06:08:02 METAR KMJX 091108Z 15005KT 10SM BKN029 OVC034 10/06 A2991 RMK AO2
0257720407004622023110911567+39928-074292FM-15+0025KMJX V0201505N00315008235MN0160935N5+01175+00785101275ADDGA1085+008235999GD14991+0082359GE19AGL   +99999+99999GF199999999999008231999999KA1060M+01171KA2060N+00061MA1101225100925MD1890279+9999REMMET11111/09/23 06:56:02 METAR KMJX 091156Z 15006KT 10SM OVC027 12/08 A2989 RMK AO2 SLP127 T01170078 10117 20006 58027
0220720407004622023110912227+39928-074292FM-15+0025KMJX V0209999C00005009455MN0160935N5+01205+00905999999ADDGA1075+009455999GA2075+019815999GD13991+0094559GD23991+0198159GE19AGL   +99999+99999GF199999999999009451999999MA1101255100955REMMET08311/09/23 07:22:02 METAR KMJX 091222Z 00000KT 10SM BKN031 BKN065 12/09 A2990 RMK AO2
0258720407004622023110912377+39928-074292FM-15+0025KMJX V0209999C00005008235MN0160935N5+01205+00905999999ADDGA1075+008235999GA2075+009755999GA3085+019815999GD13991+0082359GD23991+0097559GD34991+0198159GE19AGL   +99999+99999GF199999999999008231999999MA1101255100955REMMET09011/09/23 07:37:02 METAR KMJX 091237Z 00000KT 10SM BKN027 BKN032 OVC065 12/09 A2990 RMK AO2
0199720407004622023110912567+39928-074292FM-15+0025KMJX V0209999C00005007625MN0160935N5+01285+00945101285ADDGA1085+007625999GD14991+0076259GE19AGL   +99999+99999GF199999999999007621999999MA1101255100955REMMET09311/09/23 07:56:02 METAR KMJX 091256Z 00000KT 10SM OVC025 13/09 A2990 RMK AO2 SLP128 T01280094
0199720407004622023110913567+39928-074292FM-15+0025KMJX V0201705N00215007015MN0160935N5+01505+01175101145ADDGA1075+007015999GD13991+0070159GE19AGL   +99999+99999GF199999999999007011999999MA1101125100825REMMET09311/09/23 08:56:02 METAR KMJX 091356Z 17004KT 10SM BKN023 15/12 A2986 RMK AO2 SLP114 T01500117
0219720407004622023110914567+39928-074292FM-15+0025KMJX V0202105V00465005795MN0160935N5+01725+01285101065ADDGA1085+005795999GD14991+0057959GE19AGL   +99999+99999GF199999999999005791999999MA1101025100725MD1890199+9999REMMET09911/09/23 09:56:02 METAR KMJX 091456Z 21009KT 10SM OVC019 17/13 A2983 RMK AO2 SLP106 T01720128 58019
0239720407004622023110915237+39928-074292FM-15+0025KMJX V0202205N005752200059N0160935N5+01905+01305999999ADDGA1045+005185999GA2045+030485999GD12991+0051859GD22991+0304859GE19AGL   +99999+99999GF104995999999005181999999MA1100985100685REMMET08311/09/23 10:23:02 METAR KMJX 091523Z 22011KT 10SM SCT017 SCT100 19/13 A2982 RMK AO2EQDD01      0ADE726
0174720407004622023110915567+39928-074292FM-15+0025KMJX V0202605N006252200059N0160935N5+02005+01335101025ADDGA1005+999999999GD10991+9999999GF100991999999999999999999MA1100985100685REMMET09011/09/23 10:56:02 METAR KMJX 091556Z 26012KT 10SM CLR 20/13 A2982 RMK AO2 SLP102 T02000133
0199720407004622023110916567+39928-074292FM-15+0025KMJX V0202505N00465036585MN0160935N5+02285+01335100925ADDGA1075+036585999GD13991+0365859GE19AGL   +99999+99999GF199999999999036581999999MA1100885100585REMMET09311/09/23 11:56:02 METAR KMJX 091656Z 25009KT 10SM BKN120 23/13 A2979 RMK AO2 SLP092 T02280133
0257720407004622023110917567+39928-074292FM-15+0025KMJX V0202905N00515030485MN0160935N5+02065+01335100945ADDGA1075+030485999GD13991+0304859GE19AGL   +99999+99999GF199999999999030481999999KA1060M+02281KA2060N+01111MA1100915100625MD1590139+9999REMMET11111/09/23 12:56:02 METAR KMJX 091756Z 29010KT 10SM BKN100 21/13 A2980 RMK AO2 SLP094 T02060133 10228 20111 55013
0237720407004622023110918567+39928-074292FM-15+0025KMJX V0203105N00465027435MN0160935N5+02175+01285100965ADDGA1075+027435999GA2075+033535999GD13991+0274359GD23991+0335359GE19AGL   +99999+99999GF199999999999027431999999MA1100915100625REMMET10011/09/23 13:56:02 METAR KMJX 091856Z 31009KT 10SM BKN090 BKN110 22/13 A2980 RMK AO2 SLP096 T02170128
0199720407004622023110919567+39928-074292FM-15+0025KMJX V0202905N00315033535MN0160935N5+02065+01285100985ADDGA1085+033535999GD14991+0335359GE19AGL   +99999+99999GF199999999999033531999999MA1100955100655REMMET09311/09/23 14:56:02 METAR KMJX 091956Z 29006KT 10SM OVC110 21/13 A2981 RMK AO2 SLP098 T02060128
0257720407004622023110920567+39928-074292FM-15+0025KMJX V0203205N00155033535MN0160935N5+01835+01285101065ADDGA1045+024385999GA2085+033535999GD12991+0243859GD24991+0335359GE19AGL   +99999+99999GF199999999999024381999999MA1101025100725MD1390129+9999REMMET10611/09/23 15:56:02 METAR KMJX 092056Z 32003KT 10SM SCT080 OVC110 18/13 A2983 RMK AO2 SLP106 T01830128 53012
0249720407004622023110921567+39928-074292FM-15+0025KMJX V0203205N00155030485MN0160935N5+01565+01225101125ADDAA101000021AU110020015AW1615GA1085+030485999GD14991+0304859GE19AGL   +99999+99999GF199999999999030481999999MA1101085100785MW1615REMMET10911/09/23 16:56:02 METAR KMJX 092156Z 32003KT 10SM -RA OVC100 16/12 A2985 RMK AO2 RAB22 SLP112 P0000 T01560122
0260720407004622023110922567+39928-074292FM-15+0025KMJX V0209999C00005030485MN0160935N5+01445+01335101245ADDAA101000021GA1075+030485999GA2075+033535999GD13991+0304859GD23991+0335359GE19AGL   +99999+99999GF199999999999030481999999MA1101225100925REMMET11211/09/23 17:56:02 METAR KMJX 092256Z 00000KT 10SM BKN100 BKN110 14/13 A2989 RMK AO2 RAE00 SLP124 P0000 T01440133
0198720407004622023111000567+39928-074292FM-15+0025KMJX V0209999C00005030485MN0128755N5+01115+01115101405ADDGA1075+030485999GD13991+0304859GE19AGL   +99999+99999GF199999999999030481999999MA1101395101095REMMET09211/09/23 19:56:01 METAR KMJX 100056Z 00000KT 8SM BKN100 11/11 A2994 RMK AO2 SLP140 T01110111
0232720407004622023111001337+39928-074292FM-15+0025KMJX V0209999C000052200059N0028165V5+01005+01005999999ADDAU100001015AW1105GA1045+033535999GD12991+0335359GE19AGL   +99999+99999GF104995999999033531999999MA1101395101095REMMET09011/09/23 20:33:01 METAR KMJX 100133Z 00000KT 1 3/4SM BR SCT110 10/10 A2994 RMK AO2 VIS 1V5EQDD01      0ADE726
0203720407004622023111001407+39928-074292FM-15+0025KMJX V0209999C00005033535MN0012075N5+01005+00905999999ADDAU100001015AW1105GA1075+033535999GD13991+0335359GE19AGL   +99999+99999GF199999999999033531999999MA1101425101125REMMET08011/09/23 20:40:01 METAR KMJX 100140Z 00000KT 3/4SM BR BKN110 10/09 A2995 RMK AO2
0205720407004622023111001477+39928-074292FM-15+0025KMJX V0209999C00005033535MN0020125N5+00905+00905999999ADDAU100001015AW1105GA1075+033535999GD13991+0335359GE19AGL   +99999+99999GF199999999999033531999999MA1101425101125REMMET08211/09/23 20:47:01 METAR KMJX 100147Z 00000KT 1 1/4SM BR BKN110 09/09 A2995 RMK AO2
0201720407004622023111001527+39928-074292FM-15+0025KMJX V0209999C00005033535MN0048285N5+00905+00905999999ADDAU100001015AW1105GA1075+033535999GD13991+0335359GE19AGL   +99999+99999GF199999999999033531999999MA1101425101125REMMET07811/09/23 20:52:01 METAR KMJX 100152Z 00000KT 3SM BR BKN110 09/09 A2995 RMK AO2
0198720407004622023111001567+39928-074292FM-15+0025KMJX V0209999C00005033535MN0144845N5+00945+00895101465ADDGA1075+033535999GD13991+0335359GE19AGL   +99999+99999GF199999999999033531999999MA1101425101125REMMET09211/09/23 20:56:01 METAR KMJX 100156Z 00000KT 9SM BKN110 09/09 A2995 RMK AO2 SLP146 T00940089
0167720407004622023111002566+39928-074292FM-15+0025KMJX V0209999C000052200059N0128755N5+00785+00785101545ADDGA1005+999999999GD10991+9999999MA1101495101195MD1390209+9999REMMET09511/09/23 21:56:01 METAR KMJX 100256Z 00000KT 8SM CLR 08/08 A2997 RMK AO2 SLP154 T00780078 53020
0174720407004622023111003567+39928-074292FM-15+0025KMJX V0203005N002152200059N0160935N5+00835+00785101595ADDGA1005+999999999GD10991+9999999GF100991999999999999999999MA1101565101265REMMET09011/09/23 22:56:01 METAR KMJX 100356Z 30004KT 10SM CLR 08/08 A2999 RMK AO2 SLP159 T00830078
0210720407004622023111004567+39928-074292FM-15+0025KMJX V0203605N002652200059N0160935N5+01065+00895101655ADDGA1005+999999999GD10991+9999999GF100991999999999999999999KA1240M+02281KA2240N-00171MA1101635101325REMMET10011/09/23 23:56:02 METAR KMJX 100456Z 36005KT 10SM CLR 11/09 A3001 RMK AO2 SLP165 T01060089 402281017
002772040700462202311100459O+39928-074292SOD  +0025KMJX V020999999999999999999999999999+99999+99999999999ADDAT1AU16RA  5AT2AU13BR  5
0232720407004622023111005567+39928-074292FM-15+0025KMJX V0203405N001552200059N0160935N5+00835+00725101725ADDGA1005+999999999GD10991+9999999GF100991999999999999999999KA1060M+01281KA2060N+00721MA1101695101395MD1390189+9999REMMET10811/10/23 00:56:02 METAR KMJX 100556Z 34003KT 10SM CLR 08/07 A3003 RMK AO2 SLP172 T00830072 10128 20072 53018
0173720407004622023111006567+39928-074292FM-15+0025KMJX V0209999C000052200059N0128755N5+00505+00445101795ADDGA1005+999999999GD10991+9999999GF100991999999999999999999MA1101765101465REMMET08911/10/23 01:56:02 METAR KMJX 100656Z 00000KT 8SM CLR 05/04 A3005 RMK AO2 SLP179 T00500044
0174720407004622023111007567+39928-074292FM-15+0025KMJX V0209999C000052200059N0160935N5+00445+00395101875ADDGA1005+999999999GD10991+9999999GF100991999999999999999999MA1101835101535REMMET09011/10/23 02:56:02 METAR KMJX 100756Z 00000KT 10SM CLR 04/04 A3007 RMK AO2 SLP187 T00440039
0194720407004622023111008567+39928-074292FM-15+0025KMJX V0209999C000052200059N0160935N5+00565+00505101865ADDGA1005+999999999GD10991+9999999GF100991999999999999999999MA1101835101535MD1090149+9999REMMET09611/10/23 03:56:02 METAR KMJX 100856Z 00000KT 10SM CLR 06/05 A3007 RMK AO2 SLP186 T00560050 50014
0218720407004622023111009567+39928-074292FM-15+0025KMJX V0209999C000052200059N0160935N5+00615+00565101935ADDGA1045+036585999GD12991+0365859GE19AGL   +99999+99999GF104995999999036581999999MA1101905101595REMMET09311/10/23 04:56:02 METAR KMJX 100956Z 00000KT 10SM SCT120 06/06 A3009 RMK AO2 SLP193 T00610056EQDD01      0ADE726
0199720407004622023111010567+39928-074292FM-15+0025KMJX V0209999C00005033535MN0160935N5+00675+00615102025ADDGA1085+033535999GD14991+0335359GE19AGL   +99999+99999GF199999999999033531999999MA1102005101705REMMET09311/10/23 05:56:02 METAR KMJX 101056Z 00000KT 10SM OVC110 07/06 A3012 RMK AO2 SLP202 T00670061
0257720407004622023111011567+39928-074292FM-15+0025KMJX V0209999C00005030485MN0160935N5+00725+00675102055ADDGA1085+030485999GD14991+0304859GE19AGL   +99999+99999GF199999999999030481999999KA1060M+00831KA2060N+00391MA1102035101735MD1190209+9999REMMET11111/10/23 06:56:02 METAR KMJX 101156Z 00000KT 10SM OVC100 07/07 A3013 RMK AO2 SLP205 T00720067 10083 20039 51020
0237720407004622023111012567+39928-074292FM-15+0025KMJX V0202905N00265027435MN0160935N5+00835+00565102175ADDGA1025+021345999GA2085+027435999GD11991+0213459GD24991+0274359GE19AGL   +99999+99999GF199999999999021341999999MA1102135101835REMMET10011/10/23 07:56:02 METAR KMJX 101256Z 29005KT 10SM FEW070 OVC090 08/06 A3016 RMK AO2 SLP217 T00830056
0287720407004622023111013567+39928-074292FM-15+0025KMJX V0202905N00215014335MN0160935N5+00835+00615102195ADDAA101000395AU110020015AW1615GA1075+014335999GA2085+018295999GD13991+0143359GD24991+0182959GE19AGL   +99999+99999GF199999999999014331999999MA1102175101875MW1615REMMET11611/10/23 08:56:02 METAR KMJX 101356Z 29004KT 10SM -RA BKN047 OVC060 08/06 A3017 RMK AO2 RAB13 SLP219 P0001 T00830061
0299720407004622023111014567+39928-074292FM-15+0025KMJX V0202205N00215014945MN0160935N5+00785+00675102195ADDAA101001395AA203001591AU110020015AW1615GA1085+014945999GD14991+0149459GE19AGL   +99999+99999GF199999999999014941999999MA1102175101875MD1190149+9999MW1615REMMET11511/10/23 09:56:02 METAR KMJX 101456Z 22004KT 10SM -RA OVC049 08/07 A3017 RMK AO2 SLP219 P0005 60006 T00780067 51014EQDQ01  00158PRCP03
0243720407004622023111015567+39928-074292FM-15+0025KMJX V0202505N00315013725MN0160935N5+00785+00675102225ADDAA101000895AU110020015AW1615GA1085+013725999GD14991+0137259GE19AGL   +99999+99999GF199999999999013721999999MA1102205101905MW1615REMMET10311/10/23 10:56:02 METAR KMJX 101556Z 25006KT 10SM -RA OVC045 08/07 A3018 RMK AO2 SLP222 P0003 T00780067
0281720407004622023111016567+39928-074292FM-15+0025KMJX V0202305N00365011895MN0160935N5+00785+00675102285ADDAA101001095AU110020015AW1615GA1075+011895999GA2085+014635999GD13991+0118959GD24991+0146359GE19AGL   +99999+99999GF199999999999011891999999MA1102245101935MW1615REMMET11011/10/23 11:56:02 METAR KMJX 101656Z 23007KT 10SM -RA BKN039 OVC048 08/07 A3019 RMK AO2 SLP228 P0004 T00780067
0375720407004622023111017567+39928-074292FM-15+0025KMJX V0202705N00215018295MN0160935N5+00785+00675102185ADDAA101000595AA206003891AU110020015AW1615GA1045+014025999GA2085+018295999GD12991+0140259GD24991+0182959GE19AGL   +99999+99999GF199999999999014021999999KA1060M+00941KA2060N+00721MA1102135101835MD1890019+9999MW1615REMMET13411/10/23 12:56:02 METAR KMJX 101756Z 27004KT 10SM -RA SCT046 OVC060 08/07 A3016 RMK AO2 SLP218 P0002 60015 T00780067 10094 20072 58001EQDQ01  00388PRCP06
0243720407004622023111018567+39928-074292FM-15+0025KMJX V0202105N00265021345MN0160935N5+00785+00675102105ADDAA101000395AU110020015AW1615GA1085+021345999GD14991+0213459GE19AGL   +99999+99999GF199999999999021341999999MA1102075101765MW1615REMMET10311/10/23 13:56:02 METAR KMJX 101856Z 21005KT 10SM -RA OVC070 08/07 A3014 RMK AO2 SLP210 P0001 T00780067
0281720407004622023111019567+39928-074292FM-15+0025KMJX V0202205N00365021345MN0160935N5+00785+00675102075ADDAA101000021AU110020015AW1615GA1045+016765999GA2085+021345999GD12991+0167659GD24991+0213459GE19AGL   +99999+99999GF199999999999016761999999MA1102035101735MW1615REMMET11011/10/23 14:56:02 METAR KMJX 101956Z 22007KT 10SM -RA SCT055 OVC070 08/07 A3013 RMK AO2 SLP207 P0000 T00780067
001572040700462202311110459O+39928-074292SOD  +0025KMJX V020999999999999999999999999999+99999+99999999999ADDAT1AU16RA  5
0284720407004622023111105567+39928-074292FM-15+0025KMJX V0202605N002652200059N0128755N5+00395+00335102385ADDAA101000395AA206000391GA1005+999999999GD10991+9999999GF100991999999999999999999KA1060M+00561KA2060N+00331MA1102345102035MD1190099+9999REMMET11911/11/23 00:56:02 METAR KMJX 110556Z 26005KT 8SM CLR 04/03 A3022 RMK AO2 SLP238 P0001 60001 T00390033 10056 20033 51009EQDQ01  00028PRCP06
0188720407004622023111111417+39928-074292FM-15+0025KMJX V0209999C000052200059N0040235N5+00005-00105999999ADDAU100001015AW1105GA1005+999999999GD10991+9999999GF100991999999999999999999MA1102575102275REMMET08711/11/23 06:41:02 METAR KMJX 111141Z 00000KT 2 1/2SM BR CLR 00/M01 A3029 RMK AO2 FZRANO
0296720407004622023111111567+39928-074292FM-15+0025KMJX V0209999C000052200059N0032195N5-00065-00065102635ADDAA124004391AU100001015AW1105GA1005+999999999GD10991+9999999GF100991999999999999999999KA1060M+00391KA2060N-00061MA1102575102275MD1190179+9999REMMET12511/11/23 06:56:02 METAR KMJX 111156Z 00000KT 2SM BR CLR M01/M01 A3029 RMK AO2 SLP263 70017 T10061006 10039 21006 51017 FZRANOEQDQ01  00438PRCP24
001572040700462202311120459O+39928-074292SOD  +0025KMJX V020999999999999999999999999999+99999+99999999999ADDAT1AU13BR  5
0182720407004622023111206567+39928-074292FM-15+0025KMJX V0203305N003152200059N0160935N5+00225-00175103185ADDGA1005+999999999GD10991+9999999GF100991999999999999999999MA1103155102845REMMET09811/12/23 01:56:02 METAR KMJX 120656Z 33006KT 10SM CLR 02/M02 A3046 RMK AO2 SLP318 T00221017 FZRANO
0194720407004622023111214567+39928-074292FM-15+0025KMJX V0200205N004652200059N0160935N5+00675+00065103305ADDGA1005+999999999GD10991+9999999GF100991999999999999999999MA1103255102955MD1090029+9999REMMET09611/12/23 09:56:02 METAR KMJX 121456Z 02009KT 10SM CLR 07/01 A3049 RMK AO2 SLP330 T00670006 50002
0202720407004622023111306567+39928-074292FM-15+0025KMJX V0209999C000052200059N0160935N5-00506-00615103125ADDGA1005+999999999GD10991+9999999GF100991999999999999999999MA1103085102785REMMET09911/13/23 01:56:02 METAR KMJX 130656Z 00000KT 10SM CLR M05/M06 A3044 RMK AO2 SLP312 T10501061 FZRANOEQDR01  -0507TMP028
0181720407004622023111407567+39928-074292FM-15+0025KMJX V0202705N002652200059N0160935N5+00225+00175102225ADDGA1005+999999999GD10991+9999999GF100991999999999999999999MA1102175101875REMMET09711/14/23 02:56:02 METAR KMJX 140756Z 27005KT 10SM CLR 02/02 A3017 RMK AO2 SLP222 T00220017 FZRANO
0206720407004622023111408567+39928-074292FM-15+0025KMJX V0202705N002652200059N0160935N5+00175+00065102195ADDGA1005+999999999GD10991+9999999GF100991999999999999999999MA1102135101835MD1890059+9999REMMET10811/14/23 03:56:02 METAR KMJX 140856Z 27005KT 10SM CLR 02/01 A3016 RMK AO2 SLP219 T00170006 58005 FZRANO TSNO
0226720407004622023111414567+39928-074292FM-15+0025KMJX V0203305N006252200059N0160935N5+01065+00005102645ADDGA1005+999999999GD10991+9999999GF100991999999999999999999MA1102615102305MD1190219+9999OD149901441290REMMET11411/14/23 09:56:02 METAR KMJX 141456Z 33012KT 10SM CLR 11/00 A3030 RMK AO2 PK WND 29028/1441 SLP264 T01060000 51021
0174720407004622023111516567+39928-074292FM-15+0025KMJX V0209999C000052200059N0160935N5+01175+00175103125ADDGA1005+999999999GD10991+9999999GF100991999999999999999999MA1103085102785REMMET09011/15/23 11:56:02 METAR KMJX 151656Z 00000KT 10SM CLR 12/02 A3044 RMK AO2 SLP312 T01170017
0174720407004622023111519567+39928-074292FM-15+0025KMJX V0202105N003152200059N0160935N5+01225+00175102845ADDGA1005+999999999GD10991+9999999GF100991999999999999999999MA1102815102515REMMET09011/15/23 14:56:02 METAR KMJX 151956Z 21006KT 10SM CLR 12/02 A3036 RMK AO2 SLP284 T01220017
0173720407004622023111610567+39928-074292FM-15+0025KMJX V0202605N002152200059N0144845N5+00335+00335102595ADDGA1005+999999999GD10991+9999999GF100991999999999999999999MA1102545102245REMMET08911/16/23 05:56:02 METAR KMJX 161056Z 26004KT 9SM CLR 03/03 A3028 RMK AO2 SLP259 T00330033
0256720407004622023111611567+39928-074292FM-15+0025KMJX V0202505N002152200059N0048285N5+00335+00335102625ADDAU100001015AW1105GA1005+999999999GD10991+9999999GF100991999999999999999999KA1060M+00671KA2060N+00061MA1102575102275MD1390059+9999REMMET11511/16/23 06:56:02 METAR KMJX 161156Z 25004KT 3SM BR CLR 03/03 A3029 RMK AO2 SLP262 T00330033 10067 20006 53005 TSNO
001572040700462202311170459O+39928-074292SOD  +0025KMJX V020999999999999999999999999999+99999+99999999999ADDAT1AU13BR  5
0240720407004622023111705567+39928-074292FM-15+0025KMJX V0209999C000052200059N0160935N5+00115-00065102245ADDGA1005+999999999GD10991+9999999GF100991999999999999999999KA1060M+00611KA2060N+00061MA1102205101905MD1890079+9999REMMET11611/17/23 00:56:01 METAR KMJX 170556Z 00000KT 10SM CLR 01/M01 A3018 RMK AO2 SLP224 T00111006 10061 20006 58007 FZRANO
0181720407004622023111706567+39928-074292FM-15+0025KMJX V0209999C000052200059N0160935N5+00115+00005102195ADDGA1005+999999999GD10991+9999999GF100991999999999999999999MA1102175101875REMMET09711/17/23 01:56:01 METAR KMJX 170656Z 00000KT 10SM CLR 01/00 A3017 RMK AO2 SLP219 T00110000 FZRANO
0181720407004622023111707567+39928-074292FM-15+0025KMJX V0209999C000052200059N0160935N5+00225+00065102175ADDGA1005+999999999GD10991+9999999GF100991999999999999999999MA1102135101835REMMET09711/17/23 02:56:01 METAR KMJX 170756Z 00000KT 10SM CLR 02/01 A3016 RMK AO2 SLP217 T00220006 FZRANO
0201720407004622023111708567+39928-074292FM-15+0025KMJX V0209999C000052200059N0160935N5+00225+00065102125ADDGA1005+999999999GD10991+9999999GF100991999999999999999999MA1102105101805MD1690139+9999REMMET10311/17/23 03:56:01 METAR KMJX 170856Z 00000KT 10SM CLR 02/01 A3015 RMK AO2 SLP212 T00220006 56013 FZRANO
0200720407004622023111709567+39928-074292FM-15+0025KMJX V0209999C000052200059N0096565N5+00225+00115102135ADDAU100001015AW1105GA1005+999999999GD10991+9999999GF100991999999999999999999MA1102105101805REMMET09911/17/23 04:56:02 METAR KMJX 170956Z 00000KT 6SM BR CLR 02/01 A3015 RMK AO2 SLP213 T00220011 FZRANO
0187720407004622023111710077+39928-074292FM-15+0025KMJX V0209999C000052200059N0024145N5+00205+00105999999ADDAU100001015AW1105GA1005+999999999GD10991+9999999GF100991999999999999999999MA1102105101805REMMET08611/17/23 05:07:02 METAR KMJX 171007Z 00000KT 1 1/2SM BR CLR 02/01 A3015 RMK AO2 FZRANO
0234720407004622023111710117+39928-074292FM-15+0025KMJX V0209999C000052200059N0012075N5+00205+00105999999ADDAA101000021AU120090015AU200001015AW1105AW2401AW3415GA1005+999999999GD10991+9999999GF100991999999999999999999MA1102105101805REMMET09911/17/23 05:11:02 METAR KMJX 171011Z 00000KT 3/4SM UP BR CLR 02/01 A3015 RMK AO2 UPB11 P0000 FZRANO
0236720407004622023111710207+39928-074292FM-15+0025KMJX V0209999C000052200059N0020125N5+00205+00105999999ADDAA101000021AU120090015AU200001015AW1105AW2401AW3415GA1005+999999999GD10991+9999999GF100991999999999999999999MA1102105101805REMMET10111/17/23 05:20:02 METAR KMJX 171020Z 00000KT 1 1/4SM UP BR CLR 02/01 A3015 RMK AO2 UPB11 P0000 FZRANO
0232720407004622023111710397+39928-074292FM-15+0025KMJX V0209999C000052200059N0064375N5+00205+00105999999ADDAA101000021AU120090015AU200001015AW1105AW2401AW3415GA1005+999999999GD10991+9999999GF100991999999999999999999MA1102075101765REMMET09711/17/23 05:39:02 METAR KMJX 171039Z 00000KT 4SM UP BR CLR 02/01 A3014 RMK AO2 UPB11 P0000 FZRANO
0216720407004622023111710437+39928-074292FM-15+0025KMJX V0209999C000052200059N0024145V5+00305+00205999999ADDAA101000021AU100001015AW1105GA1005+999999999GD10991+9999999GF100991999999999999999999MA1102075101765REMMET10411/17/23 05:43:02 METAR KMJX 171043Z 00000KT 1 1/2SM BR CLR 03/02 A3014 RMK AO2 VIS 1/2V5 UPB11E42 P0000
0245720407004622023111710547+39928-074292FM-15+0025KMJX V0209999C000052200059N0040235N5+00205+00105999999ADDAA101000021AU110020015AU200001015AW1105AW2615GA1005+999999999GD10991+9999999GF100991999999999999999999MA1102075101765MW1615REMMET11011/17/23 05:54:02 METAR KMJX 171054Z 00000KT 2 1/2SM -RA BR CLR 02/01 A3014 RMK AO2 UPB11E46RAB46 P0000 FZRANO
0239720407004622023111710567+39928-074292FM-15+0025KMJX V0209999C000052200059N0160935N5+00225+00115102115ADDAA101000021AU110020015AW1615GA1005+999999999GD10991+9999999GF100991999999999999999999MA1102075101765MW1615REMMET12111/17/23 05:56:02 METAR KMJX 171056Z 00000KT 10SM -RA CLR 02/01 A3014 RMK AO2 UPB11E46RAB46 SLP211 P0000 T00220011 FZRANO
0216720407004622023111711537+39928-074292FM-15+0025KMJX V0209999C000052200059N0160935N5+00205+00105999999ADDGA1045+000915999GD12991+0009159GE19AGL   +99999+99999GF104995999999000911999999MA1102075101765REMMET09111/17/23 06:53:02 METAR KMJX 171153Z 00000KT 10SM SCT003 02/01 A3014 RMK AO2 RAE1057 FZRANOEQDD01      0ADE726
0307720407004622023111711567+39928-074292FM-15+0025KMJX V0209999C00005000915MN0128755N5+00175+00115102135ADDAA106000021GA1075+000915999GD13991+0009159GE19AGL   +99999+99999GF199999999999000911999999KA1060M+00281KA2060N+00061MA1102105101805MD1390019+9999REMMET13111/17/23 06:56:02 METAR KMJX 171156Z 00000KT 8SM BKN003 02/01 A3015 RMK AO2 RAE1057 SLP213 60000 T00170011 10028 20006 53001 FZRANOEQDQ01  00008PRCP06
0221720407004622023111711597+39928-074292FM-15+0025KMJX V0209999C00005000915MN0008055V5+00205+00105999999ADDAU100002015AW1305GA1075+000915999GD13991+0009159GE19AGL   +99999+99999GF199999999999000911999999MA1102105101805REMMET09811/17/23 06:59:02 METAR KMJX 171159Z 00000KT 1/2SM FG BKN003 02/01 A3015 RMK AO2 VIS M1/4V5 FZRANO
0208720407004622023111712137+39928-074292FM-15+0025KMJX V0209999C00005000615MN0016095N5+00205+00205999999ADDAU100001015AW1105GA1075+000615999GD13991+0006159GE19AGL   +99999+99999GF199999999999000611999999MA1102105101805REMMET08511/17/23 07:13:02 METAR KMJX 171213Z 00000KT 1SM BR BKN002 02/02 A3015 RMK AO2 FZRANO
0212720407004622023111712167+39928-074292FM-15+0025KMJX V0209999C00005000615MN0040235N5+00205+00205999999ADDAU100001015AW1105GA1075+000615999GD13991+0006159GE19AGL   +99999+99999GF199999999999000611999999MA1102105101805REMMET08911/17/23 07:16:02 METAR KMJX 171216Z 00000KT 2 1/2SM BR BKN002 02/02 A3015 RMK AO2 FZRANO
0227720407004622023111712187+39928-074292FM-15+0025KMJX V0209999C000052200059N0064375N5+00205+00205999999ADDAU100001015AW1105GA1045+000615999GD12991+0006159GE19AGL   +99999+99999GF104995999999000611999999MA1102105101805REMMET08511/17/23 07:18:02 METAR KMJX 171218Z 00000KT 4SM BR SCT002 02/02 A3015 RMK AO2 FZRANOEQDD01      0ADE726
0174720407004622023111712567+39928-074292FM-15+0025KMJX V0202205N001552200059N0160935N5+00675+00615102135ADDGA1005+999999999GD10991+9999999GF100991999999999999999999MA1102105101805REMMET09011/17/23 07:56:02 METAR KMJX 171256Z 22003KT 10SM CLR 07/06 A3015 RMK AO2 SLP213 T00670061
0174720407004622023111713567+39928-074292FM-15+0025KMJX V0202105N003652200059N0160935N5+01565+01175102045ADDGA1005+999999999GD10991+9999999GF100991999999999999999999MA1102005101705REMMET09011/17/23 08:56:02 METAR KMJX 171356Z 21007KT 10SM CLR 16/12 A3012 RMK AO2 SLP204 T01560117
0194720407004622023111714567+39928-074292FM-15+0025KMJX V0202205N005152200059N0160935N5+01835+01115101955ADDGA1005+999999999GD10991+9999999GF100991999999999999999999MA1101935101635MD1890179+9999REMMET09611/17/23 09:56:02 METAR KMJX 171456Z 22010KT 10SM CLR 18/11 A3010 RMK AO2 SLP195 T01830111 58017
0185720407004622023111715567+39928-074292FM-15+0025KMJX V0202005N006752200059N0160935N5+01945+01065101805ADDGA1005+999999999GD10991+9999999GF100991999999999999999999MA1101765101465OC100885REMMET09311/17/23 10:56:02 METAR KMJX 171556Z 20013G17KT 10SM CLR 19/11 A3005 RMK AO2 SLP180 T01940106
0185720407004622023111716567+39928-074292FM-15+0025KMJX V0202005N007252200059N0160935N5+02005+01065101645ADDGA1005+999999999GD10991+9999999GF100991999999999999999999MA1101635101325OC101035REMMET09311/17/23 11:56:02 METAR KMJX 171656Z 20014G20KT 10SM CLR 20/11 A3001 RMK AO2 SLP164 T02000106
0243720407004622023111717567+39928-074292FM-15+0025KMJX V0201805N005752200059N0160935N5+02116+01175101525ADDGA1005+999999999GD10991+9999999GF100991999999999999999999KA1060M+02111KA2060N+00171MA1101495101195MD1690439+9999OC101085REMMET11111/17/23 12:56:02 METAR KMJX 171756Z 18011G21KT 10SM CLR 21/12 A2997 RMK AO2 SLP152 T02110117 10211 20017 56043
0185720407004622023111718567+39928-074292FM-15+0025KMJX V0201905N006252200059N0160935N5+02115+01175101465ADDGA1005+999999999GD10991+9999999GF100991999999999999999999MA1101425101125OC100885REMMET09311/17/23 13:56:02 METAR KMJX 171856Z 19012G17KT 10SM CLR 21/12 A2995 RMK AO2 SLP146 T02110117
0174720407004622023111719567+39928-074292FM-15+0025KMJX V0201905N004652200059N0160935N5+02005+01175101425ADDGA1005+999999999GD10991+9999999GF100991999999999999999999MA1101395101095REMMET09011/17/23 14:56:01 METAR KMJX 171956Z 19009KT 10SM CLR 20/12 A2994 RMK AO2 SLP142 T02000117
0194720407004622023111720567+39928-074292FM-15+0025KMJX V0201905N003152200059N0160935N5+01835+01175101405ADDGA1005+999999999GD10991+9999999GF100991999999999999999999MA1101355101055MD1690129+9999REMMET09611/17/23 15:56:01 METAR KMJX 172056Z 19006KT 10SM CLR 18/12 A2993 RMK AO2 SLP140 T01830117 56012
0218720407004622023111722567+39928-074292FM-15+0025KMJX V0201805N002152200059N0160935N5+01565+01225101335ADDGA1025+036585999GD11991+0365859GE19AGL   +99999+99999GF102995999999036581999999MA1101295100995REMMET09311/17/23 17:56:02 METAR KMJX 172256Z 18004KT 10SM FEW120 16/12 A2991 RMK AO2 SLP133 T01560122EQDD01      0ADE726
0276720407004622023111723567+39928-074292FM-15+0025KMJX V0201705N003152200059N0160935N5+01505+01225101285ADDGA1045+036585999GD12991+0365859GE19AGL   +99999+99999GF104995999999036581999999KA1060M+02111KA2060N+01501MA1101255100955MD1790129+9999REMMET11111/17/23 18:56:02 METAR KMJX 172356Z 17006KT 10SM SCT120 15/12 A2990 RMK AO2 SLP128 T01500122 10211 20150 57012EQDD01      0ADE726
0174720407004622023111800567+39928-074292FM-15+0025KMJX V0201905N003152200059N0160935N5+01445+01225101205ADDGA1005+999999999GD10991+9999999GF100991999999999999999999MA1101155100855REMMET09011/17/23 19:56:01 METAR KMJX 180056Z 19006KT 10SM CLR 14/12 A2987 RMK AO2 SLP120 T01440122
0174720407004622023111801567+39928-074292FM-15+0025KMJX V0201705N002152200059N0160935N5+01335+01175101145ADDGA1005+999999999GD10991+9999999GF100991999999999999999999MA1101125100825REMMET09011/17/23 20:56:01 METAR KMJX 180156Z 17004KT 10SM CLR 13/12 A2986 RMK AO2 SLP114 T01330117
0238720407004622023111802567+39928-074292FM-15+0025KMJX V0202005N002652200059N0160935N5+01445+01225101075ADDGA1025+036585999GD11991+0365859GE19AGL   +99999+99999GF102995999999036581999999MA1101055100755MD1690219+9999REMMET09911/17/23 21:56:01 METAR KMJX 180256Z 20005KT 10SM FEW120 14/12 A2984 RMK AO2 SLP107 T01440122 56021EQDD01      0ADE726
0174720407004622023111803567+39928-074292FM-15+0025KMJX V0202005N003152200059N0160935N5+01445+01225101005ADDGA1005+999999999GD10991+9999999GF100991999999999999999999MA1100985100685REMMET09011/17/23 22:56:01 METAR KMJX 180356Z 20006KT 10SM CLR 14/12 A2982 RMK AO2 SLP100 T01440122
0210720407004622023111804567+39928-074292FM-15+0025KMJX V0202105N003652200059N0160935N5+01445+01225100935ADDGA1005+999999999GD10991+9999999GF100991999999999999999999KA1240M+02111KA2240N+00061MA1100915100625REMMET10011/17/23 23:56:02 METAR KMJX 180456Z 21007KT 10SM CLR 14/12 A2980 RMK AO2 SLP093 T01440122 402110006
005172040700462202311180459O+39928-074292SOD  +0025KMJX V020999999999999999999999999999+99999+99999999999ADDAT1AU16RA  5AT2AU01FG  5AT3AU13BR  5AT4AU19UP  5
0314720407004622023111805567+39928-074292FM-15+0025KMJX V0202105N003652200059N0160935N5+01505+01285100845ADDGA1025+013415999GA2045+016765999GD11991+0134159GD22991+0167659GE19AGL   +99999+99999GF104995999999013411999999KA1060M+01501KA2060N+01281MA1100815100515MD1890229+9999REMMET11811/18/23 00:56:02 METAR KMJX 180556Z 21007KT 10SM FEW044 SCT055 15/13 A2977 RMK AO2 SLP084 T01500128 10150 20128 58022EQDD01      0ADE726
0174720407004622023111806567+39928-074292FM-15+0025KMJX V0201605N001552200059N0160935N5+01445+01225100785ADDGA1005+999999999GD10991+9999999GF100991999999999999999999MA1100755100455REMMET09011/18/23 01:56:02 METAR KMJX 180656Z 16003KT 10SM CLR 14/12 A2975 RMK AO2 SLP078 T01440122
0237720407004622023111807567+39928-074292FM-15+0025KMJX V0209999C00005030485MN0160935N5+01335+01225100725ADDGA1025+010675999GA2075+030485999GD11991+0106759GD23991+0304859GE19AGL   +99999+99999GF199999999999010671999999MA1100685100385REMMET10011/18/23 02:56:02 METAR KMJX 180756Z 00000KT 10SM FEW035 BKN100 13/12 A2973 RMK AO2 SLP072 T01330122
0295720407004622023111808567+39928-074292FM-15+0025KMJX V0209999C00005014635MN0160935N5+01225+01175100645ADDGA1025+012195999GA2075+014635999GA3075+018295999GD11991+0121959GD23991+0146359GD33991+0182959GE19AGL   +99999+99999GF199999999999012191999999MA1100615100315MD1890209+9999REMMET11311/18/23 03:56:02 METAR KMJX 180856Z 00000KT 10SM FEW040 BKN048 BKN060 12/12 A2971 RMK AO2 SLP064 T01220117 58020
0224720407004622023111809287+39928-074292FM-15+0025KMJX V0209999C000052200059N0028165N5+01105+01105999999ADDAU100001015AW1105GA1025+022865999GD11991+0228659GE19AGL   +99999+99999GF102995999999022861999999MA1100585100285REMMET08211/18/23 04:28:02 METAR KMJX 180928Z 00000KT 1 3/4SM BR FEW075 11/11 A2970 RMK AO2EQDD01      0ADE726
0176720407004622023111809427+39928-074292FM-15+0025KMJX V0209999C000052200059N0048285N5+01105+01105999999ADDAU100001015AW1105GA1005+999999999GD10991+9999999GF100991999999999999999999MA1100585100285REMMET07511/18/23 04:42:02 METAR KMJX 180942Z 00000KT 3SM BR CLR 11/11 A2970 RMK AO2
0217720407004622023111809567+39928-074292FM-15+0025KMJX V0209999C000052200059N0144845N5+01005+01005100595ADDGA1045+015245999GD12991+0152459GE19AGL   +99999+99999GF104995999999015241999999MA1100585100285REMMET09211/18/23 04:56:02 METAR KMJX 180956Z 00000KT 9SM SCT050 10/10 A2970 RMK AO2 SLP059 T01000100EQDD01      0ADE726
0234720407004622023111810147+39928-074292FM-15+0025KMJX V0202705N001552200059N0028165V5+01005+00905999999ADDAU100001015AW1105GA1025+015245999GD11991+0152459GE19AGL   +99999+99999GF102995999999015241999999MA1100585100285REMMET09211/18/23 05:14:02 METAR KMJX 181014Z 27003KT 1 3/4SM BR FEW050 10/09 A2970 RMK AO2 VIS 3/4V5EQDD01      0ADE726
0226720407004622023111810257+39928-074292FM-15+0025KMJX V0202605N001552200059N0064375N5+00905+00905999999ADDAA101000021AU110020015AU200001015AW1105AW2615GA1005+999999999GD10991+9999999GF100991999999999999999999MA1100585100285MW1615REMMET09111/18/23 05:25:02 METAR KMJX 181025Z 26003KT 4SM -RA BR CLR 09/09 A2970 RMK AO2 RAB16 P0000
0206720407004622023111810327+39928-074292FM-15+0025KMJX V0209999C000052200059N0028165N5+00905+00905999999ADDAA101000021AU100001015AW1105GA1005+999999999GD10991+9999999GF100991999999999999999999MA1100545100245REMMET09411/18/23 05:32:02 METAR KMJX 181032Z 00000KT 1 3/4SM BR CLR 09/09 A2969 RMK AO2 RAB16E26 P0000
0246720407004622023111810487+39928-074292FM-15+0025KMJX V0209999C000052200059N0064375N5+00905+00905999999ADDAA101000021AU100001015AW1105GA1025+036585999GD11991+0365859GE19AGL   +99999+99999GF102995999999036581999999MA1100545100245REMMET09311/18/23 05:48:02 METAR KMJX 181048Z 00000KT 4SM BR FEW120 09/09 A2969 RMK AO2 RAB16E26 P0000EQDD01      0ADE726
0243720407004622023111810567+39928-074292FM-15+0025KMJX V0209999C000052200059N0144845N5+00895+00895100555ADDAA101000021GA1025+014635999GD11991+0146359GE19AGL   +99999+99999GF102995999999014631999999MA1100515100215REMMET10711/18/23 05:56:02 METAR KMJX 181056Z 00000KT 9SM FEW048 09/09 A2968 RMK AO2 RAB16E26 SLP055 P0000 T00890089EQDD01      0ADE726
0215720407004622023111811087+39928-074292FM-15+0025KMJX V0209999C00005014635MN0020125V5+00905+00905999999ADDAU100001015AW1105GA1075+014635999GD13991+0146359GE19AGL   +99999+99999GF199999999999014631999999MA1100545100245REMMET09211/18/23 06:08:02 METAR KMJX 181108Z 00000KT 1 1/4SM BR BKN048 09/09 A2969 RMK AO2 VIS 1/4V5
0203720407004622023111811107+39928-074292FM-15+0025KMJX V0209999C00005014635MN0012075N5+00905+00905999999ADDAU100001015AW1105GA1075+014635999GD13991+0146359GE19AGL   +99999+99999GF199999999999014631999999MA1100545100245REMMET08011/18/23 06:10:02 METAR KMJX 181110Z 00000KT 3/4SM BR BKN048 09/09 A2969 RMK AO2
0205720407004622023111811187+39928-074292FM-15+0025KMJX V0209999C00005015245MN0024145N5+00905+00905999999ADDAU100001015AW1105GA1085+015245999GD14991+0152459GE19AGL   +99999+99999GF199999999999015241999999MA1100545100245REMMET08211/18/23 06:18:02 METAR KMJX 181118Z 00000KT 1 1/2SM BR OVC050 09/09 A2969 RMK AO2
0201720407004622023111811207+39928-074292FM-15+0025KMJX V0202705N00155015245MN0080475N5+00905+00905999999ADDAU100001015AW1105GA1085+015245999GD14991+0152459GE19AGL   +99999+99999GF199999999999015241999999MA1100545100245REMMET07811/18/23 06:20:02 METAR KMJX 181120Z 27003KT 5SM BR OVC050 09/09 A2969 RMK AO2
0331720407004622023111811567+39928-074292FM-15+0025KMJX V0202905N00215013415MN0160935N5+01225+01225100595ADDAA106000021GA1075+013415999GA2085+018295999GD13991+0134159GD24991+0182959GE19AGL   +99999+99999GF199999999999013411999999KA1060M+01501KA2060N+00831MA1100585100285MD1590059+9999REMMET12411/18/23 06:56:02 METAR KMJX 181156Z 29004KT 10SM BKN044 OVC060 12/12 A2970 RMK AO2 SLP059 60000 T01220122 10150 20083 55005EQDQ01  00008PRCP06
0258720407004622023111812277+39928-074292FM-15+0025KMJX V0202905N00265007325MN0160935N5+01305+01305999999ADDGA1075+007325999GA2075+013415999GA3085+016765999GD13991+0073259GD23991+0134159GD34991+0167659GE19AGL   +99999+99999GF199999999999007321999999MA1100615100315REMMET09011/18/23 07:27:02 METAR KMJX 181227Z 29005KT 10SM BKN024 BKN044 OVC055 13/13 A2971 RMK AO2
0237720407004622023111812567+39928-074292FM-15+0025KMJX V0203105N00215005495MN0160935N5+01335+01285100675ADDGA1045+003665999GA2085+005495999GD12991+0036659GD24991+0054959GE19AGL   +99999+99999GF199999999999003661999999MA1100645100345REMMET10011/18/23 07:56:02 METAR KMJX 181256Z 31004KT 10SM SCT012 OVC018 13/13 A2972 RMK AO2 SLP067 T01330128
0258720407004622023111813067+39928-074292FM-15+0025KMJX V0203305N00315003665MN0160935N5+01405+01305999999ADDGA1045+002445999GA2075+003665999GA3085+005495999GD12991+0024459GD23991+0036659GD34991+0054959GE19AGL   +99999+99999GF199999999999002441999999MA1100685100385REMMET09011/18/23 08:06:02 METAR KMJX 181306Z 33006KT 10SM SCT008 BKN012 OVC018 14/13 A2973 RMK AO2
0220720407004622023111813167+39928-074292FM-15+0025KMJX V0203305N00315002445MN0160935N5+01405+01305999999ADDGA1075+002445999GA2085+003665999GD13991+0024459GD24991+0036659GE19AGL   +99999+99999GF199999999999002441999999MA1100685100385REMMET08311/18/23 08:16:02 METAR KMJX 181316Z 33006KT 10SM BKN008 OVC012 14/13 A2973 RMK AO2
0243720407004622023111813527+39928-074292FM-15+0025KMJX V0203205N00575003055MN0160935N5+01405+01205999999ADDGA1075+003055999GA2085+006405999GD13991+0030551GD24991+0064059GE19AGL   +99999+99999GF199999999999003051999999MA1100755100455OC100885REMMET09811/18/23 08:52:02 METAR KMJX 181352Z 32011G17KT 10SM BKN010 OVC021 14/12 A2975 RMK AO2 CIG 008V014
0248720407004622023111813567+39928-074292FM-15+0025KMJX V0203205N00515003665MN0160935N5+01395+01175100785ADDGA1075+003665999GA2085+006405999GD13991+0036659GD24991+0064059GE19AGL   +99999+99999GF199999999999003661999999MA1100755100455OC100885REMMET10311/18/23 08:56:02 METAR KMJX 181356Z 32010G17KT 10SM BKN012 OVC021 14/12 A2975 RMK AO2 SLP078 T01390117
0231720407004622023111814207+39928-074292FM-15+0025KMJX V0203305N00775005795MN0160935N5+01205+00805999999ADDGA1045+004275999GA2085+005795999GD12991+0042759GD24991+0057959GE19AGL   +99999+99999GF199999999999004271999999MA1100755100455OC101085REMMET08611/18/23 09:20:02 METAR KMJX 181420Z 33015G21KT 10SM SCT014 OVC019 12/08 A2975 RMK AO2
0231720407004622023111814517+39928-074292FM-15+0025KMJX V0203305N00675011285MN0160935N5+01205+00705999999ADDGA1045+006405999GA2085+011285999GD12991+0064059GD24991+0112859GE19AGL   +99999+99999GF199999999999006401999999MA1100785100485OC101035REMMET08611/18/23 09:51:02 METAR KMJX 181451Z 33013G20KT 10SM SCT021 OVC037 12/07 A2976 RMK AO2
0268720407004622023111814567+39928-074292FM-15+0025KMJX V0203305N00675011285MN0160935N5+01285+00675100805ADDGA1025+006405999GA2085+011285999GD11991+0064059GD24991+0112859GE19AGL   +99999+99999GF199999999999006401999999MA1100785100485MD1190039+9999OC101085REMMET10911/18/23 09:56:02 METAR KMJX 181456Z 33013G21KT 10SM FEW021 OVC037 13/07 A2976 RMK AO2 SLP080 T01280067 51003
0231720407004622023111815287+39928-074292FM-15+0025KMJX V0203405N00675007325MN0160935N5+01205+00605999999ADDGA1075+007325999GA2085+011895999GD13991+0073259GD24991+0118959GE19AGL   +99999+99999GF199999999999007321999999MA1100755100455OC101135REMMET08611/18/23 10:28:02 METAR KMJX 181528Z 34013G22KT 10SM BKN024 OVC039 12/06 A2975 RMK AO2
0210720407004622023111815567+39928-074292FM-15+0025KMJX V0203305N00825007325MN0160935N5+01175+00445100735ADDGA1085+007325999GD14991+0073259GE19AGL   +99999+99999GF199999999999007321999999MA1100715100415OC101085REMMET09611/18/23 10:56:02 METAR KMJX 181556Z 33016G21KT 10SM OVC024 12/04 A2974 RMK AO2 SLP073 T01170044
0210720407004622023111816567+39928-074292FM-15+0025KMJX V0203405N00725007325MN0160935N5+01175+00335100695ADDGA1085+007325999GD14991+0073259GE19AGL   +99999+99999GF199999999999007321999999MA1100685100385OC100985REMMET09611/18/23 11:56:02 METAR KMJX 181656Z 34014G19KT 10SM OVC024 12/03 A2973 RMK AO2 SLP069 T01170033
0257720407004622023111817567+39928-074292FM-15+0025KMJX V0203105N00825007925MN0160935N5+01285+00175100685ADDGA1085+007925999GD14991+0079259GE19AGL   +99999+99999GF199999999999007921999999KA1060M+01441KA2060N+01111MA1100645100345MD1690129+9999REMMET11111/18/23 12:56:02 METAR KMJX 181756Z 31016KT 10SM OVC026 13/02 A2972 RMK AO2 SLP068 T01280017 10144 20111 56012
0212720407004622023111818197+39928-074292FM-15+0025KMJX V0203105N005752200059N0160935N5+01205+00005999999ADDGA1045+008535999GD12991+0085359GE19AGL   +99999+99999GF104995999999008531999999MA1100645100345OC101135REMMET07911/18/23 13:19:02 METAR KMJX 181819Z 31011G22KT 10SM SCT028 12/00 A2972 RMK AO2EQDD01      0ADE726
0186720407004622023111818567+39928-074292FM-15+0025KMJX V0203205N006252200059N0160935N5+01225-00065100725ADDGA1005+999999999GD10991+9999999GF100991999999999999999999MA1100685100385OC101085REMMET09411/18/23 13:56:02 METAR KMJX 181856Z 32012G21KT 10SM CLR 12/M01 A2973 RMK AO2 SLP072 T01221006
0186720407004622023111819567+39928-074292FM-15+0025KMJX V0203105N006252200059N0160935N5+01225-00225100775ADDGA1005+999999999GD10991+9999999GF100991999999999999999999MA1100755100455OC100935REMMET09411/18/23 14:56:02 METAR KMJX 181956Z 31012G18KT 10SM CLR 12/M02 A2975 RMK AO2 SLP077 T01221022
0195720407004622023111820567+39928-074292FM-15+0025KMJX V0203305N003152200059N0160935N5+01115-00285100825ADDGA1005+999999999GD10991+9999999GF100991999999999999999999MA1100785100485MD1390149+9999REMMET09711/18/23 15:56:02 METAR KMJX 182056Z 33006KT 10SM CLR 11/M03 A2976 RMK AO2 SLP082 T01111028 53014
0175720407004622023111821567+39928-074292FM-15+0025KMJX V0203205N006252200059N0160935N5+00945-00505100905ADDGA1005+999999999GD10991+9999999GF100991999999999999999999MA1100885100585REMMET09111/18/23 16:56:02 METAR KMJX 182156Z 32012KT 10SM CLR 09/M05 A2979 RMK AO2 SLP090 T00941050
0175720407004622023111822567+39928-074292FM-15+0025KMJX V0203205N003652200059N0160935N5+00675-00445101055ADDGA1005+999999999GD10991+9999999GF100991999999999999999999MA1101025100725REMMET09111/18/23 17:56:02 METAR KMJX 182256Z 32007KT 10SM CLR 07/M04 A2983 RMK AO2 SLP105 T00671044
0233720407004622023111823567+39928-074292FM-15+0025KMJX V0203105N003152200059N0160935N5+00675-00445101155ADDGA1005+999999999GD10991+9999999GF100991999999999999999999KA1060M+01281KA2060N+00671MA1101125100825MD1390339+9999REMMET10911/18/23 18:56:02 METAR KMJX 182356Z 31006KT 10SM CLR 07/M04 A2986 RMK AO2 SLP115 T00671044 10128 20067 53033
0175720407004622023111900567+39928-074292FM-15+0025KMJX V0203205N003152200059N0160935N5+00565-00395101215ADDGA1005+999999999GD10991+9999999GF100991999999999999999999MA1101195100895REMMET09111/18/23 19:56:01 METAR KMJX 190056Z 32006KT 10SM CLR 06/M04 A2988 RMK AO2 SLP121 T00561039
0175720407004622023111901567+39928-074292FM-15+0025KMJX V0203205N004152200059N0160935N5+00505-00445101235ADDGA1005+999999999GD10991+9999999GF100991999999999999999999MA1101195100895REMMET09111/18/23 20:56:01 METAR KMJX 190156Z 32008KT 10SM CLR 05/M04 A2988 RMK AO2 SLP123 T00501044
0195720407004622023111902567+39928-074292FM-15+0025KMJX V0203205N003652200059N0160935N5+00335-00445101265ADDGA1005+999999999GD10991+9999999GF100991999999999999999999MA1101225100925MD1190129+9999REMMET09711/18/23 21:56:01 METAR KMJX 190256Z 32007KT 10SM CLR 03/M04 A2989 RMK AO2 SLP126 T00331044 51012
0175720407004622023111903567+39928-074292FM-15+0025KMJX V0203205N002652200059N0160935N5+00285-00445101235ADDGA1005+999999999GD10991+9999999GF100991999999999999999999MA1101195100895REMMET09111/18/23 22:56:01 METAR KMJX 190356Z 32005KT 10SM CLR 03/M04 A2988 RMK AO2 SLP123 T00281044
0218720407004622023111904567+39928-074292FM-15+0025KMJX V0209999C000052200059N0160935N5+00225-00395101285ADDGA1005+999999999GD10991+9999999GF100991999999999999999999KA1240M+01501KA2240N+00171MA1101255100955REMMET10811/18/23 23:56:02 METAR KMJX 190456Z 00000KT 10SM CLR 02/M04 A2990 RMK AO2 SLP128 T00221039 401500017 FZRANO
002772040700462202311190459O+39928-074292SOD  +0025KMJX V020999999999999999999999999999+99999+99999999999ADDAT1AU16RA  5AT2AU13BR  5
0241720407004622023111905567+39928-074292FM-15+0025KMJX V0201605N001552200059N0160935N5-00175-00445101305ADDGA1005+999999999GD10991+9999999GF100991999999999999999999KA1060M+00671KA2060N-00221MA1101255100955MD1390039+9999REMMET11711/19/23 00:56:02 METAR KMJX 190556Z 16003KT 10SM CLR M02/M04 A2990 RMK AO2 SLP130 T10171044 10067 21022 53003 FZRANO
0183720407004622023111906567+39928-074292FM-15+0025KMJX V0209999C000052200059N0160935N5-00285-00565101375ADDGA1005+999999999GD10991+9999999GF100991999999999999999999MA1101325101025REMMET09911/19/23 01:56:02 METAR KMJX 190656Z 00000KT 10SM CLR M03/M06 A2992 RMK AO2 SLP137 T10281056 FZRANO
0183720407004622023111907567+39928-074292FM-15+0025KMJX V0209999C000052200059N0160935N5-00335-00565101405ADDGA1005+999999999GD10991+9999999GF100991999999999999999999MA1101355101055REMMET09911/19/23 02:56:02 METAR KMJX 190756Z 00000KT 10SM CLR M03/M06 A2993 RMK AO2 SLP140 T10331056 FZRANO
0203720407004622023111908567+39928-074292FM-15+0025KMJX V0209999C000052200059N0160935N5-00335-00505101435ADDGA1005+999999999GD10991+9999999GF100991999999999999999999MA1101395101095MD1190139+9999REMMET10511/19/23 03:56:02 METAR KMJX 190856Z 00000KT 10SM CLR M03/M05 A2994 RMK AO2 SLP143 T10331050 51013 FZRANO
0183720407004622023111909567+39928-074292FM-15+0025KMJX V0209999C000052200059N0160935N5-00395-00565101425ADDGA1005+999999999GD10991+9999999GF100991999999999999999999MA1101395101095REMMET09911/19/23 04:56:02 METAR KMJX 190956Z 00000KT 10SM CLR M04/M06 A2994 RMK AO2 SLP142 T10391056 FZRANO
0183720407004622023111910567+39928-074292FM-15+0025KMJX V0209999C000052200059N0160935N5-00395-00565101445ADDGA1005+999999999GD10991+9999999GF100991999999999999999999MA1101395101095REMMET09911/19/23 05:56:02 METAR KMJX 191056Z 00000KT 10SM CLR M04/M06 A2994 RMK AO2 SLP144 T10391056 FZRANO
0241720407004622023111911567+39928-074292FM-15+0025KMJX V0202905N002152200059N0160935N5-00395-00565101495ADDGA1005+999999999GD10991+9999999GF100991999999999999999999KA1060M-00171KA2060N-00441MA1101465101165MD1390069+9999REMMET11711/19/23 06:56:02 METAR KMJX 191156Z 29004KT 10SM CLR M04/M06 A2996 RMK AO2 SLP149 T10391056 11017 21044 53006 FZRANO
0175720407004622023111912567+39928-074292FM-15+0025KMJX V0203005N003152200059N0160935N5+00335-00115101535ADDGA1005+999999999GD10991+9999999GF100991999999999999999999MA1101495101195REMMET09111/19/23 07:56:02 METAR KMJX 191256Z 30006KT 10SM CLR 03/M01 A2997 RMK AO2 SLP153 T00331011
0175720407004622023111913567+39928-074292FM-15+0025KMJX V0203005N004152200059N0160935N5+00725-00115101555ADDGA1005+999999999GD10991+9999999GF100991999999999999999999MA1101525101225REMMET09111/19/23 08:56:02 METAR KMJX 191356Z 30008KT 10SM CLR 07/M01 A2998 RMK AO2 SLP155 T00721011
0195720407004622023111914567+39928-074292FM-15+0025KMJX V0203005N004652200059N0160935N5+00895-00065101575ADDGA1005+999999999GD10991+9999999GF100991999999999999999999MA1101525101225MD1190089+9999REMMET09711/19/23 09:56:02 METAR KMJX 191456Z 30009KT 10SM CLR 09/M01 A2998 RMK AO2 SLP157 T00891006 51008
0174720407004622023111915567+39928-074292FM-15+0025KMJX V0202705N004652200059N0160935N5+01115+00065101535ADDGA1005+999999999GD10991+9999999GF100991999999999999999999MA1101495101195REMMET09011/19/23 10:56:02 METAR KMJX 191556Z 27009KT 10SM CLR 11/01 A2997 RMK AO2 SLP153 T01110006
0174720407004622023111916567+39928-074292FM-15+0025KMJX V0209999V003152200059N0160935N5+01225+00065101475ADDGA1005+999999999GD10991+9999999GF100991999999999999999999MA1101465101165REMMET09011/19/23 11:56:02 METAR KMJX 191656Z VRB06KT 10SM CLR 12/01 A2996 RMK AO2 SLP147 T01220006
0243720407004622023111917567+39928-074292FM-15+0025KMJX V0202905N004152200059N0160935N5+01285+00005101415ADDGA1005+999999999GD10991+9999999GF100991999999999999999999KA1060M+01331KA2060N-00391MA1101355101055MD1890169+9999OC100935REMMET11111/19/23 12:56:02 METAR KMJX 191756Z 29008G18KT 10SM CLR 13/00 A2993 RMK AO2 SLP141 T01280000 10133 21039 58016
0175720407004622023111918567+39928-074292FM-15+0025KMJX V0202605N004152200059N0160935N5+01395-00065101365ADDGA1005+999999999GD10991+9999999GF100991999999999999999999MA1101325101025REMMET09111/19/23 13:56:02 METAR KMJX 191856Z 26008KT 10SM CLR 14/M01 A2992 RMK AO2 SLP136 T01391006
0186720407004622023111919567+39928-074292FM-15+0025KMJX V0202805N005152200059N0160935N5+01335-00065101345ADDGA1005+999999999GD10991+9999999GF100991999999999999999999MA1101295100995OC100825REMMET09411/19/23 14:56:02 METAR KMJX 191956Z 28010G16KT 10SM CLR 13/M01 A2991 RMK AO2 SLP134 T01331006
0194720407004622023111920567+39928-074292FM-15+0025KMJX V0202505N003152200059N0160935N5+01225+00005101395ADDGA1005+999999999GD10991+9999999GF100991999999999999999999MA1101355101055MD1590029+9999REMMET09611/19/23 15:56:02 METAR KMJX 192056Z 25006KT 10SM CLR 12/00 A2993 RMK AO2 SLP139 T01220000 55002
0174720407004622023111921567+39928-074292FM-15+0025KMJX V0209999C000052200059N0160935N5+00725+00005101485ADDGA1005+999999999GD10991+9999999GF100991999999999999999999MA1101465101165REMMET09011/19/23 16:56:02 METAR KMJX 192156Z 00000KT 10SM CLR 07/00 A2996 RMK AO2 SLP148 T00720000
0174720407004622023111922567+39928-074292FM-15+0025KMJX V0209999C000052200059N0160935N5+00395+00005101585ADDGA1005+999999999GD10991+9999999GF100991999999999999999999MA1101525101225REMMET09011/19/23 17:56:02 METAR KMJX 192256Z 00000KT 10SM CLR 04/00 A2998 RMK AO2 SLP158 T00390000
0240720407004622023111923567+39928-074292FM-15+0025KMJX V0209999C000052200059N0160935N5+00115-00115101645ADDGA1005+999999999GD10991+9999999GF100991999999999999999999KA1060M+01391KA2060N+00111MA1101595101295MD1190259+9999REMMET11611/19/23 18:56:02 METAR KMJX 192356Z 00000KT 10SM CLR 01/M01 A3000 RMK AO2 SLP164 T00111011 10139 20011 51025 FZRANO
0182720407004622023112000567+39928-074292FM-15+0025KMJX V0209999C000052200059N0160935N5+00065-00175101705ADDGA1005+999999999GD10991+9999999GF100991999999999999999999MA1101665101365REMMET09811/19/23 19:56:01 METAR KMJX 200056Z 00000KT 10SM CLR 01/M02 A3002 RMK AO2 SLP170 T00061017 FZRANO
0183720407004622023112001567+39928-074292FM-15+0025KMJX V0209999C000052200059N0160935N5-00065-00225101775ADDGA1005+999999999GD10991+9999999GF100991999999999999999999MA1101735101435REMMET09911/19/23 20:56:01 METAR KMJX 200156Z 00000KT 10SM CLR M01/M02 A3004 RMK AO2 SLP177 T10061022 FZRANO
0203720407004622023112002567+39928-074292FM-15+0025KMJX V0209999C000052200059N0160935N5-00115-00335101835ADDGA1005+999999999GD10991+9999999GF100991999999999999999999MA1101795101495MD1390199+9999REMMET10511/19/23 21:56:01 METAR KMJX 200256Z 00000KT 10SM CLR M01/M03 A3006 RMK AO2 SLP183 T10111033 53019 FZRANO
0175720407004622023112003567+39928-074292FM-15+0025KMJX V0203205N003152200059N0160935N5+00445-00115101955ADDGA1005+999999999GD10991+9999999GF100991999999999999999999MA1101935101635REMMET09111/19/23 22:56:01 METAR KMJX 200356Z 32006KT 10SM CLR 04/M01 A3010 RMK AO2 SLP195 T00441011
0211720407004622023112004567+39928-074292FM-15+0025KMJX V0203605N003652200059N0160935N5+00445-00115102055ADDGA1005+999999999GD10991+9999999GF100991999999999999999999KA1240M+01391KA2240N-00441MA1102035101735REMMET10111/19/23 23:56:02 METAR KMJX 200456Z 36007KT 10SM CLR 04/M01 A3013 RMK AO2 SLP205 T00441011 401391044
0233720407004622023112005567+39928-074292FM-15+0025KMJX V0203405N004152200059N0160935N5+00395-00335102155ADDGA1005+999999999GD10991+9999999GF100991999999999999999999KA1060M+00501KA2060N-00171MA1102135101835MD1190339+9999REMMET10911/20/23 00:56:02 METAR KMJX 200556Z 34008KT 10SM CLR 04/M03 A3016 RMK AO2 SLP215 T00391033 10050 21017 51033
0175720407004622023112006567+39928-074292FM-15+0025KMJX V0203305N002652200059N0160935N5+00285-00445102235ADDGA1005+999999999GD10991+9999999GF100991999999999999999999MA1102205101905REMMET09111/20/23 01:56:02 METAR KMJX 200656Z 33005KT 10SM CLR 03/M04 A3018 RMK AO2 SLP223 T00281044
0202720407004622023112008567+39928-074292FM-15+0025KMJX V0203505N002152200059N0160935N5+00065-00505102385ADDGA1005+999999999GD10991+9999999GF100991999999999999999999MA1102345102035MD1190229+9999REMMET10411/20/23 03:56:02 METAR KMJX 200856Z 35004KT 10SM CLR 01/M05 A3022 RMK AO2 SLP238 T00061050 51022 FZRANO
0183720407004622023112009567+39928-074292FM-15+0025KMJX V0203305N002152200059N0160935N5-00065-00505102465ADDGA1005+999999999GD10991+9999999GF100991999999999999999999MA1102405102105REMMET09911/20/23 04:56:02 METAR KMJX 200956Z 33004KT 10SM CLR M01/M05 A3024 RMK AO2 SLP246 T10061050 FZRANO
0183720407004622023112010567+39928-074292FM-15+0025KMJX V0203005N001552200059N0160935N5-00335-00615102575ADDGA1005+999999999GD10991+9999999GF100991999999999999999999MA1102545102245REMMET09911/20/23 05:56:02 METAR KMJX 201056Z 30003KT 10SM CLR M03/M06 A3028 RMK AO2 SLP257 T10331061 FZRANO
0241720407004622023112011567+39928-074292FM-15+0025KMJX V0209999C000052200059N0160935N5-00445-00675102685ADDGA1005+999999999GD10991+9999999GF100991999999999999999999KA1060M+00441KA2060N-00441MA1102645102345MD1390309+9999REMMET11711/20/23 06:56:02 METAR KMJX 201156Z 00000KT 10SM CLR M04/M07 A3031 RMK AO2 SLP268 T10441067 10044 21044 53030 FZRANO
0183720407004622023112012567+39928-074292FM-15+0025KMJX V0203205N001552200059N0160935N5-00115-00395102785ADDGA1005+999999999GD10991+9999999GF100991999999999999999999MA1102745102445REMMET09911/20/23 07:56:02 METAR KMJX 201256Z 32003KT 10SM CLR M01/M04 A3034 RMK AO2 SLP278 T10111039 FZRANO
0175720407004622023112013567+39928-074292FM-15+0025KMJX V0203605N004152200059N0160935N5+00335-00445102825ADDGA1005+999999999GD10991+9999999GF100991999999999999999999MA1102785102475REMMET09111/20/23 08:56:02 METAR KMJX 201356Z 36008KT 10SM CLR 03/M04 A3035 RMK AO2 SLP282 T00331044
0175720407004622023112015567+39928-074292FM-15+0025KMJX V0203505N003652200059N0160935N5+00615-00505102905ADDGA1005+999999999GD10991+9999999GF100991999999999999999999MA1102845102545REMMET09111/20/23 10:56:02 METAR KMJX 201556Z 35007KT 10SM CLR 06/M05 A3037 RMK AO2 SLP290 T00611050
0175720407004622023112016567+39928-074292FM-15+0025KMJX V0200105N003152200059N0160935N5+00725-00505102855ADDGA1005+999999999GD10991+9999999GF100991999999999999999999MA1102815102515REMMET09111/20/23 11:56:02 METAR KMJX 201656Z 01006KT 10SM CLR 07/M05 A3036 RMK AO2 SLP285 T00721050
0233720407004622023112017567+39928-074292FM-15+0025KMJX V0203305N004152200059N0160935N5+00835-00565102845ADDGA1005+999999999GD10991+9999999GF100991999999999999999999KA1060M+00831KA2060N-00501MA1102815102515MD1890029+9999REMMET10911/20/23 12:56:02 METAR KMJX 201756Z 33008KT 10SM CLR 08/M06 A3036 RMK AO2 SLP284 T00831056 10083 21050 58002
0175720407004622023112018567+39928-074292FM-15+0025KMJX V0200105N002652200059N0160935N5+00835-00615102865ADDGA1005+999999999GD10991+9999999GF100991999999999999999999MA1102815102515REMMET09111/20/23 13:56:02 METAR KMJX 201856Z 01005KT 10SM CLR 08/M06 A3036 RMK AO2 SLP286 T00831061
0175720407004622023112019567+39928-074292FM-15+0025KMJX V0200405N002152200059N0160935N5+00785-00675102905ADDGA1005+999999999GD10991+9999999GF100991999999999999999999MA1102885102575REMMET09111/20/23 14:56:02 METAR KMJX 201956Z 04004KT 10SM CLR 08/M07 A3038 RMK AO2 SLP290 T00781067
0195720407004622023112020567+39928-074292FM-15+0025KMJX V0201005N001552200059N0160935N5+00675-00175102965ADDGA1005+999999999GD10991+9999999GF100991999999999999999999MA1102915102615MD1390129+9999REMMET09711/20/23 15:56:02 METAR KMJX 202056Z 10003KT 10SM CLR 07/M02 A3039 RMK AO2 SLP296 T00671017 53012
0175720407004622023112021567+39928-074292FM-15+0025KMJX V0209999C000052200059N0160935N5+00395-00175103055ADDGA1005+999999999GD10991+9999999GF100991999999999999999999MA1103015102715REMMET09111/20/23 16:56:02 METAR KMJX 202156Z 00000KT 10SM CLR 04/M02 A3042 RMK AO2 SLP305 T00391017
0182720407004622023112022567+39928-074292FM-15+0025KMJX V0209999C000052200059N0160935N5+00115-00285103175ADDGA1005+999999999GD10991+9999999GF100991999999999999999999MA1103125102815REMMET09811/20/23 17:56:02 METAR KMJX 202256Z 00000KT 10SM CLR 01/M03 A3045 RMK AO2 SLP317 T00111028 FZRANO
0240720407004622023112023567+39928-074292FM-15+0025KMJX V0209999C000052200059N0160935N5+00065-00395103185ADDGA1005+999999999GD10991+9999999GF100991999999999999999999KA1060M+00891KA2060N+00061MA1103155102845MD1190229+9999REMMET11611/20/23 18:56:02 METAR KMJX 202356Z 00000KT 10SM CLR 01/M04 A3046 RMK AO2 SLP318 T00061039 10089 20006 51022 FZRANO
0182720407004622023112100567+39928-074292FM-15+0025KMJX V0209999C000052200059N0160935N5+00005-00395103235ADDGA1005+999999999GD10991+9999999GF100991999999999999999999MA1103185102885REMMET09811/20/23 19:56:01 METAR KMJX 210056Z 00000KT 10SM CLR 00/M04 A3047 RMK AO2 SLP323 T00001039 FZRANO
0183720407004622023112101567+39928-074292FM-15+0025KMJX V0209999C000052200059N0160935N5-00175-00505103285ADDGA1005+999999999GD10991+9999999GF100991999999999999999999MA1103225102915REMMET09911/20/23 20:56:01 METAR KMJX 210156Z 00000KT 10SM CLR M02/M05 A3048 RMK AO2 SLP328 T10171050 FZRANO
0203720407004622023112102567+39928-074292FM-15+0025KMJX V0209999C000052200059N0160935N5-00115-00395103315ADDGA1005+999999999GD10991+9999999GF100991999999999999999999MA1103255102955MD1190139+9999REMMET10511/20/23 21:56:01 METAR KMJX 210256Z 00000KT 10SM CLR M01/M04 A3049 RMK AO2 SLP331 T10111039 51013 FZRANO
0183720407004622023112103567+39928-074292FM-15+0025KMJX V0200305N002152200059N0160935N5-00175-00505103285ADDGA1005+999999999GD10991+9999999GF100991999999999999999999MA1103255102955REMMET09911/20/23 22:56:01 METAR KMJX 210356Z 03004KT 10SM CLR M02/M05 A3049 RMK AO2 SLP328 T10171050 FZRANO
0219720407004622023112104567+39928-074292FM-15+0025KMJX V0200105N002152200059N0160935N5-00175-00615103245ADDGA1005+999999999GD10991+9999999GF100991999999999999999999KA1240M+00891KA2240N-00501MA1103185102885REMMET10911/20/23 23:56:02 METAR KMJX 210456Z 01004KT 10SM CLR M02/M06 A3047 RMK AO2 SLP324 T10171061 400891050 FZRANO
0240720407004622023112105567+39928-074292FM-15+0025KMJX V0209999C000052200059N0160935N5+00115-00565103315ADDGA1005+999999999GD10991+9999999GF100991999999999999999999KA1060M+00111KA2060N-00221MA1103285102985MD1390019+9999REMMET11611/21/23 00:56:02 METAR KMJX 210556Z 00000KT 10SM CLR 01/M06 A3050 RMK AO2 SLP331 T00111056 10011 21022 53001 FZRANO
0182720407004622023112106567+39928-074292FM-15+0025KMJX V0200105N001552200059N0160935N5+00005-00505103315ADDGA1005+999999999GD10991+9999999GF100991999999999999999999MA1103285102985REMMET09811/21/23 01:56:02 METAR KMJX 210656Z 01003KT 10SM CLR 00/M05 A3050 RMK AO2 SLP331 T00001050 FZRANO
0226720407004622023112107567+39928-074292FM-15+0025KMJX V0209999C000052200059N0160935N5+00005-00395103325ADDGA1045+012505999GD12991+0125059GE19AGL   +99999+99999GF104995999999012501999999MA1103285102985REMMET10111/21/23 02:56:02 METAR KMJX 210756Z 00000KT 10SM SCT041 00/M04 A3050 RMK AO2 SLP332 T00001039 FZRANOEQDD01      0ADE726
0227720407004622023112108567+39928-074292FM-15+0025KMJX V0209999C00005012505MN0160935N5+00115-00335103305ADDGA1085+012505999GD14991+0125059GE19AGL   +99999+99999GF199999999999012501999999MA1103255102955MD1890019+9999REMMET10711/21/23 03:56:02 METAR KMJX 210856Z 00000KT 10SM OVC041 01/M03 A3049 RMK AO2 SLP330 T00111033 58001 FZRANO
0227720407004622023112109567+39928-074292FM-15+0025KMJX V0200305N001552200059N0160935N5-00115-00335103245ADDGA1025+012505999GD11991+0125059GE19AGL   +99999+99999GF102995999999012501999999MA1103185102885REMMET10211/21/23 04:56:02 METAR KMJX 210956Z 03003KT 10SM FEW041 M01/M03 A3047 RMK AO2 SLP324 T10111033 FZRANOEQDD01      0ADE726
0207720407004622023112110567+39928-074292FM-15+0025KMJX V0209999C00005012195MN0160935N5+00065-00225103295ADDGA1085+012195999GD14991+0121959GE19AGL   +99999+99999GF199999999999012191999999MA1103255102955REMMET10111/21/23 05:56:02 METAR KMJX 211056Z 00000KT 10SM OVC040 01/M02 A3049 RMK AO2 SLP329 T00061022 FZRANO
0265720407004622023112111567+39928-074292FM-15+0025KMJX V0209999C00005011585MN0160935N5+00005-00225103215ADDGA1075+011585999GD13991+0115859GE19AGL   +99999+99999GF199999999999011581999999KA1060M+00111KA2060N-00111MA1103155102845MD1890099+9999REMMET11911/21/23 06:56:02 METAR KMJX 211156Z 00000KT 10SM BKN038 00/M02 A3046 RMK AO2 SLP321 T00001022 10011 21011 58009 FZRANO
0174720407004622023112112567+39928-074292FM-15+0025KMJX V0200905N003152200059N0160935N5+00675+00065103175ADDGA1005+999999999GD10991+9999999GF100991999999999999999999MA1103125102815REMMET09011/21/23 07:56:02 METAR KMJX 211256Z 09006KT 10SM CLR 07/01 A3045 RMK AO2 SLP317 T00670006
0185720407004622023112113567+39928-074292FM-15+0025KMJX V0200805N005152200059N0160935N5+00785+00005103185ADDGA1005+999999999GD10991+9999999GF100991999999999999999999MA1103155102845OC100885REMMET09311/21/23 08:56:02 METAR KMJX 211356Z 08010G17KT 10SM CLR 08/00 A3046 RMK AO2 SLP318 T00780000
0230720407004622023112114567+39928-074292FM-15+0025KMJX V0200905N00625011285MN0160935N5+00835+00115103125ADDGA1075+011285999GD13991+0112859GE19AGL   +99999+99999GF199999999999011281999999MA1103085102785MD1890089+9999OC100985REMMET10211/21/23 09:56:02 METAR KMJX 211456Z 09012G19KT 10SM BKN037 08/01 A3044 RMK AO2 SLP312 T00830011 58008
0286720407004622023112115567+39928-074292FM-15+0025KMJX V0201105N00725033535MN0160935N5+00835+00175103045ADDGA1025+009145999GA2045+011285999GA3075+033535999GD11991+0091459GD22991+0112859GD33991+0335359GE19AGL   +99999+99999GF199999999999009141999999MA1103015102715OC101085REMMET11011/21/23 10:56:02 METAR KMJX 211556Z 11014G21KT 10SM FEW030 SCT037 BKN110 08/02 A3042 RMK AO2 SLP304 T00830017
0210720407004622023112116567+39928-074292FM-15+0025KMJX V0200905N00465009145MN0160935N5+00835+00225103045ADDGA1085+009145999GD14991+0091459GE19AGL   +99999+99999GF199999999999009141999999MA1103015102715OC100885REMMET09611/21/23 11:56:02 METAR KMJX 211656Z 09009G17KT 10SM OVC030 08/02 A3042 RMK AO2 SLP304 T00830022
0193720407004622023112117177+39928-074292FM-15+0025KMJX V0201005V00575008535MN0160935N5+00805+00205999999ADDGA1085+008535999GD14991+0085359GE19AGL   +99999+99999GF199999999999008531999999MA1102955102645OC100885REMMET07911/21/23 12:17:02 METAR KMJX 211717Z 10011G17KT 10SM OVC028 08/02 A3040 RMK AO2
0231720407004622023112117477+39928-074292FM-15+0025KMJX V0201005N00575011285MN0160935N5+00805+00205999999ADDGA1025+008535999GA2085+011285999GD11991+0085359GD24991+0112859GE19AGL   +99999+99999GF199999999999008531999999MA1102915102615OC100885REMMET08611/21/23 12:47:02 METAR KMJX 211747Z 10011G17KT 10SM FEW028 OVC037 08/02 A3039 RMK AO2
0295720407004622023112117567+39928-074292FM-15+0025KMJX V0201105N00465011285MN0160935N5+00835+00225102945ADDGA1025+008535999GA2085+011285999GD11991+0085359GD24991+0112859GE19AGL   +99999+99999GF199999999999008531999999KA1060M+00891KA2060N-00111MA1102915102615MD1890199+9999REMMET11811/21/23 12:56:02 METAR KMJX 211756Z 11009KT 10SM FEW028 OVC037 08/02 A3039 RMK AO2 SLP294 T00830022 10089 21011 58019
0231720407004622023112118487+39928-074292FM-15+0025KMJX V0201005V00415008535MN0160935N5+00805+00305999999ADDGA1075+008535999GA2085+011285999GD13991+0085359GD24991+0112859GE19AGL   +99999+99999GF199999999999008531999999MA1102845102545OC100775REMMET08611/21/23 13:48:02 METAR KMJX 211848Z 10008G15KT 10SM BKN028 OVC037 08/03 A3037 RMK AO2
0237720407004622023112118567+39928-074292FM-15+0025KMJX V0201005N00465008535MN0160935N5+00835+00285102895ADDGA1075+008535999GA2085+011285999GD13991+0085359GD24991+0112859GE19AGL   +99999+99999GF199999999999008531999999MA1102845102545REMMET10011/21/23 13:56:02 METAR KMJX 211856Z 10009KT 10SM BKN028 OVC037 08/03 A3037 RMK AO2 SLP289 T00830028
0231720407004622023112119147+39928-074292FM-15+0025KMJX V0201105N00515010365MN0160935N5+00905+00305999999ADDGA1045+008535999GA2085+010365999GD12991+0085359GD24991+0103659GE19AGL   +99999+99999GF199999999999008531999999MA1102815102515OC100775REMMET08611/21/23 14:14:02 METAR KMJX 211914Z 11010G15KT 10SM SCT028 OVC034 09/03 A3036 RMK AO2
0260720407004622023112119567+39928-074292FM-15+0025KMJX V0201105N00515009755MN0160935N5+00835+00445102745ADDAA101000021AU110020015AW1615GA1085+009755999GD14991+0097559GE19AGL   +99999+99999GF199999999999009751999999MA1102715102415MW1615OC100775REMMET11211/21/23 14:56:02 METAR KMJX 211956Z 11010G15KT 10SM -RA OVC032 08/04 A3033 RMK AO2 RAB17 SLP274 P0000 T00830044
0226720407004622023112120457+39928-074292FM-15+0025KMJX V0201005N00415008535MN0160935N5+00805+00505999999ADDAA101000021AU110020015AW1615GA1085+008535999GD14991+0085359GE19AGL   +99999+99999GF199999999999008531999999MA1102645102345MW1615REMMET08611/21/23 15:45:02 METAR KMJX 212045Z 10008KT 10SM -RA OVC028 08/05 A3031 RMK AO2 P0000
0302720407004622023112121297+39928-074292FM-15+0025KMJX V0201005N00315019815MN0160935N5+00805+00705999999ADDAA101000595AU110020015AW1615GA1045+007925999GA2045+016765999GA3085+019815999GD12991+0079259GD22991+0167659GD34991+0198159GE19AGL   +99999+99999GF199999999999007921999999MA1102575102275MW1615REMMET10011/21/23 16:29:02 METAR KMJX 212129Z 10006KT 10SM -RA SCT026 SCT055 OVC065 08/07 A3029 RMK AO2 P0002
0330720407004622023112121567+39928-074292FM-15+0025KMJX V0201105N00415019815MN0160935N5+00785+00675102555ADDAA101001095AU110020015AW1615GA1045+007325999GA2075+019815999GA3085+024385999GD12991+0073259GD23991+0198159GD34991+0243859GE19AGL   +99999+99999GF199999999999007321999999MA1102515102205MW1615OC100825REMMET12011/21/23 16:56:02 METAR KMJX 212156Z 11008G16KT 10SM -RA SCT024 BKN065 OVC080 08/07 A3027 RMK AO2 SLP255 P0004 T00780067
0292720407004622023112122567+39928-074292FM-15+0025KMJX V0201105N00625018295MN0160935N5+00835+00725102425ADDAA101001095AU110020015AW1615GA1075+018295999GA2085+024385999GD13991+0182959GD24991+0243859GE19AGL   +99999+99999GF199999999999018291999999MA1102375102075MW1615OC100935REMMET11311/21/23 17:56:02 METAR KMJX 212256Z 11012G18KT 10SM -RA BKN060 OVC080 08/07 A3023 RMK AO2 SLP242 P0004 T00830072
0312720407004622023112123277+39928-074292FM-15+0025KMJX V0201205N00465004885MN0144845N5+00805+00805999999ADDAA101000895AU110020015AW1615GA1075+004885999GA2075+006715999GA3085+015245999GD13991+0048859GD23991+0067159GD34991+0152459GE19AGL   +99999+99999GF199999999999004881999999MA1102375102075MW1615OC100885REMMET10211/21/23 18:27:02 METAR KMJX 212327Z 12009G17KT 9SM -RA BKN016 BKN022 OVC050 08/08 A3023 RMK AO2 P0003
0385720407004622023112123567+39928-074292FM-15+0025KMJX V0201105N00575005495MN0128755N5+00895+00835102325ADDAA101001595AA206003691AU110020015AW1615GA1075+005495999GA2085+014635999GD13991+0054959GD24991+0146359GE19AGL   +99999+99999GF199999999999005491999999KA1060M+00891KA2060N+00781MA1102275101975MD1690339+9999MW1615OC100825REMMET13611/21/23 18:56:02 METAR KMJX 212356Z 11011G16KT 8SM -RA BKN018 OVC048 09/08 A3020 RMK AO2 SLP232 P0006 60014 T00890083 10089 20078 56033EQDQ01  00358PRCP06
0237720407004622023112200307+39928-074292FM-15+0025KMJX V0201105N00415004275MN0160935N5+00905+00905999999ADDAA101000395AU110020015AW1615GA1085+004275999GD14991+0042759GE19AGL   +99999+99999GF199999999999004271999999MA1102205101905MW1615OC100885REMMET08911/21/23 19:30:01 METAR KMJX 220030Z 11008G17KT 10SM -RA OVC014 09/09 A3018 RMK AO2 P0001
0254720407004622023112200567+39928-074292FM-15+0025KMJX V0201105N00465003665MN0160935N5+00945+00895102205ADDAA101000395AU110020015AW1615GA1085+003665999GD14991+0036659GE19AGL   +99999+99999GF199999999999003661999999MA1102175101875MW1615OC100775REMMET10611/21/23 19:56:01 METAR KMJX 220056Z 11009G15KT 10SM -RA OVC012 09/09 A3017 RMK AO2 SLP220 P0001 T00940089
0265720407004622023112201567+39928-074292FM-15+0025KMJX V0201205N00575003055MN0112655N5+00945+00945102095ADDAA101001095AU110020015AW1615GA1085+003055999GD14991+0030551GE19AGL   +99999+99999GF199999999999003051999999MA1102075101765MW1615OC100985REMMET11711/21/23 20:56:01 METAR KMJX 220156Z 12011G19KT 7SM -RA OVC010 09/09 A3014 RMK AO2 CIG 008V013 SLP209 P0004 T00940094
0274720407004622023112202467+39928-074292FM-15+0025KMJX V0201205N00775002445MN0096565N5+00905+00905999999ADDAA101002095AU120020015AU200001015AW1105AW2625GA1085+002445999GD14991+0024451GE19AGL   +99999+99999GF199999999999002441999999MA1101905101595MW1655OC101185REMMET10911/21/23 21:46:01 METAR KMJX 220246Z 12015G23KT 6SM RA BR OVC008 09/09 A3009 RMK AO2 CIG 007V011 PRESFR P0008
0341720407004622023112202567+39928-074292FM-15+0025KMJX V0201205N00675002445MN0096565N5+01005+00945101915ADDAA101002595AA203003891AU110020015AU200001015AW1105AW2615GA1085+002445999GD14991+0024451GE19AGL   +99999+99999GF199999999999002441999999MA1101905101595MD1890409+9999MW1615OC101085REMMET13211/21/23 21:56:01 METAR KMJX 220256Z 12013G21KT 6SM -RA BR OVC008 10/09 A3009 RMK AO2 CIG 006V011 SLP191 P0010 60015 T01000094 58040EQDQ01  00388PRCP03
0272720407004622023112203567+39928-074292FM-15+0025KMJX V0201205N00725001835MN0096565N5+01065+01005101725ADDAA101003395AU120020015AU200001015AW1105AW2625GA1085+001835999GD14991+0018359GE19AGL   +99999+99999GF199999999999001831999999MA1101695101395MW1655OC101185REMMET10711/21/23 22:56:02 METAR KMJX 220356Z 12014G23KT 6SM RA BR OVC006 11/10 A3003 RMK AO2 SLP172 P0013 T01060100
0328720407004622023112204567+39928-074292FM-15+0025KMJX V0201205N00885001835MN0112655N5+01065+01065101485ADDAA101002595AU110020015AW1615GA1085+001835999GD14991+0018359GE19AGL   +99999+99999GF199999999999001831999999KA1240M+01061KA2240N-00171MA1101465101165MW1615OC101295OD149901331130REMMET14011/21/23 23:56:02 METAR KMJX 220456Z 12017G25KT 7SM -RA OVC006 11/11 A2996 RMK AO2 PK WND 13026/0426 PRESFR SLP148 P0010 T01060106 401061017
002772040700462202311220459O+39928-074292SOD  +0025KMJX V020999999999999999999999999999+99999+99999999999ADDAT1AU16RA  5AT2AU13BR  5
0179720407004622023120412567+39928-074292FM-15+0025KMJX V0202405N002152200059N0160935N5+00285+00285101045ADDGA1005+999999999GD10991+9999999GF100991999999999999999999MA1101025100725REMMET09512/04/23 07:56:02 METAR KMJX 041256Z 24004KT 10SM CLR 03/03 A2983 RMK AO2 SLP104 T00280028 TSNO
0174720407004622023120413567+39928-074292FM-15+0025KMJX V0202105N003152200059N0160935N5+00785+00505101115ADDGA1005+999999999GD10991+9999999GF100991999999999999999999MA1101085100785REMMET09012/04/23 08:56:02 METAR KMJX 041356Z 21006KT 10SM CLR 08/05 A2985 RMK AO2 SLP111 T00780050
0194720407004622023120414567+39928-074292FM-15+0025KMJX V0202605N004652200059N0160935N5+01065+00445101125ADDGA1005+999999999GD10991+9999999GF100991999999999999999999MA1101085100785MD1190119+9999REMMET09612/04/23 09:56:02 METAR KMJX 041456Z 26009KT 10SM CLR 11/04 A2985 RMK AO2 SLP112 T01060044 51011
0185720407004622023120415567+39928-074292FM-15+0025KMJX V0202805N005752200059N0160935N5+01065+00285101085ADDGA1005+999999999GD10991+9999999GF100991999999999999999999MA1101055100755OC101035REMMET09312/04/23 10:56:02 METAR KMJX 041556Z 28011G20KT 10SM CLR 11/03 A2984 RMK AO2 SLP108 T01060028
0174720407004622023120416567+39928-074292FM-15+0025KMJX V0202805N007252200059N0160935N5+01115+00225101055ADDGA1005+999999999GD10991+9999999GF100991999999999999999999MA1101025100725REMMET09012/04/23 11:56:02 METAR KMJX 041656Z 28014KT 10SM CLR 11/02 A2983 RMK AO2 SLP105 T01110022
0243720407004622023120417567+39928-074292FM-15+0025KMJX V0203005N004652200059N0160935N5+01005+00175100945ADDGA1005+999999999GD10991+9999999GF100991999999999999999999KA1060M+01171KA2060N+00221MA1100915100625MD1890189+9999OC100825REMMET11112/04/23 12:56:02 METAR KMJX 041756Z 30009G16KT 10SM CLR 10/02 A2980 RMK AO2 SLP094 T01000017 10117 20022 58018
0194720407004622023120420567+39928-074292FM-15+0025KMJX V0202805N003152200059N0160935N5+00895+00175100935ADDGA1005+999999999GD10991+9999999GF100991999999999999999999MA1100915100625MD1590019+9999REMMET09612/04/23 15:56:02 METAR KMJX 042056Z 28006KT 10SM CLR 09/02 A2980 RMK AO2 SLP093 T00890017 55001
0174720407004622023120421567+39928-074292FM-15+0025KMJX V0202705N002152200059N0160935N5+00725+00225101015ADDGA1005+999999999GD10991+9999999GF100991999999999999999999MA1100985100685REMMET09012/04/23 16:56:02 METAR KMJX 042156Z 27004KT 10SM CLR 07/02 A2982 RMK AO2 SLP101 T00720022
0174720407004622023120422567+39928-074292FM-15+0025KMJX V0202805N003652200059N0160935N5+00725+00175101095ADDGA1005+999999999GD10991+9999999GF100991999999999999999999MA1101055100755REMMET09012/04/23 17:56:02 METAR KMJX 042256Z 28007KT 10SM CLR 07/02 A2984 RMK AO2 SLP109 T00720017
0314720407004622023120423567+39928-074292FM-15+0025KMJX V0202905N003152200059N0160935N5+00725+00175101175ADDGA1025+013415999GA2045+033535999GD11991+0134159GD22991+0335359GE19AGL   +99999+99999GF104995999999013411999999KA1060M+01171KA2060N+00671MA1101125100825MD1390239+9999REMMET11812/04/23 18:56:02 METAR KMJX 042356Z 29006KT 10SM FEW044 SCT110 07/02 A2986 RMK AO2 SLP117 T00720017 10117 20067 53023EQDD01      0ADE726
0174720407004622023120500567+39928-074292FM-15+0025KMJX V0202605N002652200059N0160935N5+00565+00115101245ADDGA1005+999999999GD10991+9999999GF100991999999999999999999MA1101195100895REMMET09012/04/23 19:56:01 METAR KMJX 050056Z 26005KT 10SM CLR 06/01 A2988 RMK AO2 SLP124 T00560011
0174720407004622023120501567+39928-074292FM-15+0025KMJX V0202705N002652200059N0160935N5+00505+00115101295ADDGA1005+999999999GD10991+9999999GF100991999999999999999999MA1101255100955REMMET09012/04/23 20:56:01 METAR KMJX 050156Z 27005KT 10SM CLR 05/01 A2990 RMK AO2 SLP129 T00500011
0194720407004622023120502567+39928-074292FM-15+0025KMJX V0202805N003152200059N0160935N5+00395+00065101315ADDGA1005+999999999GD10991+9999999GF100991999999999999999999MA1101295100995MD1190149+9999REMMET09612/04/23 21:56:01 METAR KMJX 050256Z 28006KT 10SM CLR 04/01 A2991 RMK AO2 SLP131 T00390006 51014
0174720407004622023120503567+39928-074292FM-15+0025KMJX V0202605N002652200059N0160935N5+00285+00005101365ADDGA1005+999999999GD10991+9999999GF100991999999999999999999MA1101325101025REMMET09012/04/23 22:56:02 METAR KMJX 050356Z 26005KT 10SM CLR 03/00 A2992 RMK AO2 SLP136 T00280000
0218720407004622023120504567+39928-074292FM-15+0025KMJX V0202605N003152200059N0160935N5+00175-00065101425ADDGA1005+999999999GD10991+9999999GF100991999999999999999999KA1240M+01171KA2240N+00061MA1101395101095REMMET10812/04/23 23:56:02 METAR KMJX 050456Z 26006KT 10SM CLR 02/M01 A2994 RMK AO2 SLP142 T00171006 401170006 FZRANO
0240720407004622023120505567+39928-074292FM-15+0025KMJX V0202805N002152200059N0160935N5+00175-00065101395ADDGA1005+999999999GD10991+9999999GF100991999999999999999999KA1060M+00721KA2060N+00061MA1101355101055MD1090079+9999REMMET11612/05/23 00:56:02 METAR KMJX 050556Z 28004KT 10SM CLR 02/M01 A2993 RMK AO2 SLP139 T00171006 10072 20006 50007 FZRANO
0182720407004622023120506567+39928-074292FM-15+0025KMJX V0202705N002652200059N0160935N5+00175-00115101485ADDGA1005+999999999GD10991+9999999GF100991999999999999999999MA1101465101165REMMET09812/05/23 01:56:02 METAR KMJX 050656Z 27005KT 10SM CLR 02/M01 A2996 RMK AO2 SLP148 T00171011 FZRANO
0182720407004622023120507567+39928-074292FM-15+0025KMJX V0202705N003152200059N0160935N5+00225-00065101555ADDGA1005+999999999GD10991+9999999GF100991999999999999999999MA1101525101225REMMET09812/05/23 02:56:02 METAR KMJX 050756Z 27006KT 10SM CLR 02/M01 A2998 RMK AO2 SLP155 T00221006 FZRANO
0202720407004622023120508567+39928-074292FM-15+0025KMJX V0209999C000052200059N0160935N5+00175-00065101585ADDGA1005+999999999GD10991+9999999GF100991999999999999999999MA1101525101225MD1190199+9999REMMET10412/05/23 03:56:02 METAR KMJX 050856Z 00000KT 10SM CLR 02/M01 A2998 RMK AO2 SLP158 T00171006 51019 FZRANO
0183720407004622023120509567+39928-074292FM-15+0025KMJX V0209999C000052200059N0160935N5-00175-00285101645ADDGA1005+999999999GD10991+9999999GF100991999999999999999999MA1101595101295REMMET09912/05/23 04:56:02 METAR KMJX 050956Z 00000KT 10SM CLR M02/M03 A3000 RMK AO2 SLP164 T10171028 FZRANO
0183720407004622023120510567+39928-074292FM-15+0025KMJX V0202505N002152200059N0160935N5-00225-00285101725ADDGA1005+999999999GD10991+9999999GF100991999999999999999999MA1101695101395REMMET09912/05/23 05:56:02 METAR KMJX 051056Z 25004KT 10SM CLR M02/M03 A3003 RMK AO2 SLP172 T10221028 FZRANO
0241720407004622023120511567+39928-074292FM-15+0025KMJX V0209999C000052200059N0160935N5-00285-00285101765ADDGA1005+999999999GD10991+9999999GF100991999999999999999999KA1060M+00221KA2060N-00281MA1101735101435MD1190189+9999REMMET11712/05/23 06:56:02 METAR KMJX 051156Z 00000KT 10SM CLR M03/M03 A3004 RMK AO2 SLP176 T10281028 10022 21028 51018 FZRANO
0181720407004622023120512567+39928-074292FM-15+0025KMJX V0209999C000052200059N0160935N5+00005+00005101795ADDGA1005+999999999GD10991+9999999GF100991999999999999999999MA1101765101465REMMET09712/05/23 07:56:02 METAR KMJX 051256Z 00000KT 10SM CLR 00/00 A3005 RMK AO2 SLP179 T00000000 FZRANO
0174720407004622023120513567+39928-074292FM-15+0025KMJX V0203105N002652200059N0160935N5+00335+00115101845ADDGA1005+999999999GD10991+9999999GF100991999999999999999999MA1101795101495REMMET09012/05/23 08:56:02 METAR KMJX 051356Z 31005KT 10SM CLR 03/01 A3006 RMK AO2 SLP184 T00330011
0195720407004622023120514567+39928-074292FM-15+0025KMJX V0203305N002652200059N0160935N5+00505-00065101875ADDGA1005+999999999GD10991+9999999GF100991999999999999999999MA1101835101535MD1390109+9999REMMET09712/05/23 09:56:02 METAR KMJX 051456Z 33005KT 10SM CLR 05/M01 A3007 RMK AO2 SLP187 T00501006 53010
0200720407004622023120515567+39928-074292FM-15+0025KMJX V0203505N00415010975MN0160935N5+00565-00225101885ADDGA1075+010975999GD13991+0109759GE19AGL   +99999+99999GF199999999999010971999999MA1101835101535REMMET09412/05/23 10:56:02 METAR KMJX 051556Z 35008KT 10SM BKN036 06/M02 A3007 RMK AO2 SLP188 T00561022
0200720407004622023120516567+39928-074292FM-15+0025KMJX V0203205N00315010975MN0160935N5+00565-00175101835ADDGA1085+010975999GD14991+0109759GE19AGL   +99999+99999GF199999999999010971999999MA1101795101495REMMET09412/05/23 11:56:02 METAR KMJX 051656Z 32006KT 10SM OVC036 06/M02 A3006 RMK AO2 SLP183 T00561017
0233720407004622023120517567+39928-074292FM-15+0025KMJX V0203205N002652200059N0160935N5+00615-00175101775ADDGA1005+999999999GD10991+9999999GF100991999999999999999999KA1060M+00611KA2060N-00281MA1101735101435MD1890099+9999REMMET10912/05/23 12:56:02 METAR KMJX 051756Z 32005KT 10SM CLR 06/M02 A3004 RMK AO2 SLP177 T00611017 10061 21028 58009
0200720407004622023120518567+39928-074292FM-15+0025KMJX V0203305N00365011585MN0160935N5+00615-00175101705ADDGA1085+011585999GD14991+0115859GE19AGL   +99999+99999GF199999999999011581999999MA1101665101365REMMET09412/05/23 13:56:02 METAR KMJX 051856Z 33007KT 10SM OVC038 06/M02 A3002 RMK AO2 SLP170 T00611017
0200720407004622023120519567+39928-074292FM-15+0025KMJX V0203605N00265012195MN0160935N5+00615-00175101685ADDGA1085+012195999GD14991+0121959GE19AGL   +99999+99999GF199999999999012191999999MA1101635101325REMMET09412/05/23 14:56:02 METAR KMJX 051956Z 36005KT 10SM OVC040 06/M02 A3001 RMK AO2 SLP168 T00611017
0199720407004622023120521567+39928-074292FM-15+0025KMJX V0209999C00005012805MN0160935N5+00505+00175101725ADDGA1085+012805999GD14991+0128059GE19AGL   +99999+99999GF199999999999012801999999MA1101665101365REMMET09312/05/23 16:56:02 METAR KMJX 052156Z 00000KT 10SM OVC042 05/02 A3002 RMK AO2 SLP172 T00500017
0193720407004622023120522564+39933-074300FM-15+002599999V0209999C000010146319N016093199+00391+00111101751ADDGD12991+0121919GD24991+0146319GE19AGL   +99999+99999GF199999999999012191999999MA1101691999999REMMET088METAR KMJX 052256Z AUTO 00000KT 10SM SCT040 OVC048 04/01 A3003 RMK AO2 SLP175 T00390011=
0257720407004622023120523567+39928-074292FM-15+0025KMJX V0209999C00005014635MN0160935N5+00335+00175101795ADDGA1085+014635999GD14991+0146359GE19AGL   +99999+99999GF199999999999014631999999KA1060M+00671KA2060N+00331MA1101765101465MD1390079+9999REMMET11112/05/23 18:56:02 METAR KMJX 052356Z 00000KT 10SM OVC048 03/02 A3005 RMK AO2 SLP179 T00330017 10067 20033 53007
0171720407004622023120600564+39933-074300FM-15+002599999V0209999C000010115819N016093199+00331+00111101781ADDGD14991+0115819GE19AGL   +99999+99999GF199999999999011581999999MA1101731999999REMMET081METAR KMJX 060056Z AUTO 00000KT 10SM OVC038 03/01 A3004 RMK AO2 SLP178 T00330011=
0171720407004622023120601564+39933-074300FM-15+002599999V0209999C000010134119N016093199+00281+00171101741ADDGD14991+0134119GE19AGL   +99999+99999GF199999999999013411999999MA1101691999999REMMET081METAR KMJX 060156Z AUTO 00000KT 10SM OVC044 03/02 A3003 RMK AO2 SLP174 T00280017=
0219720407004622023120602567+39928-074292FM-15+0025KMJX V0209999C00005013415MN0160935N5+00285+00175101705ADDGA1085+013415999GD14991+0134159GE19AGL   +99999+99999GF199999999999013411999999MA1101665101365MD1890089+9999REMMET09912/05/23 21:56:01 METAR KMJX 060256Z 00000KT 10SM OVC044 03/02 A3002 RMK AO2 SLP170 T00280017 58008
0199720407004622023120603567+39928-074292FM-15+0025KMJX V0209999C00005014635MN0160935N5+00335+00115101645ADDGA1085+014635999GD14991+0146359GE19AGL   +99999+99999GF199999999999014631999999MA1101595101295REMMET09312/05/23 22:56:02 METAR KMJX 060356Z 00000KT 10SM OVC048 03/01 A3000 RMK AO2 SLP164 T00330011
0235720407004622023120604567+39928-074292FM-15+0025KMJX V0200105N00265014635MN0160935N5+00335+00005101575ADDGA1085+014635999GD14991+0146359GE19AGL   +99999+99999GF199999999999014631999999KA1240M+00671KA2240N-00281MA1101525101225REMMET10312/05/23 23:56:02 METAR KMJX 060456Z 01005KT 10SM OVC048 03/00 A2998 RMK AO2 SLP157 T00330000 400671028
0179720407004622023120606564+39933-074300FM-15+002599999V0203401N002110167619N016093199+00221-00111101551ADDGD14991+0167619GE19AGL   +99999+99999GF199999999999016761999999MA1101491999999REMMET089METAR KMJX 060656Z AUTO 34004KT 10SM OVC055 02/M01 A2997 RMK AO2 SLP155 T00221011 FZRANO=
0179720407004622023120607564+39933-074300FM-15+002599999V0203401N002110167619N016093199+00171-00171101551ADDGD14991+0167619GE19AGL   +99999+99999GF199999999999016761999999MA1101521999999REMMET089METAR KMJX 060756Z AUTO 34004KT 10SM OVC055 02/M02 A2998 RMK AO2 SLP155 T00171017 FZRANO=
0218720407004622023120608564+39933-074300FM-15+002599999V0203401N002112200059N016093199+00061-00221101511ADDGD11991+0243819GE19AGL   +99999+99999GF102995999999024381999999MA1101461999999MD1810041+9999REMMET095METAR KMJX 060856Z AUTO 34004KT 10SM FEW080 01/M02 A2996 RMK AO2 SLP151 T00061022 58004 FZRANO=EQDD01      0ADE726
0179720407004622023120609564+39933-074300FM-15+002599999V0203501N002110182919N016093199+00061-00281101501ADDGD13991+0182919GE19AGL   +99999+99999GF199999999999018291999999MA1101461999999REMMET089METAR KMJX 060956Z AUTO 35004KT 10SM BKN060 01/M03 A2996 RMK AO2 SLP150 T00061028 FZRANO=
0207720407004622023120610567+39928-074292FM-15+0025KMJX V0203305N00155018295MN0160935N5+00115-00225101535ADDGA1085+018295999GD14991+0182959GE19AGL   +99999+99999GF199999999999018291999999MA1101495101195REMMET10112/06/23 05:56:02 METAR KMJX 061056Z 33003KT 10SM OVC060 01/M02 A2997 RMK AO2 SLP153 T00111022 FZRANO
0237720407004622023120611564+39933-074300FM-15+002599999V0203301N002610228619N016093199+00061-00221101581ADDGD14991+0228619GE19AGL   +99999+99999GF199999999999022861999999KA1060M+00281KA2060N+00061MA1101521999999MD1310071+9999REMMET107METAR KMJX 061156Z AUTO 33005KT 10SM OVC075 01/M02 A2998 RMK AO2 SLP158 T00061022 10028 20006 53007 FZRANO=
0179720407004622023120612564+39933-074300FM-15+002599999V0203201N003110228619N016093199+00111-00171101601ADDGD14991+0228619GE19AGL   +99999+99999GF199999999999022861999999MA1101561999999REMMET089METAR KMJX 061256Z AUTO 32006KT 10SM OVC075 01/M02 A2999 RMK AO2 SLP160 T00111017 FZRANO=
0207720407004622023120613567+39928-074292FM-15+0025KMJX V0203305N00365019815MN0160935N5+00225-00175101675ADDGA1085+019815999GD14991+0198159GE19AGL   +99999+99999GF199999999999019811999999MA1101635101325REMMET10112/06/23 08:56:02 METAR KMJX 061356Z 33007KT 10SM OVC065 02/M02 A3001 RMK AO2 SLP167 T00221017 FZRANO
0258720407004622023120614567+39928-074292FM-15+0025KMJX V0203205N00265019815MN0160935N5+00285-00175101695ADDGA1025+010675999GA2085+019815999GD11991+0106759GD24991+0198159GE19AGL   +99999+99999GF199999999999010671999999MA1101665101365MD1190129+9999REMMET10712/06/23 09:56:02 METAR KMJX 061456Z 32005KT 10SM FEW035 OVC065 03/M02 A3002 RMK AO2 SLP169 T00281017 51012
0238720407004622023120615567+39928-074292FM-15+0025KMJX V0203505N00415022865MN0160935N5+00395-00285101655ADDGA1025+009145999GA2075+022865999GD11991+0091459GD23991+0228659GE19AGL   +99999+99999GF199999999999009141999999MA1101635101325REMMET10112/06/23 10:56:02 METAR KMJX 061556Z 35008KT 10SM FEW030 BKN075 04/M03 A3001 RMK AO2 SLP165 T00391028
0238720407004622023120616567+39928-074292FM-15+0025KMJX V0203405N00625024385MN0160935N5+00505-00335101565ADDGA1045+010365999GA2075+024385999GD12991+0103659GD23991+0243859GE19AGL   +99999+99999GF199999999999010361999999MA1101525101225REMMET10112/06/23 11:56:02 METAR KMJX 061656Z 34012KT 10SM SCT034 BKN080 05/M03 A2998 RMK AO2 SLP156 T00501033
0258720407004622023120617567+39928-074292FM-15+0025KMJX V0203105N00465012195MN0160935N5+00565-00335101535ADDGA1085+012195999GD14991+0121959GE19AGL   +99999+99999GF199999999999012191999999KA1060M+00561KA2060N+00061MA1101495101195MD1690169+9999REMMET11212/06/23 12:56:02 METAR KMJX 061756Z 31009KT 10SM OVC040 06/M03 A2997 RMK AO2 SLP153 T00561033 10056 20006 56016
0238720407004622023120618567+39928-074292FM-15+0025KMJX V0203205N00415014945MN0160935N5+00445-00335101535ADDGA1025+012195999GA2075+014945999GD11991+0121959GD23991+0149459GE19AGL   +99999+99999GF199999999999012191999999MA1101495101195REMMET10112/06/23 13:56:02 METAR KMJX 061856Z 32008KT 10SM FEW040 BKN049 04/M03 A2997 RMK AO2 SLP153 T00441033
0200720407004622023120619567+39928-074292FM-15+0025KMJX V0203205N00465014945MN0160935N5+00445-00395101545ADDGA1075+014945999GD13991+0149459GE19AGL   +99999+99999GF199999999999014941999999MA1101495101195REMMET09412/06/23 14:56:02 METAR KMJX 061956Z 32009KT 10SM BKN049 04/M04 A2997 RMK AO2 SLP154 T00441039
0307720407004622023120620567+39928-074292FM-15+0025KMJX V0203305N00575014335MN0160935N5+00395-00395101605ADDGA1045+012195999GA2075+014335999GA3085+016765999GD12991+0121959GD23991+0143359GD34991+0167659GE19AGL   +99999+99999GF199999999999012191999999MA1101565101265MD1390079+9999OC100985REMMET11712/06/23 15:56:02 METAR KMJX 062056Z 33011G19KT 10SM SCT040 BKN047 OVC055 04/M04 A2999 RMK AO2 SLP160 T00391039 53007
0200720407004622023120621567+39928-074292FM-15+0025KMJX V0203305N00415015245MN0160935N5+00335-00615101665ADDGA1085+015245999GD14991+0152459GE19AGL   +99999+99999GF199999999999015241999999MA1101635101325REMMET09412/06/23 16:56:02 METAR KMJX 062156Z 33008KT 10SM OVC050 03/M06 A3001 RMK AO2 SLP166 T00331061
0200720407004622023120622567+39928-074292FM-15+0025KMJX V0203205N00365016765MN0160935N5+00285-00615101725ADDGA1085+016765999GD14991+0167659GE19AGL   +99999+99999GF199999999999016761999999MA1101695101395REMMET09412/06/23 17:56:02 METAR KMJX 062256Z 32007KT 10SM OVC055 03/M06 A3003 RMK AO2 SLP172 T00281061
0284720407004622023120623567+39928-074292FM-15+0025KMJX V0203105N003152200059N0160935N5+00175-00615101765ADDGA1045+016765999GD12991+0167659GE19AGL   +99999+99999GF104995999999016761999999KA1060M+00611KA2060N+00171MA1101735101435MD1190179+9999REMMET11912/06/23 18:56:02 METAR KMJX 062356Z 31006KT 10SM SCT055 02/M06 A3004 RMK AO2 SLP176 T00171061 10061 20017 51017 FZRANOEQDD01      0ADE726
0207720407004622023120700567+39928-074292FM-15+0025KMJX V0203105N00315015245MN0160935N5+00175-00565101805ADDGA1085+015245999GD14991+0152459GE19AGL   +99999+99999GF199999999999015241999999MA1101765101465REMMET10112/06/23 19:56:01 METAR KMJX 070056Z 31006KT 10SM OVC050 02/M06 A3005 RMK AO2 SLP180 T00171056 FZRANO
0207720407004622023120701567+39928-074292FM-15+0025KMJX V0203105N00215015245MN0160935N5+00175-00615101835ADDGA1085+015245999GD14991+0152459GE19AGL   +99999+99999GF199999999999015241999999MA1101795101495REMMET10112/06/23 20:56:01 METAR KMJX 070156Z 31004KT 10SM OVC050 02/M06 A3006 RMK AO2 SLP183 T00171061 FZRANO
0227720407004622023120702567+39928-074292FM-15+0025KMJX V0203405N00315014335MN0160935N5+00175-00615101865ADDGA1085+014335999GD14991+0143359GE19AGL   +99999+99999GF199999999999014331999999MA1101835101535MD1190109+9999REMMET10712/06/23 21:56:01 METAR KMJX 070256Z 34006KT 10SM OVC047 02/M06 A3007 RMK AO2 SLP186 T00171061 51010 FZRANO
0218720407004622023120703567+39928-074292FM-15+0025KMJX V0203205N00415014335MN0160935N5+00175-00785101875ADDGA1085+014335999GD14991+0143359GE19AGL   +99999+99999GF199999999999014331999999MA1101835101535OC100935REMMET10412/06/23 22:56:02 METAR KMJX 070356Z 32008G18KT 10SM OVC047 02/M08 A3007 RMK AO2 SLP187 T00171078 FZRANO
0243720407004622023120704567+39928-074292FM-15+0025KMJX V0203005N00265014335MN0160935N5+00065-00785101925ADDGA1085+014335999GD14991+0143359GE19AGL   +99999+99999GF199999999999014331999999KA1240M+00611KA2240N+00061MA1101905101595REMMET11112/06/23 23:56:02 METAR KMJX 070456Z 30005KT 10SM OVC047 01/M08 A3009 RMK AO2 SLP192 T00061078 400610006 FZRANO
0266720407004622023120705567+39928-074292FM-15+0025KMJX V0203305N00215013725MN0160935N5-00065-00725101875ADDGA1075+013725999GD13991+0137259GE19AGL   +99999+99999GF199999999999013721999999KA1060M+00221KA2060N-00061MA1101835101535MD1090019+9999REMMET12012/07/23 00:56:02 METAR KMJX 070556Z 33004KT 10SM BKN045 M01/M07 A3007 RMK AO2 SLP187 T10061072 10022 21006 50001 FZRANO
0227720407004622023120706567+39928-074292FM-15+0025KMJX V0203005N001552200059N0160935N5-00225-00725101945ADDGA1025+013115999GD11991+0131159GE19AGL   +99999+99999GF102995999999013111999999MA1101905101595REMMET10212/07/23 01:56:02 METAR KMJX 070656Z 30003KT 10SM FEW043 M02/M07 A3009 RMK AO2 SLP194 T10221072 FZRANOEQDD01      0ADE726
0183720407004622023120707567+39928-074292FM-15+0025KMJX V0202605N001552200059N0160935N5-00335-00725101955ADDGA1005+999999999GD10991+9999999GF100991999999999999999999MA1101905101595REMMET09912/07/23 02:56:02 METAR KMJX 070756Z 26003KT 10SM CLR M03/M07 A3009 RMK AO2 SLP195 T10331072 FZRANO
0203720407004622023120708567+39928-074292FM-15+0025KMJX V0202205N002152200059N0160935N5-00395-00725101945ADDGA1005+999999999GD10991+9999999GF100991999999999999999999MA1101905101595MD1090079+9999REMMET10512/07/23 03:56:02 METAR KMJX 070856Z 22004KT 10SM CLR M04/M07 A3009 RMK AO2 SLP194 T10391072 50007 FZRANO
0183720407004622023120709567+39928-074292FM-15+0025KMJX V0202505N001552200059N0160935N5-00395-00725101955ADDGA1005+999999999GD10991+9999999GF100991999999999999999999MA1101905101595REMMET09912/07/23 04:56:02 METAR KMJX 070956Z 25003KT 10SM CLR M04/M07 A3009 RMK AO2 SLP195 T10391072 FZRANO
0183720407004622023120710567+39928-074292FM-15+0025KMJX V0202405N002152200059N0160935N5-00395-00725101985ADDGA1005+999999999GD10991+9999999GF100991999999999999999999MA1101935101635REMMET09912/07/23 05:56:02 METAR KMJX 071056Z 24004KT 10SM CLR M04/M07 A3010 RMK AO2 SLP198 T10391072 FZRANO
0241720407004622023120711567+39928-074292FM-15+0025KMJX V0202405N002152200059N0160935N5-00335-00675102065ADDGA1005+999999999GD10991+9999999GF100991999999999999999999KA1060M-00061KA2060N-00501MA1102035101735MD1390129+9999REMMET11712/07/23 06:56:02 METAR KMJX 071156Z 24004KT 10SM CLR M03/M07 A3013 RMK AO2 SLP206 T10331067 11006 21050 53012 FZRANO
0208720407004622023120712567+39928-074292FM-15+0025KMJX V0202305N00265030485MN0160935N5-00175-00565102025ADDGA1075+030485999GD13991+0304859GE19AGL   +99999+99999GF199999999999030481999999MA1101965101665REMMET10212/07/23 07:56:02 METAR KMJX 071256Z 23005KT 10SM BKN100 M02/M06 A3011 RMK AO2 SLP202 T10171056 FZRANO
0246720407004622023120713567+39928-074292FM-15+0025KMJX V0202505N00215027435MN0160935N5-00065-00505102015ADDGA1075+027435999GA2085+033535999GD13991+0274359GD24991+0335359GE19AGL   +99999+99999GF199999999999027431999999MA1101965101665REMMET10912/07/23 08:56:02 METAR KMJX 071356Z 25004KT 10SM BKN090 OVC110 M01/M05 A3011 RMK AO2 SLP201 T10061050 FZRANO
0265720407004622023120714567+39928-074292FM-15+0025KMJX V0202705N00365021345MN0160935N5+00115-00565102035ADDGA1075+021345999GA2085+027435999GD13991+0213459GD24991+0274359GE19AGL   +99999+99999GF199999999999021341999999MA1102005101705MD1590039+9999REMMET11412/07/23 09:56:02 METAR KMJX 071456Z 27007KT 10SM BKN070 OVC090 01/M06 A3012 RMK AO2 SLP203 T00111056 55003 FZRANO
0261720407004622023120716567+39928-074292FM-15+0025KMJX V0202305N00465011285MN0160935N5+00335-00175101775ADDAA101000021GA1075+011285999GA2075+014025999GD13991+0112859GD23991+0140259GE19AGL   +99999+99999GF199999999999011281999999MA1101735101435REMMET11312/07/23 11:56:02 METAR KMJX 071656Z 23009KT 10SM BKN037 BKN046 03/M02 A3004 RMK AO2 RAE08 SLP177 P0000 T00331017
0281720407004622023120718277+39928-074292FM-15+0025KMJX V0202505N00365005185MN0160935N5+00305+00005999999ADDAA101000021GA1075+005185999GA2075+012505999GA3085+024385999GD13991+0051859GD23991+0125059GD34991+0243859GE19AGL   +99999+99999GF199999999999005181999999MA1101635101325REMMET10212/07/23 13:27:02 METAR KMJX 071827Z 25007KT 10SM BKN017 BKN041 OVC080 03/00 A3001 RMK AO2 RAE15 P0000
0221720407004622023120718567+39928-074292FM-15+0025KMJX V0202505N00575004575MN0160935N5+00335+00005999999ADDAA101000021GA1085+004575999GD14991+0045759GE19AGL   +99999+99999GF199999999999004571999999MA1101565101265REMMET10412/07/23 13:56:02 METAR KMJX 071856Z 25011KT 10SM OVC015 03/00 A2999 RMK AO2 RAE15 SLPNO P0000 T00330000
0220720407004622023120719547+39928-074292FM-15+0025KMJX V0202605N00315024385MN0160935N5+00305+00005999999ADDGA1025+004575999GA2085+024385999GD11991+0045759GD24991+0243859GE19AGL   +99999+99999GF199999999999004571999999MA1101525101225REMMET08312/07/23 14:54:02 METAR KMJX 071954Z 26006KT 10SM FEW015 OVC080 03/00 A2998 RMK AO2
0236720407004622023120719567+39928-074292FM-15+0025KMJX V0202505N00365022865MN0160935N5+00335+00005999999ADDGA1025+004575999GA2085+022865999GD11991+0045759GD24991+0228659GE19AGL   +99999+99999GF199999999999004571999999MA1101525101225REMMET09912/07/23 14:56:02 METAR KMJX 071956Z 25007KT 10SM FEW015 OVC075 03/00 A2998 RMK AO2 SLPNO T00330000
0270720407004622023120720567+39928-074292FM-15+0025KMJX V0202405N00265022865MN0160935N5+00335+00005999999ADDAA103000021GA1085+022865999GD14991+0228659GE19AGL   +99999+99999GF199999999999022861999999MA1101595101295MD1390049+9999REMMET10412/07/23 15:56:02 METAR KMJX 072056Z 24005KT 10SM OVC075 03/00 A3000 RMK AO2 SLPNO 60000 T00330000 53004EQDQ01  00002PRCP03Q02  00008PRCP03
0198720407004622023120721567+39928-074292FM-15+0025KMJX V0202605N00215021345MN0160935N5+00335+00005999999ADDGA1085+021345999GD14991+0213459GE19AGL   +99999+99999GF199999999999021341999999MA1101665101365REMMET09212/07/23 16:56:02 METAR KMJX 072156Z 26004KT 10SM OVC070 03/00 A3002 RMK AO2 SLPNO T00330000
0198720407004622023120722567+39928-074292FM-15+0025KMJX V0202405N00155018295MN0160935N5+00285+00005999999ADDGA1085+018295999GD14991+0182959GE19AGL   +99999+99999GF199999999999018291999999MA1101665101365REMMET09212/07/23 17:56:02 METAR KMJX 072256Z 24003KT 10SM OVC060 03/00 A3002 RMK AO2 SLPNO T00280000
0309720407004622023120723567+39928-074292FM-15+0025KMJX V0209999C00005016765MN0160935N5+00285-00065999999ADDAA106000021GA1085+016765999GD14991+0167659GE19AGL   +99999+99999GF199999999999016761999999KA1060M+00331KA2060N+00281MA1101735101435MD1390129+9999REMMET11712/07/23 18:56:02 METAR KMJX 072356Z 00000KT 10SM OVC055 03/M01 A3004 RMK AO2 SLPNO 60000 T00281006 10033 20028 53012EQDQ01  00002PRCP06Q02  00008PRCP06
0205720407004622023120800567+39928-074292FM-15+0025KMJX V0202405N00215021345MN0160935N5+00175+00005999999ADDGA1085+021345999GD14991+0213459GE19AGL   +99999+99999GF199999999999021341999999MA1101765101465REMMET09912/07/23 19:56:01 METAR KMJX 080056Z 24004KT 10SM OVC070 02/00 A3005 RMK AO2 SLPNO T00170000 FZRANO
0205720407004622023120801567+39928-074292FM-15+0025KMJX V0202805N00215018295MN0160935N5+00225+00005999999ADDGA1085+018295999GD14991+0182959GE19AGL   +99999+99999GF199999999999018291999999MA1101795101495REMMET09912/07/23 20:56:01 METAR KMJX 080156Z 28004KT 10SM OVC060 02/00 A3006 RMK AO2 SLPNO T00220000 FZRANO
0218720407004622023120802567+39928-074292FM-15+0025KMJX V0202805N00215018295MN0160935N5+00335+00005999999ADDGA1085+018295999GD14991+0182959GE19AGL   +99999+99999GF199999999999018291999999MA1101835101535MD1190119+9999REMMET09812/07/23 21:56:01 METAR KMJX 080256Z 28004KT 10SM OVC060 03/00 A3007 RMK AO2 SLPNO T00330000 51011
0198720407004622023120803567+39928-074292FM-15+0025KMJX V0202505N00215016765MN0160935N5+00285+00005999999ADDGA1085+016765999GD14991+0167659GE19AGL   +99999+99999GF199999999999016761999999MA1101865101565REMMET09212/07/23 22:56:01 METAR KMJX 080356Z 25004KT 10SM OVC055 03/00 A3008 RMK AO2 SLPNO T00280000
0242720407004622023120804567+39928-074292FM-15+0025KMJX V0209999C00005016765MN0160935N5+00115-00065999999ADDGA1075+016765999GD13991+0167659GE19AGL   +99999+99999GF199999999999016761999999KA1240M+00331KA2240N-00501MA1101905101595REMMET11012/07/23 23:56:02 METAR KMJX 080456Z 00000KT 10SM BKN055 01/M01 A3009 RMK AO2 SLPNO T00111006 400331050 FZRANO
0260720407004622023120805567+39928-074292FM-15+0025KMJX V0209999C000052200059N0096565N5-00225-00335101905ADDAU100001015AW1105GA1005+999999999GD10991+9999999GF100991999999999999999999KA1060M+00331KA2060N-00221MA1101865101565MD1090029+9999REMMET11912/08/23 00:56:02 METAR KMJX 080556Z 00000KT 6SM BR CLR M02/M03 A3008 RMK AO2 SLP190 T10221033 10033 21022 50002 FZRANO
0183720407004622023120806567+39928-074292FM-15+0025KMJX V0203005N001552200059N0160935N5-00335-00445101975ADDGA1005+999999999GD10991+9999999GF100991999999999999999999MA1101935101635REMMET09912/08/23 01:56:02 METAR KMJX 080656Z 30003KT 10SM CLR M03/M04 A3010 RMK AO2 SLP197 T10331044 FZRANO
0183720407004622023120807567+39928-074292FM-15+0025KMJX V0209999C000052200059N0160935N5-00395-00445102015ADDGA1005+999999999GD10991+9999999GF100991999999999999999999MA1101965101665REMMET09912/08/23 02:56:02 METAR KMJX 080756Z 00000KT 10SM CLR M04/M04 A3011 RMK AO2 SLP201 T10391044 FZRANO
0203720407004622023120808567+39928-074292FM-15+0025KMJX V0209999C000052200059N0160935N5-00445-00505102055ADDGA1005+999999999GD10991+9999999GF100991999999999999999999MA1102005101705MD1190159+9999REMMET10512/08/23 03:56:02 METAR KMJX 080856Z 00000KT 10SM CLR M04/M05 A3012 RMK AO2 SLP205 T10441050 51015 FZRANO
0183720407004622023120809567+39928-074292FM-15+0025KMJX V0209999C000052200059N0160935N5-00445-00505102095ADDGA1005+999999999GD10991+9999999GF100991999999999999999999MA1102035101735REMMET09912/08/23 04:56:02 METAR KMJX 080956Z 00000KT 10SM CLR M04/M05 A3013 RMK AO2 SLP209 T10441050 FZRANO
0183720407004622023120810567+39928-074292FM-15+0025KMJX V0209999C000052200059N0160935N5-00445-00505102175ADDGA1005+999999999GD10991+9999999GF100991999999999999999999MA1102135101835REMMET09912/08/23 05:56:02 METAR KMJX 081056Z 00000KT 10SM CLR M04/M05 A3016 RMK AO2 SLP217 T10441050 FZRANO
0257720407004622023120811567+39928-074292FM-15+0025KMJX V0209999C000052200059N0144845N5-00445-00505102205ADDAA124999919GA1005+999999999GD10991+9999999GF100991999999999999999999KA1060M-00221KA2060N-00501MA1102175101875MD1190169+9999REMMET12212/08/23 06:56:02 METAR KMJX 081156Z 00000KT 9SM CLR M04/M05 A3017 RMK AO2 SLP220 7//// T10441050 11022 21050 51016 FZRANO
0183720407004622023120812567+39928-074292FM-15+0025KMJX V0202305N001552200059N0160935N5-00395-00395102275ADDGA1005+999999999GD10991+9999999GF100991999999999999999999MA1102245101935REMMET09912/08/23 07:56:02 METAR KMJX 081256Z 23003KT 10SM CLR M04/M04 A3019 RMK AO2 SLP227 T10391039 FZRANO
0181720407004622023120813567+39928-074292FM-15+0025KMJX V0209999C000052200059N0160935N5+00115+00065102335ADDGA1005+999999999GD10991+9999999GF100991999999999999999999MA1102305102005REMMET09712/08/23 08:56:02 METAR KMJX 081356Z 00000KT 10SM CLR 01/01 A3021 RMK AO2 SLP233 T00110006 FZRANO
0194720407004622023120814567+39928-074292FM-15+0025KMJX V0209999C000052200059N0160935N5+00615+00115102395ADDGA1005+999999999GD10991+9999999GF100991999999999999999999MA1102345102035MD1190189+9999REMMET09612/08/23 09:56:02 METAR KMJX 081456Z 00000KT 10SM CLR 06/01 A3022 RMK AO2 SLP239 T00610011 51018
0174720407004622023120815567+39928-074292FM-15+0025KMJX V0209999V002152200059N0160935N5+00895+00065102355ADDGA1005+999999999GD10991+9999999GF100991999999999999999999MA1102305102005REMMET09012/08/23 10:56:02 METAR KMJX 081556Z VRB04KT 10SM CLR 09/01 A3021 RMK AO2 SLP235 T00890006
0175720407004622023120816567+39928-074292FM-15+0025KMJX V0201505N003152200059N0160935N5+01065-00065102285ADDGA1005+999999999GD10991+9999999GF100991999999999999999999MA1102245101935REMMET09112/08/23 11:56:02 METAR KMJX 081656Z 15006KT 10SM CLR 11/M01 A3019 RMK AO2 SLP228 T01061006
0233720407004622023120817567+39928-074292FM-15+0025KMJX V0209999V002152200059N0160935N5+01115-00065102275ADDGA1005+999999999GD10991+9999999GF100991999999999999999999KA1060M+01111KA2060N-00501MA1102245101935MD1690129+9999REMMET10912/08/23 12:56:02 METAR KMJX 081756Z VRB04KT 10SM CLR 11/M01 A3019 RMK AO2 SLP227 T01111006 10111 21050 56012
0174720407004622023120818567+39928-074292FM-15+0025KMJX V0201705N003152200059N0160935N5+01175+00005102235ADDGA1005+999999999GD10991+9999999GF100991999999999999999999MA1102205101905REMMET09012/08/23 13:56:02 METAR KMJX 081856Z 17006KT 10SM CLR 12/00 A3018 RMK AO2 SLP223 T01170000
0218720407004622023120819567+39928-074292FM-15+0025KMJX V0201505N003152200059N0160935N5+01065+00065102235ADDGA1025+014025999GD11991+0140259GE19AGL   +99999+99999GF102995999999014021999999MA1102205101905REMMET09312/08/23 14:56:02 METAR KMJX 081956Z 15006KT 10SM FEW046 11/01 A3018 RMK AO2 SLP223 T01060006EQDD01      0ADE726
0194720407004622023120820567+39928-074292FM-15+0025KMJX V0201405N003652200059N0160935N5+00895+00175102285ADDGA1005+999999999GD10991+9999999GF100991999999999999999999MA1102245101935MD1390019+9999REMMET09612/08/23 15:56:02 METAR KMJX 082056Z 14007KT 10SM CLR 09/02 A3019 RMK AO2 SLP228 T00890017 53001
0174720407004622023120821567+39928-074292FM-15+0025KMJX V0201605N001552200059N0160935N5+00615+00175102305ADDGA1005+999999999GD10991+9999999GF100991999999999999999999MA1102275101975REMMET09012/08/23 16:56:02 METAR KMJX 082156Z 16003KT 10SM CLR 06/02 A3020 RMK AO2 SLP230 T00610017
0174720407004622023120822567+39928-074292FM-15+0025KMJX V0201705N001552200059N0160935N5+00285+00115102355ADDGA1005+999999999GD10991+9999999GF100991999999999999999999MA1102305102005REMMET09012/08/23 17:56:02 METAR KMJX 082256Z 17003KT 10SM CLR 03/01 A3021 RMK AO2 SLP235 T00280011
0182720407004622023120900567+39928-074292FM-15+0025KMJX V0209999C000052200059N0160935N5+00005-00175102395ADDGA1005+999999999GD10991+9999999GF100991999999999999999999MA1102345102035REMMET09812/08/23 19:56:01 METAR KMJX 090056Z 00000KT 10SM CLR 00/M02 A3022 RMK AO2 SLP239 T00001017 FZRANO
0183720407004622023120901567+39928-074292FM-15+0025KMJX V0209999C000052200059N0160935N5-00065-00225102415ADDGA1005+999999999GD10991+9999999GF100991999999999999999999MA1102375102075REMMET09912/08/23 20:56:01 METAR KMJX 090156Z 00000KT 10SM CLR M01/M02 A3023 RMK AO2 SLP241 T10061022 FZRANO
0203720407004622023120902567+39928-074292FM-15+0025KMJX V0209999C000052200059N0160935N5-00115-00225102415ADDGA1005+999999999GD10991+9999999GF100991999999999999999999MA1102375102075MD1190039+9999REMMET10512/08/23 21:56:01 METAR KMJX 090256Z 00000KT 10SM CLR M01/M02 A3023 RMK AO2 SLP241 T10111022 51003 FZRANO
0183720407004622023120903567+39928-074292FM-15+0025KMJX V0209999C000052200059N0160935N5-00175-00335102395ADDGA1005+999999999GD10991+9999999GF100991999999999999999999MA1102345102035REMMET09912/08/23 22:56:02 METAR KMJX 090356Z 00000KT 10SM CLR M02/M03 A3022 RMK AO2 SLP239 T10171033 FZRANO
0219720407004622023120904567+39928-074292FM-15+0025KMJX V0209999C000052200059N0160935N5-00225-00335102405ADDGA1005+999999999GD10991+9999999GF100991999999999999999999KA1240M+01221KA2240N-00501MA1102375102075REMMET10912/08/23 23:56:02 METAR KMJX 090456Z 00000KT 10SM CLR M02/M03 A3023 RMK AO2 SLP240 T10221033 401221050 FZRANO
001572040700462202312090459O+39928-074292SOD  +0025KMJX V020999999999999999999999999999+99999+99999999999ADDAT1AU13BR  5
0241720407004622023120905567+39928-074292FM-15+0025KMJX V0209999C000052200059N0160935N5-00225-00335102375ADDGA1005+999999999GD10991+9999999GF100991999999999999999999KA1060M+00171KA2060N-00221MA1102345102035MD1890049+9999REMMET11712/09/23 00:56:02 METAR KMJX 090556Z 00000KT 10SM CLR M02/M03 A3022 RMK AO2 SLP237 T10221033 10017 21022 58004 FZRANO
0210720407004622023120906147+39928-074292FM-15+0025KMJX V0209999C000052200059N0160935N5-00205-00305999999ADDGA1045+000915999GD12991+0009159GE19AGL   +99999+99999GF104995999999000911999999MA1102345102035REMMET08512/09/23 01:14:02 METAR KMJX 090614Z 00000KT 10SM SCT003 M02/M03 A3022 RMK AO2 FZRANOEQDD01      0ADE726
0191720407004622023120906317+39928-074292FM-15+0025KMJX V0209999C00005000305MN0160935N5-00205-00305999999ADDGA1075+000305999GD13991+0003059GE19AGL   +99999+99999GF199999999999000301999999MA1102345102035REMMET08512/09/23 01:31:01 METAR KMJX 090631Z 00000KT 10SM BKN001 M02/M03 A3022 RMK AO2 FZRANO
0210720407004622023120906537+39928-074292FM-15+0025KMJX V0209999C000052200059N0160935N5-00205-00305999999ADDGA1045+000305999GD12991+0003059GE19AGL   +99999+99999GF104995999999000301999999MA1102345102035REMMET08512/09/23 01:53:02 METAR KMJX 090653Z 00000KT 10SM SCT001 M02/M03 A3022 RMK AO2 FZRANOEQDD01      0ADE726
0227720407004622023120906567+39928-074292FM-15+0025KMJX V0209999C000052200059N0160935N5-00225-00285102375ADDGA1025+000305999GD11991+0003059GE19AGL   +99999+99999GF102995999999000301999999MA1102345102035REMMET10212/09/23 01:56:02 METAR KMJX 090656Z 00000KT 10SM FEW001 M02/M03 A3022 RMK AO2 SLP237 T10221028 FZRANOEQDD01      0ADE726
0208720407004622023120907567+39928-074292FM-15+0025KMJX V0209999C00005000305MN0160935N5-00225-00335102385ADDGA1075+000305999GD13991+0003059GE19AGL   +99999+99999GF199999999999000301999999MA1102345102035REMMET10212/09/23 02:56:01 METAR KMJX 090756Z 00000KT 10SM BKN001 M02/M03 A3022 RMK AO2 SLP238 T10221033 FZRANO
0224720407004622023120908427+39928-074292FM-15+0025KMJX V0209999C00005000305MN0028165V5-00205-00305999999ADDAU100001015AW1105GA1085+000305999GD14991+0003059GE19AGL   +99999+99999GF199999999999000301999999MA1102275101975REMMET10112/09/23 03:42:01 METAR KMJX 090842Z 00000KT 1 3/4SM BR OVC001 M02/M03 A3020 RMK AO2 VIS 3/4V5 FZRANO
0210720407004622023120908467+39928-074292FM-15+0025KMJX V0209999C00005000615MN0016095N5-00205-00305999999ADDAU100001015AW1105GA1085+000615999GD14991+0006159GE19AGL   +99999+99999GF199999999999000611999999MA1102275101975REMMET08712/09/23 03:46:01 METAR KMJX 090846Z 00000KT 1SM BR OVC002 M02/M03 A3020 RMK AO2 FZRANO
0214720407004622023120908487+39928-074292FM-15+0025KMJX V0209999C00005000615MN0008055N5-00205-00305999999ADDAU108002015AW1355GA1085+000615999GD14991+0006159GE19AGL   +99999+99999GF199999999999000611999999MA1102275101975REMMET09112/09/23 03:48:01 METAR KMJX 090848Z 00000KT 1/2SM FZFG OVC002 M02/M03 A3020 RMK AO2 FZRANO
0251720407004622023120908567+39928-074292FM-15+0025KMJX V0209999C00005000615MN0004025N5-00225-00335102315ADDAU108002015AW1355GA1085+000615999GD14991+0006159GE19AGL   +99999+99999GF199999999999000611999999MA1102275101975MD1890069+9999REMMET11412/09/23 03:56:02 METAR KMJX 090856Z 00000KT 1/4SM FZFG OVC002 M02/M03 A3020 RMK AO2 SLP231 T10221033 58006 FZRANO
0214720407004622023120909087+39928-074292FM-15+0025KMJX V0209999C00005000615MN0008055N5-00205-00305999999ADDAU108002015AW1355GA1085+000615999GD14991+0006159GE19AGL   +99999+99999GF199999999999000611999999MA1102275101975REMMET09112/09/23 04:08:01 METAR KMJX 090908Z 00000KT 1/2SM FZFG OVC002 M02/M03 A3020 RMK AO2 FZRANO
0214720407004622023120909167+39928-074292FM-15+0025KMJX V0209999C00005000615MN0004025N5-00205-00305999999ADDAU108002015AW1355GA1085+000615999GD14991+0006159GE19AGL   +99999+99999GF199999999999000611999999MA1102275101975REMMET09112/09/23 04:16:01 METAR KMJX 090916Z 00000KT 1/4SM FZFG OVC002 M02/M03 A3020 RMK AO2 FZRANO
0214720407004622023120909307+39928-074292FM-15+0025KMJX V0209999C00005000615MN0008055N5-00205-00305999999ADDAU108002015AW1355GA1085+000615999GD14991+0006159GE19AGL   +99999+99999GF199999999999000611999999MA1102275101975REMMET09112/09/23 04:30:01 METAR KMJX 090930Z 00000KT 1/2SM FZFG OVC002 M02/M03 A3020 RMK AO2 FZRANO
0210720407004622023120909397+39928-074292FM-15+0025KMJX V0209999C00005000615MN0016095N5-00205-00305999999ADDAU100001015AW1105GA1085+000615999GD14991+0006159GE19AGL   +99999+99999GF199999999999000611999999MA1102275101975REMMET08712/09/23 04:39:02 METAR KMJX 090939Z 00000KT 1SM BR OVC002 M02/M03 A3020 RMK AO2 FZRANO
0214720407004622023120909487+39928-074292FM-15+0025KMJX V0209999C00005000615MN0028165N5-00205-00305999999ADDAU100001015AW1105GA1085+000615999GD14991+0006159GE19AGL   +99999+99999GF199999999999000611999999MA1102275101975REMMET09112/09/23 04:48:01 METAR KMJX 090948Z 00000KT 1 3/4SM BR OVC002 M02/M03 A3020 RMK AO2 FZRANO
0227720407004622023120909567+39928-074292FM-15+0025KMJX V0209999C00005000615MN0064375N5-00225-00335102315ADDAU100001015AW1105GA1085+000615999GD14991+0006159GE19AGL   +99999+99999GF199999999999000611999999MA1102275101975REMMET10412/09/23 04:56:02 METAR KMJX 090956Z 00000KT 4SM BR OVC002 M02/M03 A3020 RMK AO2 SLP231 T10221033 FZRANO
0214720407004622023120910047+39928-074292FM-15+0025KMJX V0209999C00005000615MN0028165N5-00205-00305999999ADDAU100001015AW1105GA1085+000615999GD14991+0006159GE19AGL   +99999+99999GF199999999999000611999999MA1102275101975REMMET09112/09/23 05:04:02 METAR KMJX 091004Z 00000KT 1 3/4SM BR OVC002 M02/M03 A3020 RMK AO2 FZRANO
0210720407004622023120910147+39928-074292FM-15+0025KMJX V0209999C00005000615MN0048285N5-00205-00305999999ADDAU100001015AW1105GA1085+000615999GD14991+0006159GE19AGL   +99999+99999GF199999999999000611999999MA1102305102005REMMET08712/09/23 05:14:02 METAR KMJX 091014Z 00000KT 3SM BR OVC002 M02/M03 A3021 RMK AO2 FZRANO
0224720407004622023120910187+39928-074292FM-15+0025KMJX V0209999C00005000615MN0024145V5-00205-00305999999ADDAU100001015AW1105GA1085+000615999GD14991+0006159GE19AGL   +99999+99999GF199999999999000611999999MA1102305102005REMMET10112/09/23 05:18:02 METAR KMJX 091018Z 00000KT 1 1/2SM BR OVC002 M02/M03 A3021 RMK AO2 VIS 1/2V5 FZRANO
0173720407004622023120910227+39928-074292FM-15+0025KMJX V0209999C000059999999N0012075V5-00205-00305999999ADDAU100001015AW1105MA1102305102005REMMET09412/09/23 05:22:02 METAR KMJX 091022Z 00000KT 3/4SM BR M02/M03 A3021 RMK AO2 VIS 1/4V3 FZRANO $EQDR01      7SKY009R02      7GAS009
0228720407004622023120910277+39928-074292FM-15+0025KMJX V0209999C00005000305MN0008055V5-00205-00305999999ADDAU108002015AW1355GA1085+000305999GD14991+0003059GE19AGL   +99999+99999GF199999999999000301999999MA1102305102005REMMET10512/09/23 05:27:01 METAR KMJX 091027Z 00000KT 1/2SM FZFG OVC001 M02/M03 A3021 RMK AO2 VIS 1/4V2 1/2 FZRANO
0231720407004622023120910567+39928-074292FM-15+0025KMJX V0209999C00005000305MN0008055N5-00285-00285102335ADDAU108002015AW1355GA1085+000305999GD14991+0003059GE19AGL   +99999+99999GF199999999999000301999999MA1102305102005REMMET10812/09/23 05:56:02 METAR KMJX 091056Z 00000KT 1/2SM FZFG OVC001 M03/M03 A3021 RMK AO2 SLP233 T10281028 FZRANO
0210720407004622023120911027+39928-074292FM-15+0025KMJX V0209999C00005000305MN0016095N5-00305-00305999999ADDAU100001015AW1105GA1085+000305999GD14991+0003059GE19AGL   +99999+99999GF199999999999000301999999MA1102305102005REMMET08712/09/23 06:02:02 METAR KMJX 091102Z 00000KT 1SM BR OVC001 M03/M03 A3021 RMK AO2 FZRANO
0210720407004622023120911087+39928-074292FM-15+0025KMJX V0209999C00005000305MN0032195N5-00305-00305999999ADDAU100001015AW1105GA1085+000305999GD14991+0003059GE19AGL   +99999+99999GF199999999999000301999999MA1102305102005REMMET08712/09/23 06:08:02 METAR KMJX 091108Z 00000KT 2SM BR OVC001 M03/M03 A3021 RMK AO2 FZRANO
0210720407004622023120911187+39928-074292FM-15+0025KMJX V0209999C00005000305MN0064375N5-00305-00305999999ADDAU100001015AW1105GA1085+000305999GD14991+0003059GE19AGL   +99999+99999GF199999999999000301999999MA1102305102005REMMET08712/09/23 06:18:01 METAR KMJX 091118Z 00000KT 4SM BR OVC001 M03/M03 A3021 RMK AO2 FZRANO
0214720407004622023120911297+39928-074292FM-15+0025KMJX V0209999C00005000305MN0024145N5-00305-00305999999ADDAU100001015AW1105GA1085+000305999GD14991+0003059GE19AGL   +99999+99999GF199999999999000301999999MA1102305102005REMMET09112/09/23 06:29:02 METAR KMJX 091129Z 00000KT 1 1/2SM BR OVC001 M03/M03 A3021 RMK AO2 FZRANO
0212720407004622023120911317+39928-074292FM-15+0025KMJX V0209999C00005000305MN0012075N5-00305-00305999999ADDAU100001015AW1105GA1085+000305999GD14991+0003059GE19AGL   +99999+99999GF199999999999000301999999MA1102305102005REMMET08912/09/23 06:31:02 METAR KMJX 091131Z 00000KT 3/4SM BR OVC001 M03/M03 A3021 RMK AO2 FZRANO
0214720407004622023120911357+39928-074292FM-15+0025KMJX V0209999C00005000305MN0004025N5-00305-00305999999ADDAU108002015AW1355GA1085+000305999GD14991+0003059GE19AGL   +99999+99999GF199999999999000301999999MA1102275101975REMMET09112/09/23 06:35:02 METAR KMJX 091135Z 00000KT 1/4SM FZFG OVC001 M03/M03 A3020 RMK AO2 FZRANO
0289720407004622023120911567+39928-074292FM-15+0025KMJX V0209999C00005000305MN0004025N5-00225-00285102365ADDAU108002015AW1355GA1085+000305999GD14991+0003059GE19AGL   +99999+99999GF199999999999000301999999KA1060M-00221KA2060N-00281MA1102305102005MD1390059+9999REMMET12612/09/23 06:56:01 METAR KMJX 091156Z 00000KT 1/4SM FZFG OVC001 M02/M03 A3021 RMK AO2 SLP236 T10221028 11022 21028 53005 FZRANO
0215720407004622023120912227+39928-074292FM-15+0025KMJX V0209999C00005000615MN0000005N5-00205-00205999999ADDAU108002015AW1355GA1085+000615999GD14991+0006159GE19AGL   +99999+99999GF199999999999000611999999MA1102305102005REMMET09212/09/23 07:22:02 METAR KMJX 091222Z 00000KT M1/4SM FZFG OVC002 M02/M02 A3021 RMK AO2 FZRANO
0182720407004622023120912567+39928-074292FM-15+0025KMJX V0209999C000059999999N0004025N5-00175-00175102375ADDAU108002015AW1355MA1102345102035REMMET10312/09/23 07:56:02 METAR KMJX 091256Z 00000KT 1/4SM FZFG M02/M02 A3022 RMK AO2 SLP237 T10171017 FZRANO $EQDR01      7SKY009R02      7GAS009
0210720407004622023120913407+39928-074292FM-15+0025KMJX V0209999C00005000615MN0004025N5+00105+00105999999ADDAU100002015AW1305GA1085+000615999GD14991+0006159GE19AGL   +99999+99999GF199999999999000611999999MA1102345102035REMMET08712/09/23 08:40:02 METAR KMJX 091340Z 00000KT 1/4SM FG OVC002 01/01 A3022 RMK AO2 FZRANO
0227720407004622023120913567+39928-074292FM-15+0025KMJX V0209999C00005000615MN0004025N5+00175+00175102385ADDAU100002015AW1305GA1085+000615999GD14991+0006159GE19AGL   +99999+99999GF199999999999000611999999MA1102345102035REMMET10412/09/23 08:56:02 METAR KMJX 091356Z 00000KT 1/4SM FG OVC002 02/02 A3022 RMK AO2 SLP238 T00170017 FZRANO
0203720407004622023120914307+39928-074292FM-15+0025KMJX V0201505N00155000615MN0012075N5+00505+00505999999ADDAU100001015AW1105GA1075+000615999GD13991+0006159GE19AGL   +99999+99999GF199999999999000611999999MA1102345102035REMMET08012/09/23 09:30:02 METAR KMJX 091430Z 15003KT 3/4SM BR BKN002 05/05 A3022 RMK AO2
0205720407004622023120914327+39928-074292FM-15+0025KMJX V0201505N00155000615MN0024145N5+00605+00605999999ADDAU100001015AW1105GA1075+000615999GD13991+0006159GE19AGL   +99999+99999GF199999999999000611999999MA1102345102035REMMET08212/09/23 09:32:02 METAR KMJX 091432Z 15003KT 1 1/2SM BR BKN002 06/06 A3022 RMK AO2
0201720407004622023120914347+39928-074292FM-15+0025KMJX V0201505N00155000615MN0064375N5+00605+00605999999ADDAU100001015AW1105GA1075+000615999GD13991+0006159GE19AGL   +99999+99999GF199999999999000611999999MA1102345102035REMMET07812/09/23 09:34:02 METAR KMJX 091434Z 15003KT 4SM BR BKN002 06/06 A3022 RMK AO2
0200720407004622023120914457+39928-074292FM-15+0025KMJX V0201605N001552200059N0144845N5+00705+00705999999ADDGA1045+000615999GD12991+0006159GE19AGL   +99999+99999GF104995999999000611999999MA1102345102035REMMET07512/09/23 09:45:02 METAR KMJX 091445Z 16003KT 9SM SCT002 07/07 A3022 RMK AO2EQDD01      0ADE726
0194720407004622023120914567+39928-074292FM-15+0025KMJX V0201605N002152200059N0160935N5+00895+00725102395ADDGA1005+999999999GD10991+9999999GF100991999999999999999999MA1102345102035MD1190039+9999REMMET09612/09/23 09:56:02 METAR KMJX 091456Z 16004KT 10SM CLR 09/07 A3022 RMK AO2 SLP239 T00890072 51003
0174720407004622023120915567+39928-074292FM-15+0025KMJX V0202205N003652200059N0160935N5+01285+00785102375ADDGA1005+999999999GD10991+9999999GF100991999999999999999999MA1102345102035REMMET09012/09/23 10:56:02 METAR KMJX 091556Z 22007KT 10SM CLR 13/08 A3022 RMK AO2 SLP237 T01280078
0174720407004622023120916567+39928-074292FM-15+0025KMJX V0201905N003152200059N0160935N5+01445+00615102235ADDGA1005+999999999GD10991+9999999GF100991999999999999999999MA1102205101905REMMET09012/09/23 11:56:02 METAR KMJX 091656Z 19006KT 10SM CLR 14/06 A3018 RMK AO2 SLP223 T01440061
0232720407004622023120917567+39928-074292FM-15+0025KMJX V0201905N004652200059N0160935N5+01565+00565102155ADDGA1005+999999999GD10991+9999999GF100991999999999999999999KA1060M+01561KA2060N-00221MA1102105101805MD1890249+9999REMMET10812/09/23 12:56:02 METAR KMJX 091756Z 19009KT 10SM CLR 16/06 A3015 RMK AO2 SLP215 T01560056 10156 21022 58024
0174720407004622023120918567+39928-074292FM-15+0025KMJX V0202405N004152200059N0160935N5+01565+00445102165ADDGA1005+999999999GD10991+9999999GF100991999999999999999999MA1102105101805REMMET09012/09/23 13:56:02 METAR KMJX 091856Z 24008KT 10SM CLR 16/04 A3015 RMK AO2 SLP216 T01560044
0174720407004622023120919567+39928-074292FM-15+0025KMJX V0202605N004652200059N0160935N5+01565+00505102105ADDGA1005+999999999GD10991+9999999GF100991999999999999999999MA1102075101765REMMET09012/09/23 14:56:02 METAR KMJX 091956Z 26009KT 10SM CLR 16/05 A3014 RMK AO2 SLP210 T01560050
0154720407004622023120920567+39928-074292FM-15+0025KMJX V0209999C000052200059N0160935N5+01395+00505999999ADDGA1005+999999999GD10991+9999999GF100991999999999999999999REMMET08512/09/23 15:56:02 METAR KMJX 092056Z 00000KT 10SM CLR 14/05 RMK AO2 SLPNO T01390050 $
0174720407004622023120921567+39928-074292FM-15+0025KMJX V0209999C000052200059N0160935N5+01005+00675102175ADDGA1005+999999999GD10991+9999999GF100991999999999999999999MA1102135101835REMMET09012/09/23 16:56:02 METAR KMJX 092156Z 00000KT 10SM CLR 10/07 A3016 RMK AO2 SLP217 T01000067
0218720407004622023120922567+39928-074292FM-15+0025KMJX V0201905N001552200059N0160935N5+00835+00615102175ADDGA1025+036585999GD11991+0365859GE19AGL   +99999+99999GF102995999999036581999999MA1102135101835REMMET09312/09/23 17:56:02 METAR KMJX 092256Z 19003KT 10SM FEW120 08/06 A3016 RMK AO2 SLP217 T00830061EQDD01      0ADE726
0237720407004622023120923567+39928-074292FM-15+0025KMJX V0209999C00005030485MN0160935N5+00835+00675102245ADDGA1075+030485999GD13991+0304859GE19AGL   +99999+99999GF199999999999030481999999KA1060M+01611KA2060N+00781MA1102205101905REMMET10512/09/23 18:56:02 METAR KMJX 092356Z 00000KT 10SM BKN100 08/07 A3018 RMK AO2 SLP224 T00830067 10161 20078
0225720407004622023121000567+39928-074292FM-15+0025KMJX V0202005N00155027435MN0160935N5+00945+00835102205ADDAA101000021GA1085+027435999GD14991+0274359GE19AGL   +99999+99999GF199999999999027431999999MA1102175101875REMMET10812/09/23 19:56:01 METAR KMJX 100056Z 20003KT 10SM OVC090 09/08 A3017 RMK AO2 RAB16E35 SLP220 P0000 T00940083
0237720407004622023121001567+39928-074292FM-15+0025KMJX V0209999C000052200059N0048285N5+00725+00725102185ADDAU100001015AW1105GA1025+033535999GD11991+0335359GE19AGL   +99999+99999GF102995999999033531999999MA1102135101835REMMET09512/09/23 20:56:01 METAR KMJX 100156Z 00000KT 3SM BR FEW110 07/07 A3016 RMK AO2 SLP218 T00720072EQDD01      0ADE726
0236720407004622023121002047+39928-074292FM-15+0025KMJX V0209999C000052200059N0032195V5+00705+00705999999ADDAA101000021AU110020015AU200001015AW1105AW2615GA1005+999999999GD10991+9999999GF100991999999999999999999MA1102135101835MW1615REMMET10112/09/23 21:04:01 METAR KMJX 100204Z 00000KT 2SM -RA BR CLR 07/07 A3016 RMK AO2 VIS 3/4V5 RAB01 P0000
0246720407004622023121002127+39928-074292FM-15+0025KMJX V0209999C000052200059N0080475N5+00705+00705999999ADDAA101000021AU100001015AW1105GA1025+036585999GD11991+0365859GE19AGL   +99999+99999GF102995999999036581999999MA1102135101835REMMET09312/09/23 21:12:01 METAR KMJX 100212Z 00000KT 5SM BR FEW120 07/07 A3016 RMK AO2 RAB01E12 P0000EQDD01      0ADE726
0174720407004622023121003567+39928-074292FM-15+0025KMJX V0209999C000052200059N0160935N5+00445+00445102035ADDGA1005+999999999GD10991+9999999GF100991999999999999999999MA1102005101705REMMET09012/09/23 22:56:02 METAR KMJX 100356Z 00000KT 10SM CLR 04/04 A3012 RMK AO2 SLP203 T00440044
0235720407004622023121004567+39928-074292FM-15+0025KMJX V0209999C00005018295MN0160935N5+00395+00395102005ADDGA1075+018295999GD13991+0182959GE19AGL   +99999+99999GF199999999999018291999999KA1240M+01611KA2240N-00281MA1101965101665REMMET10312/09/23 23:56:02 METAR KMJX 100456Z 00000KT 10SM BKN060 04/04 A3011 RMK AO2 SLP200 T00390039 401611028
005172040700462202312100459O+39928-074292SOD  +0025KMJX V020999999999999999999999999999+99999+99999999999ADDAT1AU16RA  5AT2AU01FG  5AT3AU22FZFG5AT4AU13BR  5
0331720407004622023121005567+39928-074292FM-15+0025KMJX V0209999C00005012805MN0160935N5+00615+00615101935ADDAA106000021GA1075+012805999GA2085+019815999GD13991+0128059GD24991+0198159GE19AGL   +99999+99999GF199999999999012801999999KA1060M+00941KA2060N+00331MA1101905101595MD1890159+9999REMMET12412/10/23 00:56:02 METAR KMJX 100556Z 00000KT 10SM BKN042 OVC065 06/06 A3009 RMK AO2 SLP193 60000 T00610061 10094 20033 58015EQDQ01  00008PRCP06
0199720407004622023121006567+39928-074292FM-15+0025KMJX V0201505N00315014025MN0160935N5+01115+00945101865ADDGA1085+014025999GD14991+0140259GE19AGL   +99999+99999GF199999999999014021999999MA1101835101535REMMET09312/10/23 01:56:02 METAR KMJX 100656Z 15006KT 10SM OVC046 11/09 A3007 RMK AO2 SLP186 T01110094
0218720407004622023121007567+39928-074292FM-15+0025KMJX V0201805N003152200059N0160935N5+01175+01005101785ADDGA1045+021345999GD12991+0213459GE19AGL   +99999+99999GF104995999999021341999999MA1101765101465REMMET09312/10/23 02:56:02 METAR KMJX 100756Z 18006KT 10SM SCT070 12/10 A3005 RMK AO2 SLP178 T01170100EQDD01      0ADE726
0194720407004622023121008567+39928-074292FM-15+0025KMJX V0201805N002652200059N0160935N5+01175+01065101725ADDGA1005+999999999GD10991+9999999GF100991999999999999999999MA1101695101395MD1690219+9999REMMET09612/10/23 03:56:02 METAR KMJX 100856Z 18005KT 10SM CLR 12/11 A3003 RMK AO2 SLP172 T01170106 56021
0174720407004622023121009567+39928-074292FM-15+0025KMJX V0201805N002652200059N0160935N5+01175+01065101675ADDGA1005+999999999GD10991+9999999GF100991999999999999999999MA1101635101325REMMET09012/10/23 04:56:02 METAR KMJX 100956Z 18005KT 10SM CLR 12/11 A3001 RMK AO2 SLP167 T01170106
0199720407004622023121012567+39928-074292FM-15+0025KMJX V0201805N00215021345MN0160935N5+01285+01225101655ADDGA1085+021345999GD14991+0213459GE19AGL   +99999+99999GF199999999999021341999999MA1101635101325REMMET09312/10/23 07:56:02 METAR KMJX 101256Z 18004KT 10SM OVC070 13/12 A3001 RMK AO2 SLP165 T01280122
0275720407004622023121013567+39928-074292FM-15+0025KMJX V0201705N00315013725MN0160935N5+01445+01335101635ADDGA1025+005185999GA2075+013725999GA3085+021345999GD11991+0051859GD23991+0137259GD34991+0213459GE19AGL   +99999+99999GF199999999999005181999999MA1101595101295REMMET10712/10/23 08:56:02 METAR KMJX 101356Z 17006KT 10SM FEW017 BKN045 OVC070 14/13 A3000 RMK AO2 SLP163 T01440133
0258720407004622023121014097+39928-074292FM-15+0025KMJX V0201705N00315006715MN0160935N5+01405+01305999999ADDGA1045+005185999GA2075+006715999GA3085+021345999GD12991+0051859GD23991+0067159GD34991+0213459GE19AGL   +99999+99999GF199999999999005181999999MA1101595101295REMMET09012/10/23 09:09:02 METAR KMJX 101409Z 17006KT 10SM SCT017 BKN022 OVC070 14/13 A3000 RMK AO2
0381720407004622023121014567+39928-074292FM-15+0025KMJX V0201805N00365010675MN0160935N5+01565+01445101595ADDAA101000021AA203000021AU110020015AW1615GA1025+003355999GA2045+007325999GA3085+010675999GD11991+0033559GD22991+0073259GD34991+0106759GE19AGL   +99999+99999GF199999999999003351999999MA1101565101265MD1690069+9999MW1615REMMET13512/10/23 09:56:02 METAR KMJX 101456Z 18007KT 10SM -RA FEW011 SCT024 OVC035 16/14 A2999 RMK AO2 RAB44 SLP159 P0000 60000 T01560144 56006EQDQ01  00008PRCP03
0293720407004622023121015487+39928-074292FM-15+0025KMJX V0201905N00365002135MN0160935N5+01605+01605999999ADDAA101002895GA1075+002135999GA2075+005185999GA3085+007325999GD13991+0021351GD23991+0051859GD34991+0073259GE19AGL   +99999+99999GF199999999999002131999999MA1101465101165REMMET11412/10/23 10:48:02 METAR KMJX 101548Z 19007KT 10SM BKN007 BKN017 OVC024 16/16 A2996 RMK AO2 RAE36 CIG 004V012 P0011
0231720407004622023121016527+39928-074292FM-15+0025KMJX V0201805N00365005495MN0160935N5+01605+01605999999ADDGA1025+002745999GA2085+005495999GD11991+0027459GD24991+0054959GE19AGL   +99999+99999GF199999999999002741999999MA1101295100995OC100725REMMET08612/10/23 11:52:02 METAR KMJX 101652Z 18007G14KT 10SM FEW009 OVC018 16/16 A2991 RMK AO2
0248720407004622023121016567+39928-074292FM-15+0025KMJX V0202005N00365006105MN0160935N5+01615+01565101305ADDGA1025+002745999GA2085+006105999GD11991+0027459GD24991+0061059GE19AGL   +99999+99999GF199999999999002741999999MA1101255100955OC100725REMMET10312/10/23 11:56:02 METAR KMJX 101656Z 20007G14KT 10SM FEW009 OVC020 16/16 A2990 RMK AO2 SLP130 T01610156
0357720407004622023121017567+39928-074292FM-15+0025KMJX V0201905N00365006405MN0160935N5+01675+01565101175ADDAA101000395AA206003091GA1075+006405999GA2085+008235999GD13991+0064059GD24991+0082359GE19AGL   +99999+99999GF199999999999006401999999KA1060M+01671KA2060N+01281MA1101155100855MD1690319+9999REMMET13912/10/23 12:56:02 METAR KMJX 101756Z 19007KT 10SM BKN021 OVC027 17/16 A2987 RMK AO2 RAB01E37 SLP117 P0001 60012 T01670156 10167 20128 56031EQDQ01  00308PRCP06
0264720407004622023121018447+39928-074292FM-15+0025KMJX V0201905N00315003965MN0048285N5+01705+01605999999ADDAA101003395AU130020015AU200001015AW1105AW2635GA1085+003965999GD14991+0039659GE19AGL   +99999+99999GF199999999999003961999999MA1101085100785MW1635OC100725REMMET09912/10/23 13:44:02 METAR KMJX 101844Z 19006G14KT 3SM +RA BR OVC013 17/16 A2985 RMK AO2 RAB1759 P0013
0299720407004622023121018567+39928-074292FM-15+0025KMJX V0202005N00415002745MN0128755N5+01615+01615101115ADDAA101003895AU120020015AW1625GA1075+002745999GA2085+004575999GD13991+0027451GD24991+0045759GE19AGL   +99999+99999GF199999999999002741999999MA1101085100785MW1655REMMET12812/10/23 13:56:02 METAR KMJX 101856Z 20008KT 8SM RA BKN009 OVC015 16/16 A2985 RMK AO2 RAB1759 CIG 007V012 SLP111 P0015 T01610161
0306720407004622023121019527+39928-074292FM-15+0025KMJX V0201705N00365002745MN0028165N5+01605+01605999999ADDAA101009795AU130020015AU200001015AW1105AW2635GA1075+002745999GA2085+004275999GD13991+0027451GD24991+0042759GE19AGL   +99999+99999GF199999999999002741999999MA1100955100655MW1635REMMET11812/10/23 14:52:02 METAR KMJX 101952Z 17007KT 1 3/4SM +RA BR BKN009 OVC014 16/16 A2981 RMK AO2 CIG 004V012 PRESFR P0038
0357720407004622023121019567+39928-074292FM-15+0025KMJX V0201805N00415002745MN0032195V5+01615+01615100995ADDAA101009995AU120020015AU200001015AW1105AW2625GA1045+001835999GA2075+002745999GA3085+004275999GD12991+0018351GD23991+0027459GD34991+0042759GE19AGL   +99999+99999GF199999999999001831999999MA1100955100655MW1655REMMET13812/10/23 14:56:02 METAR KMJX 101956Z 18008KT 2SM RA BR SCT006 BKN009 OVC014 16/16 A2981 RMK AO2 VIS 1V5 CIG 009V012 SLP099 P0039 T01610161
0295720407004622023121020057+39928-074292FM-15+0025KMJX V0201805N00465002135MN0080475N5+01605+01605999999ADDAA101000395AU110020015AU200001015AW1105AW2615GA1075+002135999GA2085+003665999GD13991+0021351GD24991+0036659GE19AGL   +99999+99999GF199999999999002131999999MA1100985100685MW1615REMMET10712/10/23 15:05:02 METAR KMJX 102005Z 18009KT 5SM -RA BR BKN007 OVC012 16/16 A2982 RMK AO2 CIG 004V010 P0001
0310720407004622023121020567+39928-074292FM-15+0025KMJX V0201905N00515002135MN0160935N5+01565+01565100985ADDAA101000895AA203014591AU110020015AW1615GA1085+002135999GD14991+0021359GE19AGL   +99999+99999GF199999999999002131999999MA1100955100655MD1690199+9999MW1615OC100885REMMET11812/10/23 15:56:02 METAR KMJX 102056Z 19010G17KT 10SM -RA OVC007 16/16 A2981 RMK AO2 SLP098 P0003 60057 T01560156 56019EQDQ01  01448PRCP03
0254720407004622023121021567+39928-074292FM-15+0025KMJX V0201905N00575002135MN0160935N5+01615+01615100925ADDAA101000021AU110020015AW1615GA1085+002135999GD14991+0021359GE19AGL   +99999+99999GF199999999999002131999999MA1100885100585MW1615OC101085REMMET10612/10/23 16:56:02 METAR KMJX 102156Z 19011G21KT 10SM -RA OVC007 16/16 A2979 RMK AO2 SLP092 P0000 T01610161
0286720407004622023121022567+39928-074292FM-15+0025KMJX V0201805N00675002135MN0160935N5+01615+01615100815ADDAA101000395AU110020015AW1615GA1085+002135999GD14991+0021359GE19AGL   +99999+99999GF199999999999002131999999MA1100785100485MW1615OC101295OD149901491180REMMET12412/10/23 17:56:02 METAR KMJX 102256Z 18013G25KT 10SM -RA OVC007 16/16 A2976 RMK AO2 PK WND 18029/2243 SLP081 P0001 T01610161
0317720407004622023121100567+39928-074292FM-15+0025KMJX V0201905N00775002135MN0080475N5+01615+01615100575ADDAA101001095AU130020015AU200001015AW1105AW2635GA1085+002135999GD14991+0021351GE19AGL   +99999+99999GF199999999999002131999999MA1100545100245MW1635OC101245OD149901491180REMMET13812/10/23 19:56:01 METAR KMJX 110056Z 19015G24KT 5SM +RA BR OVC007 16/16 A2969 RMK AO2 PK WND 18029/0005 CIG 006V012 SLP057 P0004 T01610161
0405720407004622023121102567+39928-074292FM-15+0025KMJX V0202005N00625002135MN0064375N5+01615+01615100415ADDAA101010795AA203022991AU130020015AU200001015AW1105AW2635GA1075+002135999GA2075+007015999GA3085+008845999GD13991+0021359GD23991+0070159GD34991+0088459GE19AGL   +99999+99999GF199999999999002131999999MA1100375100075MD1890259+9999MW1635OC100935REMMET13412/10/23 21:56:01 METAR KMJX 110256Z 20012G18KT 4SM +RA BR BKN007 BKN023 OVC029 16/16 A2964 RMK AO2 SLP041 P0042 60090 T01610161 58025EQDQ01  02288PRCP03
0332720407004622023121103037+39928-074292FM-15+0025KMJX V0202005N00515004275MN0064375N5+01605+01605999999ADDAA101001595AU130020015AU200001015AW1105AW2635GA1045+002135999GA2075+004275999GA3085+009145999GD12991+0021359GD23991+0042759GD34991+0091459GE19AGL   +99999+99999GF199999999999002131999999MA1100375100075MW1635OC100935REMMET10512/10/23 22:03:01 METAR KMJX 110303Z 20010G18KT 4SM +RA BR SCT007 BKN014 OVC030 16/16 A2964 RMK AO2 P0006
0332720407004622023121103177+39928-074292FM-15+0025KMJX V0201705N00465006715MN0080475N5+01605+01605999999ADDAA101004695AU130020015AU200001015AW1105AW2635GA1045+002135999GA2075+006715999GA3085+010065999GD12991+0021359GD23991+0067159GD34991+0100659GE19AGL   +99999+99999GF199999999999002131999999MA1100345100045MW1635OC100985REMMET10512/10/23 22:17:01 METAR KMJX 110317Z 17009G19KT 5SM +RA BR SCT007 BKN022 OVC033 16/16 A2963 RMK AO2 P0018
0348720407004622023121103567+39928-074292FM-15+0025KMJX V0201905N00575007325MN0096565N5+01565+01565100285ADDAA101010295AU120020015AU200001015AW1105AW2625GA1025+001525999GA2075+007325999GA3085+009145999GD11991+0015259GD23991+0073259GD34991+0091459GE19AGL   +99999+99999GF199999999999001521999999MA1100245099945MW1655OC100935REMMET12112/10/23 22:56:01 METAR KMJX 110356Z 19011G18KT 6SM RA BR FEW005 BKN024 OVC030 16/16 A2960 RMK AO2 SLP028 P0040 T01560156
0307720407004622023121104137+39928-074292FM-15+0025KMJX V0201805N00415003665MN0128755N5+01605+01605999999ADDAA101001395AU120020015AW1625GA1045+002135999GA2075+003665999GA3085+008535999GD12991+0021359GD23991+0036659GD34991+0085359GE19AGL   +99999+99999GF199999999999002131999999MA1100175099875MW1655REMMET10512/10/23 23:13:02 METAR KMJX 110413Z 18008KT 8SM RA SCT007 BKN012 OVC028 16/16 A2958 RMK AO2 PRESFR P0005
0274720407004622023121104227+39928-074292FM-15+0025KMJX V0201905N00415002745MN0128755N5+01605+01605999999ADDAA101001895AU120020015AW1625GA1075+002745999GA2085+004885999GD13991+0027451GD24991+0048859GE19AGL   +99999+99999GF199999999999002741999999MA1100175099875MW1655REMMET10312/10/23 23:22:02 METAR KMJX 110422Z 19008KT 8SM RA BKN009 OVC016 16/16 A2958 RMK AO2 CIG 006V013 P0007
0353720407004622023121104567+39928-074292FM-15+0025KMJX V0202305V00825002745MN0048285N5+01565+01565100135ADDAA101006495AU130020015AU200001015AW1105AW2635GA1085+002745999GD14991+0027451GE19AGL   +99999+99999GF199999999999002741999999KA1240M+01671KA2240N+00391MA1100105099805MW1635OC101655OD149901641260REMMET14812/10/23 23:56:02 METAR KMJX 110456Z 23016G32KT 3SM +RA BR OVC009 16/16 A2956 RMK AO2 PK WND 26032/0456 CIG 005V015 SLP013 P0025 T01560156 401670039
002772040700462202312110459O+39928-074292SOD  +0025KMJX V020999999999999999999999999999+99999+99999999999ADDAT1AU16RA  5AT2AU13BR  5
0356720407004622023121105037+39928-074292FM-15+0025KMJX V0203205N00775001835MN0096565N5+01305+01305999999ADDAA101001031AU130020015AU200001015AW1105AW2635GA1075+001835999GA2085+003055999GD13991+0018351GD24991+0030559GE19AGL   +99999+99999GF199999999999001831999999MA1100175099875MW1635OC101655OD149901641280REMMET14612/11/23 00:03:02 METAR KMJX 110503Z 32015G32KT 6SM +RA BR BKN006 OVC010 13/13 A2958 RMK AO2 PK WND 28032/0457 WSHFT 0449 CIG 004V008 PRESRR P0004
0485720407004622023121105567+39928-074292FM-15+0025KMJX V0203205N01035005795MN0096565N5+00785+00725100355ADDAA101003895AA206043291AU120020015AU200001015AW1105AW2625GA1045+003355999GA2075+005795999GA3085+012805999GD12991+0033559GD23991+0057959GD34991+0128059GE19AGL   +99999+99999GF199999999999003351999999KA1060M+01611KA2060N+00781MA1100305100015MD1590069+9999MW1655OC101495OD149901691320REMMET17412/11/23 00:56:02 METAR KMJX 110556Z 32020G29KT 6SM RA BR SCT011 BKN019 OVC042 08/07 A2962 RMK AO2 PK WND 32033/0533 WSHFT 0449 SLP035 P0015 60170 T00780072 10161 20078 55006EQDQ01  04318PRCP06
0344720407004622023121106057+39928-074292FM-15+0025KMJX V0203105N00885003965MN0112655N5+00805+00705999999ADDAA101001395AU130020015AW1635GA1045+002745999GA2075+003965999GA3085+012195999GD12991+0027459GD23991+0039659GD34991+0121959GE19AGL   +99999+99999GF199999999999002741999999MA1100345100045MW1635OC101755OD149901751330REMMET12012/11/23 01:05:02 METAR KMJX 110605Z 31017G34KT 7SM +RA SCT009 BKN013 OVC040 08/07 A2963 RMK AO2 PK WND 33034/0600 P0005
0343720407004622023121106487+39928-074292FM-15+0025KMJX V0203205N00675005795MN0128755N5+00705+00705999999ADDAA101004395AU120020015AW1625GA1045+003665999GA2075+005795999GA3085+016765999GD12991+0036659GD23991+0057959GD34991+0167659GE19AGL   +99999+99999GF199999999999003661999999MA1100545100245MW1655OC101085OD149901751330REMMET11912/11/23 01:48:02 METAR KMJX 110648Z 32013G21KT 8SM RA SCT012 BKN019 OVC055 07/07 A2969 RMK AO2 PK WND 33034/0600 P0017
0361720407004622023121106567+39928-074292FM-15+0025KMJX V0203205N00625016765MN0128755N5+00725+00675100545ADDAA101004695AU110020015AW1615GA1025+003665999GA2045+005495999GA3085+016765999GD11991+0036659GD22991+0054959GD34991+0167659GE19AGL   +99999+99999GF199999999999003661999999MA1100515100215MW1615OC101035OD149901751330REMMET13712/11/23 01:56:02 METAR KMJX 110656Z 32012G20KT 8SM -RA FEW012 SCT018 OVC055 07/07 A2968 RMK AO2 PK WND 33034/0600 SLP054 P0018 T00720067
0281720407004622023121107567+39928-074292FM-15+0025KMJX V0203105N00415019815MN0160935N5+00675+00615100455ADDAA101000395AU110020015AW1615GA1025+003965999GA2085+019815999GD11991+0039659GD24991+0198159GE19AGL   +99999+99999GF199999999999003961999999MA1100415100115MW1615REMMET11012/11/23 02:56:02 METAR KMJX 110756Z 31008KT 10SM -RA FEW013 OVC065 07/06 A2965 RMK AO2 SLP045 P0001 T00670061
0317720407004622023121108567+39928-074292FM-15+0025KMJX V0203405N00515019815MN0160935N5+00615+00565100375ADDAA101000395AA203005191AU110020015AW1615GA1085+019815999GD14991+0198159GE19AGL   +99999+99999GF199999999999019811999999MA1100345100045MD1890169+9999MW1615OC100825REMMET12512/11/23 03:56:02 METAR KMJX 110856Z 34010G16KT 10SM -RA OVC065 06/06 A2963 RMK AO2 PRESFR SLP037 P0001 60020 T00610056 58016EQDQ01  00508PRCP03
0243720407004622023121109567+39928-074292FM-15+0025KMJX V0203105N00415018295MN0160935N5+00565+00505100395ADDAA101000895AU110020015AW1615GA1085+018295999GD14991+0182959GE19AGL   +99999+99999GF199999999999018291999999MA1100375100075MW1615REMMET10312/11/23 04:56:02 METAR KMJX 110956Z 31008KT 10SM -RA OVC060 06/05 A2964 RMK AO2 SLP039 P0003 T00560050
0264720407004622023121110077+39928-074292FM-15+0025KMJX V0203105N00415018295MN0160935N5+00605+00505999999ADDAA101000395AU110020015AW1615GA1025+002745999GA2085+018295999GD11991+0027459GD24991+0182959GE19AGL   +99999+99999GF199999999999002741999999MA1100345100045MW1615REMMET09312/11/23 05:07:02 METAR KMJX 111007Z 31008KT 10SM -RA FEW009 OVC060 06/05 A2963 RMK AO2 P0001
0276720407004622023121110277+39928-074292FM-15+0025KMJX V0203105N00315002745MN0160935N5+00605+00505999999ADDAA101000595AU110020015AW1615GA1075+002745999GA2085+019815999GD13991+0027451GD24991+0198159GE19AGL   +99999+99999GF199999999999002741999999MA1100415100115MW1615REMMET10512/11/23 05:27:02 METAR KMJX 111027Z 31006KT 10SM -RA BKN009 OVC065 06/05 A2965 RMK AO2 CIG 007V013 P0002
0291720407004622023121110567+39928-074292FM-15+0025KMJX V0202905N00885002745MN0160935N5+00505+00505100615ADDAA101001595AU120020015AW1625GA1075+002745999GA2085+003665999GD13991+0027459GD24991+0036659GE19AGL   +99999+99999GF199999999999002741999999MA1100585100285MW1655OC101035REMMET11212/11/23 05:56:02 METAR KMJX 111056Z 29017G20KT 10SM RA BKN009 OVC012 05/05 A2970 RMK AO2 SLP061 P0006 T00500050
0380720407004622023121111567+39928-074292FM-15+0025KMJX V0202905N00825002745MN0160935N5+00335+00285100795ADDAA101001595AA206008991AA324071491AU110020015AW1615GA1085+002745999GD14991+0027451GE19AGL   +99999+99999GF199999999999002741999999KA1060M+00781MA1100755100455MD1390419+9999MW1615OC101135REMMET14812/11/23 06:56:02 METAR KMJX 111156Z 29016G22KT 10SM -RA OVC009 03/03 A2975 RMK AO2 CIG 007V012 SLP079 P0006 60035 70281 T00330028 10078 20033 53041EQDQ01  00888PRCP06Q02  07138PRCP24
0262720407004622023121112567+39928-074292FM-15+0025KMJX V0202905N00675002745MN0160935N5+00225+00225100805ADDAA101000395AU110020015AW1615GA1085+002745999GD14991+0027451GE19AGL   +99999+99999GF199999999999002741999999MA1100785100485MW1615REMMET12212/11/23 07:56:02 METAR KMJX 111256Z 29013KT 10SM -RA OVC009 02/02 A2976 RMK AO2 CIG 007V010 SLP080 P0001 T00220022 FZRANO
0266720407004622023121113567+39928-074292FM-15+0025KMJX V0202905N00725002745MN0160935N5+00285+00225100935ADDAA101000395AU110020015AW1615GA1085+002745999GD14991+0027451GE19AGL   +99999+99999GF199999999999002741999999MA1100915100625MW1615OC100985REMMET11812/11/23 08:56:02 METAR KMJX 111356Z 29014G19KT 10SM -RA OVC009 03/02 A2980 RMK AO2 CIG 007V013 SLP093 P0001 T00280022
0304720407004622023121114297+39928-074292FM-15+0025KMJX V0203005N00675003355MN0160935N5+00305+00305999999ADDAA101000021GA1075+003355999GA2075+004275999GA3085+018295999GD13991+0033551GD23991+0042759GD34991+0182959GE19AGL   +99999+99999GF199999999999003351999999MA1100955100655OC100885REMMET11712/11/23 09:29:02 METAR KMJX 111429Z 30013G17KT 10SM BKN011 BKN014 OVC060 03/03 A2981 RMK AO2 RAE20 CIG 007V012 P0000
0327720407004622023121114567+39928-074292FM-15+0025KMJX V0202805N00625003355MN0160935N5+00445+00335101005ADDAA101000021AA203000591GA1075+003355999GA2075+019815999GD13991+0033559GD23991+0198159GE19AGL   +99999+99999GF199999999999003351999999MA1100985100685MD1390219+9999OC101035REMMET12712/11/23 09:56:02 METAR KMJX 111456Z 28012G20KT 10SM BKN011 BKN065 04/03 A2982 RMK AO2 RAE20 SLP100 P0000 60002 T00440033 53021EQDQ01  00058PRCP03
0250720407004622023121115137+39928-074292FM-15+0025KMJX V0203105N007752200059N0160935N5+00505+00305999999ADDGA1045+004575999GA2045+019815999GD12991+0045759GD22991+0198159GE19AGL   +99999+99999GF104995999999004571999999MA1100955100655OC101035REMMET08612/11/23 10:13:02 METAR KMJX 111513Z 31015G20KT 10SM SCT015 SCT065 05/03 A2981 RMK AO2EQDD01      0ADE726
0231720407004622023121115387+39928-074292FM-15+0025KMJX V0203005N00935006105MN0160935N5+00605+00305999999ADDGA1075+006105999GA2075+008235999GD13991+0061059GD23991+0082359GE19AGL   +99999+99999GF199999999999006101999999MA1100955100655OC101185REMMET08612/11/23 10:38:02 METAR KMJX 111538Z 30018G23KT 10SM BKN020 BKN027 06/03 A2981 RMK AO2
0248720407004622023121115567+39928-074292FM-15+0025KMJX V0202905N00825006715MN0160935N5+00615+00285101005ADDGA1075+006715999GA2075+009145999GD13991+0067159GD23991+0091459GE19AGL   +99999+99999GF199999999999006711999999MA1100985100685OC101035REMMET10312/11/23 10:56:02 METAR KMJX 111556Z 29016G20KT 10SM BKN022 BKN030 06/03 A2982 RMK AO2 SLP100 T00610028
0263720407004622023121116307+39928-074292FM-15+0025KMJX V0203005N01035009755MN0160935N5+00705+00105999999ADDGA1045+007925999GA2075+009755999GD12991+0079259GD23991+0097559GE19AGL   +99999+99999GF199999999999007921999999MA1101025100725OC101395OD149901391300REMMET10412/11/23 11:30:02 METAR KMJX 111630Z 30020G27KT 10SM SCT026 BKN032 07/01 A2983 RMK AO2 PK WND 30027/1628
0242720407004622023121116567+39928-074292FM-15+0025KMJX V0202905N00935010975MN0160935N5+00675+00065101085ADDGA1075+010975999GD13991+0109759GE19AGL   +99999+99999GF199999999999010971999999MA1101055100755OC101445OD149901491320REMMET11412/11/23 11:56:02 METAR KMJX 111656Z 29018G28KT 10SM BKN036 07/01 A2984 RMK AO2 PK WND 32029/1633 SLP108 T00670006
0337720407004622023121117567+39928-074292FM-15+0025KMJX V0203105N01135013415MN0160935N5+00725-00115101145ADDAA106000591GA1075+013415999GD13991+0134159GE19AGL   +99999+99999GF199999999999013411999999KA1060M+00721KA2060N+00221MA1101125100825MD1390149+9999OC101545OD149901541320REMMET13912/11/23 12:56:02 METAR KMJX 111756Z 31022G30KT 10SM BKN044 07/M01 A2986 RMK AO2 PK WND 32030/1755 SLP114 60002 T00721011 10072 20022 53014EQDQ01  00058PRCP06
0181720407004622023121118566+39928-074292FM-15+0025KMJX V0203105N00935014025MN0160935N5+00675-00175101245ADDGA1085+014025999GD14991+0140259MA1101225100925OC101295REMMET11512/11/23 13:56:02 METAR KMJX 111856Z 31018G25KT 10SM OVC046 07/M02 A2989 RMK AO2 PK WND 28031/1820 SLP124 T00671017
0211720407004622023121119567+39928-074292FM-15+0025KMJX V0203005N00465014635MN0160935N5+00675-00175101435ADDGA1075+014635999GD13991+0146359GE19AGL   +99999+99999GF199999999999014631999999MA1101395101095OC100885REMMET09712/11/23 14:56:02 METAR KMJX 111956Z 30009G17KT 10SM BKN048 07/M02 A2994 RMK AO2 SLP143 T00671017
0220720407004622023121120567+39928-074292FM-15+0025KMJX V0203005N00515015245MN0160935N5+00615-00225101585ADDGA1085+015245999GD14991+0152459GE19AGL   +99999+99999GF199999999999015241999999MA1101525101225MD1390439+9999REMMET10012/11/23 15:56:02 METAR KMJX 112056Z 30010KT 10SM OVC050 06/M02 A2998 RMK AO2 SLP158 T00611022 53043
0219720407004622023121121567+39928-074292FM-15+0025KMJX V0203005N004152200059N0160935N5+00505-00285101735ADDGA1025+016765999GD11991+0167659GE19AGL   +99999+99999GF102995999999016761999999MA1101695101395REMMET09412/11/23 16:56:02 METAR KMJX 112156Z 30008KT 10SM FEW055 05/M03 A3003 RMK AO2 SLP173 T00501028EQDD01      0ADE726
0200720407004622023121122567+39928-074292FM-15+0025KMJX V0202705N00315018295MN0160935N5+00445-00225101895ADDGA1075+018295999GD13991+0182959GE19AGL   +99999+99999GF199999999999018291999999MA1101865101565REMMET09412/11/23 17:56:02 METAR KMJX 112256Z 27006KT 10SM BKN060 04/M02 A3008 RMK AO2 SLP189 T00441022
0233720407004622023121123567+39928-074292FM-15+0025KMJX V0202905N004152200059N0160935N5+00395-00395102015ADDGA1005+999999999GD10991+9999999GF100991999999999999999999KA1060M+00831KA2060N+00391MA1101965101665MD1190439+9999REMMET10912/11/23 18:56:02 METAR KMJX 112356Z 29008KT 10SM CLR 04/M04 A3011 RMK AO2 SLP201 T00391039 10083 20039 51043
0219720407004622023121200567+39928-074292FM-15+0025KMJX V0202605N002652200059N0160935N5+00335-00395102145ADDGA1025+016765999GD11991+0167659GE19AGL   +99999+99999GF102995999999016761999999MA1102105101805REMMET09412/11/23 19:56:01 METAR KMJX 120056Z 26005KT 10SM FEW055 03/M04 A3015 RMK AO2 SLP214 T00331039EQDD01      0ADE726
0175720407004622023121201567+39928-074292FM-15+0025KMJX V0202705N003652200059N0160935N5+00285-00445102275ADDGA1005+999999999GD10991+9999999GF100991999999999999999999MA1102245101935REMMET09112/11/23 20:56:01 METAR KMJX 120156Z 27007KT 10SM CLR 03/M04 A3019 RMK AO2 SLP227 T00281044
0202720407004622023121202567+39928-074292FM-15+0025KMJX V0202605N002652200059N0160935N5+00175-00505102385ADDGA1005+999999999GD10991+9999999GF100991999999999999999999MA1102345102035MD1190379+9999REMMET10412/11/23 21:56:01 METAR KMJX 120256Z 26005KT 10SM CLR 02/M05 A3022 RMK AO2 SLP238 T00171050 51037 FZRANO
0182720407004622023121203567+39928-074292FM-15+0025KMJX V0202805N003652200059N0160935N5+00175-00505102455ADDGA1005+999999999GD10991+9999999GF100991999999999999999999MA1102405102105REMMET09812/11/23 22:56:02 METAR KMJX 120356Z 28007KT 10SM CLR 02/M05 A3024 RMK AO2 SLP245 T00171050 FZRANO
0218720407004622023121204567+39928-074292FM-15+0025KMJX V0202505N002652200059N0160935N5+00005-00505102525ADDGA1005+999999999GD10991+9999999GF100991999999999999999999KA1240M+01441KA2240N+00001MA1102475102175REMMET10812/11/23 23:56:02 METAR KMJX 120456Z 25005KT 10SM CLR 00/M05 A3026 RMK AO2 SLP252 T00001050 401440000 FZRANO
002772040700462202312120459O+39928-074292SOD  +0025KMJX V020999999999999999999999999999+99999+99999999999ADDAT1AU16RA  5AT2AU13BR  5
0241720407004622023121205567+39928-074292FM-15+0025KMJX V0202805N003152200059N0160935N5-00065-00445102585ADDGA1005+999999999GD10991+9999999GF100991999999999999999999KA1060M+00391KA2060N-00061MA1102545102245MD1190209+9999REMMET11712/12/23 00:56:02 METAR KMJX 120556Z 28006KT 10SM CLR M01/M04 A3028 RMK AO2 SLP258 T10061044 10039 21006 51020 FZRANO
0183720407004622023121206567+39928-074292FM-15+0025KMJX V0202705N003152200059N0160935N5-00065-00505102675ADDGA1005+999999999GD10991+9999999GF100991999999999999999999MA1102645102345REMMET09912/12/23 01:56:02 METAR KMJX 120656Z 27006KT 10SM CLR M01/M05 A3031 RMK AO2 SLP267 T10061050 FZRANO
0183720407004622023121207567+39928-074292FM-15+0025KMJX V0202305N001552200059N0160935N5-00285-00505102735ADDGA1005+999999999GD10991+9999999GF100991999999999999999999MA1102685102375REMMET09912/12/23 02:56:02 METAR KMJX 120756Z 23003KT 10SM CLR M03/M05 A3032 RMK AO2 SLP273 T10281050 FZRANO
0203720407004622023121208567+39928-074292FM-15+0025KMJX V0202505N002152200059N0160935N5-00285-00505102795ADDGA1005+999999999GD10991+9999999GF100991999999999999999999MA1102745102445MD1190219+9999REMMET10512/12/23 03:56:02 METAR KMJX 120856Z 25004KT 10SM CLR M03/M05 A3034 RMK AO2 SLP279 T10281050 51021 FZRANO
0183720407004622023121209567+39928-074292FM-15+0025KMJX V0209999C000052200059N0160935N5-00335-00505102815ADDGA1005+999999999GD10991+9999999GF100991999999999999999999MA1102785102475REMMET09912/12/23 04:56:02 METAR KMJX 120956Z 00000KT 10SM CLR M03/M05 A3035 RMK AO2 SLP281 T10331050 FZRANO
0183720407004622023121210567+39928-074292FM-15+0025KMJX V0202305N002652200059N0160935N5-00505-00615102935ADDGA1005+999999999GD10991+9999999GF100991999999999999999999MA1102885102575REMMET09912/12/23 05:56:02 METAR KMJX 121056Z 23005KT 10SM CLR M05/M06 A3038 RMK AO2 SLP293 T10501061 FZRANO
0277720407004622023121211567+39928-074292FM-15+0025KMJX V0202605N002652200059N0160935N5-00445-00565103005ADDAA124000591GA1005+999999999GD10991+9999999GF100991999999999999999999KA1060M-00061KA2060N-00561MA1102955102645MD1390229+9999REMMET12312/12/23 06:56:02 METAR KMJX 121156Z 26005KT 10SM CLR M04/M06 A3040 RMK AO2 SLP300 70002 T10441056 11006 21056 53022 FZRANOEQDQ01  00058PRCP24
0183720407004622023121212567+39928-074292FM-15+0025KMJX V0202305N002152200059N0160935N5-00285-00395103105ADDGA1005+999999999GD10991+9999999GF100991999999999999999999MA1103055102745REMMET09912/12/23 07:56:02 METAR KMJX 121256Z 23004KT 10SM CLR M03/M04 A3043 RMK AO2 SLP310 T10281039 FZRANO
0182720407004622023121213567+39928-074292FM-15+0025KMJX V0202605N003152200059N0160935N5+00175-00225103185ADDGA1005+999999999GD10991+9999999GF100991999999999999999999MA1103155102845REMMET09812/12/23 08:56:02 METAR KMJX 121356Z 26006KT 10SM CLR 02/M02 A3046 RMK AO2 SLP318 T00171022 FZRANO
0169720407004622023121214566+39928-074292FM-15+0025KMJX V0202605N004652200059N0160935N5+00395-00445103205ADDGA1005+999999999GD10991+9999999MA1103155102845MD1190209+9999REMMET09712/12/23 09:56:02 METAR KMJX 121456Z 26009KT 10SM CLR 04/M04 A3046 RMK AO2 SLP320 T00391044 51020
0175720407004622023121215567+39928-074292FM-15+0025KMJX V0202905N004152200059N0160935N5+00505-00505103185ADDGA1005+999999999GD10991+9999999GF100991999999999999999999MA1103155102845REMMET09112/12/23 10:56:02 METAR KMJX 121556Z 29008KT 10SM CLR 05/M05 A3046 RMK AO2 SLP318 T00501050
0175720407004622023121216567+39928-074292FM-15+0025KMJX V0202805N004152200059N0160935N5+00565-00505103115ADDGA1005+999999999GD10991+9999999GF100991999999999999999999MA1103085102785REMMET09112/12/23 11:56:02 METAR KMJX 121656Z 28008KT 10SM CLR 06/M05 A3044 RMK AO2 SLP311 T00561050
0233720407004622023121217567+39928-074292FM-15+0025KMJX V0202405N005152200059N0160935N5+00675-00505103065ADDGA1005+999999999GD10991+9999999GF100991999999999999999999KA1060M+00671KA2060N-00441MA1103015102715MD1890149+9999REMMET10912/12/23 12:56:02 METAR KMJX 121756Z 24010KT 10SM CLR 07/M05 A3042 RMK AO2 SLP306 T00671050 10067 21044 58014
0175720407004622023121218567+39928-074292FM-15+0025KMJX V0202305N005152200059N0160935N5+00725-00505103025ADDGA1005+999999999GD10991+9999999GF100991999999999999999999MA1102985102685REMMET09112/12/23 13:56:02 METAR KMJX 121856Z 23010KT 10SM CLR 07/M05 A3041 RMK AO2 SLP302 T00721050
0175720407004622023121219567+39928-074292FM-15+0025KMJX V0202405N005152200059N0160935N5+00725-00445103005ADDGA1005+999999999GD10991+9999999GF100991999999999999999999MA1102955102645REMMET09112/12/23 14:56:02 METAR KMJX 121956Z 24010KT 10SM CLR 07/M04 A3040 RMK AO2 SLP300 T00721044
0195720407004622023121220567+39928-074292FM-15+0025KMJX V0202105N002652200059N0160935N5+00615-00395103005ADDGA1005+999999999GD10991+9999999GF100991999999999999999999MA1102955102645MD1690069+9999REMMET09712/12/23 15:56:02 METAR KMJX 122056Z 21005KT 10SM CLR 06/M04 A3040 RMK AO2 SLP300 T00611039 56006
0175720407004622023121221567+39928-074292FM-15+0025KMJX V0201905N002152200059N0160935N5+00285-00335103025ADDGA1005+999999999GD10991+9999999GF100991999999999999999999MA1102985102685REMMET09112/12/23 16:56:02 METAR KMJX 122156Z 19004KT 10SM CLR 03/M03 A3041 RMK AO2 SLP302 T00281033
0182720407004622023121222567+39928-074292FM-15+0025KMJX V0202105N003652200059N0160935N5+00175-00335103045ADDGA1005+999999999GD10991+9999999GF100991999999999999999999MA1102985102685REMMET09812/12/23 17:56:02 METAR KMJX 122256Z 21007KT 10SM CLR 02/M03 A3041 RMK AO2 SLP304 T00171033 FZRANO
0240720407004622023121223567+39928-074292FM-15+0025KMJX V0202205N003152200059N0160935N5+00175-00335103115ADDGA1005+999999999GD10991+9999999GF100991999999999999999999KA1060M+00721KA2060N+00061MA1103085102785MD1390129+9999REMMET11612/12/23 18:56:02 METAR KMJX 122356Z 22006KT 10SM CLR 02/M03 A3044 RMK AO2 SLP311 T00171033 10072 20006 53012 FZRANO
0182720407004622023121300567+39928-074292FM-15+0025KMJX V0202205N003152200059N0160935N5+00175-00335103155ADDGA1005+999999999GD10991+9999999GF100991999999999999999999MA1103125102815REMMET09812/12/23 19:56:01 METAR KMJX 130056Z 22006KT 10SM CLR 02/M03 A3045 RMK AO2 SLP315 T00171033 FZRANO
0182720407004622023121301567+39928-074292FM-15+0025KMJX V0202205N003152200059N0160935N5+00115-00335103175ADDGA1005+999999999GD10991+9999999GF100991999999999999999999MA1103125102815REMMET09812/12/23 20:56:01 METAR KMJX 130156Z 22006KT 10SM CLR 01/M03 A3045 RMK AO2 SLP317 T00111033 FZRANO
0202720407004622023121302567+39928-074292FM-15+0025KMJX V0202205N003652200059N0160935N5+00175-00225103185ADDGA1005+999999999GD10991+9999999GF100991999999999999999999MA1103155102845MD1190079+9999REMMET10412/12/23 21:56:01 METAR KMJX 130256Z 22007KT 10SM CLR 02/M02 A3046 RMK AO2 SLP318 T00171022 51007 FZRANO
0182720407004622023121303567+39928-074292FM-15+0025KMJX V0202305N004152200059N0160935N5+00175-00175103145ADDGA1005+999999999GD10991+9999999GF100991999999999999999999MA1103125102815REMMET09812/12/23 22:56:02 METAR KMJX 130356Z 23008KT 10SM CLR 02/M02 A3045 RMK AO2 SLP314 T00171017 FZRANO
0242720407004622023122718427+39928-074292FM-15+0025KMJX V0200605N00365000915MN0064375N5+00905+00905999999ADDAU110020015AU200001015AW1105AW2615GA1085+000915999GD14991+0009159GE19AGL   +99999+99999GF199999999999000911999999MA1101565101265MW1615REMMET09612/27/23 13:42:02 METAR KMJX 271842Z 06007KT 4SM -RA BR OVC003 09/09 A2999 RMK AO2 UPB08E11RAB11
0238720407004622023122718567+39928-074292FM-15+0025KMJX V0200705N00315000915MN0144845N5+00895+00895999999ADDAU110020015AW1615GA1085+000915999GD14991+0009159GE19AGL   +99999+99999GF199999999999000911999999MA1101565101265MW1615REMMET10912/27/23 13:56:02 METAR KMJX 271856Z 07006KT 9SM -RA OVC003 09/09 A2999 RMK AO2 UPB08E11RAB11 SLPNO T00890089
0242720407004622023122719567+39928-074292FM-15+0025KMJX V0200705N00365000915MN0160935N5+00945+00945999999ADDAA101000395AU110020015AW1615GA1085+000915999GD14991+0009159GE19AGL   +99999+99999GF199999999999000911999999MA1101525101225MW1615REMMET10212/27/23 14:56:02 METAR KMJX 271956Z 07007KT 10SM -RA OVC003 09/09 A2998 RMK AO2 SLPNO P0001 T00940094
0249720407004622023122720427+39928-074292FM-15+0025KMJX V0200705N00365000915MN0028165N5+00905+00905999999ADDAA101000021AU110020015AU200001015AW1105AW2615GA1085+000915999GD14991+0009159GE19AGL   +99999+99999GF199999999999000911999999MA1101495101195MW1615REMMET09212/27/23 15:42:02 METAR KMJX 272042Z 07007KT 1 3/4SM -RA BR OVC003 09/09 A2997 RMK AO2 P0000
0252720407004622023122720487+39928-074292FM-15+0025KMJX V0200605N00365000915MN0012075N5+00905+00905999999ADDAA101000021AU110020015AU200001015AW1105AW2615GA1085+000915999GD14991+0009159GE19AGL   +99999+99999GF199999999999000911999999MA1101465101165MW1615REMMET09512/27/23 15:48:02 METAR KMJX 272048Z 06007KT 3/4SM -RA BR OVC003 09/09 A2996 RMK AO2 P0000 TSNO
0247720407004622023122721147+39928-074292FM-15+0025KMJX V0200605N00315000915MN0012075N5+00905+00905999999ADDAA101000021AU110020015AU200001015AW1105AW2615GA1085+000915999GD14991+0009159GE19AGL   +99999+99999GF199999999999000911999999MA1101425101125MW1615REMMET09012/27/23 16:14:02 METAR KMJX 272114Z 06006KT 3/4SM -RA BR OVC003 09/09 A2995 RMK AO2 P0000
0249720407004622023122721437+39928-074292FM-15+0025KMJX V0200605N00265000915MN0020125N5+00905+00905999999ADDAA101000021AU110020015AU200001015AW1105AW2615GA1085+000915999GD14991+0009159GE19AGL   +99999+99999GF199999999999000911999999MA1101425101125MW1615REMMET09212/27/23 16:43:02 METAR KMJX 272143Z 06005KT 1 1/4SM -RA BR OVC003 09/09 A2995 RMK AO2 P0000
0322720407004622023122802567+39928-074292FM-15+0025KMJX V0209999V00265000915MN0064375N5+01175+01175999999ADDAA101000395AA203000591AU120020015AU200001015AW1105AW2625GA1085+000915999GD14991+0009159GE19AGL   +99999+99999GF199999999999000911999999MA1100985100685MD1690279+9999MW1655REMMET12112/27/23 21:56:01 METAR KMJX 280256Z VRB05KT 4SM RA BR OVC003 12/12 A2982 RMK AO2 RAB07 SLPNO P0001 60002 T01170117 56027EQDQ01  00058PRCP03
0253720407004622023122803567+39928-074292FM-15+0025KMJX V0200905V00465000915MN0160935N5+01115+01115999999ADDAA101002095AU110020015AW1615GA1085+000915999GD14991+0009159GE19AGL   +99999+99999GF199999999999000911999999MA1100885100585MW1615OC100725REMMET10512/27/23 22:56:01 METAR KMJX 280356Z 09009G14KT 10SM -RA OVC003 11/11 A2979 RMK AO2 SLPNO P0008 T01110111
002772040700462202312280459O+39928-074292SOD  +0025KMJX V020999999999999999999999999999+99999+99999999999ADDAT1AU16RA  5AT2AU13BR  5
0328720407004622023122807327+39928-074292FM-15+0025KMJX V0203605N00515006105MN0080475N5+01105+01105999999ADDAA101004395AU130020015AU200001015AW1105AW2635GA1025+001225999GA2075+006105999GA3085+009755999GD11991+0012259GD23991+0061059GD34991+0097559GE19AGL   +99999+99999GF199999999999001221999999MA1100585100285MW1635REMMET10912/28/23 02:32:01 METAR KMJX 280732Z 36010KT 5SM +RA BR FEW004 BKN020 OVC032 11/11 A2970 RMK AO2 PRESFR P0017
0303720407004622023122808567+39928-074292FM-15+0025KMJX V0200605N00315001225MN0160935N5+01065+01065100445ADDAA101001395AA203019191AU120020015AW1625GA1085+001225999GD14991+0012259GE19AGL   +99999+99999GF199999999999001221999999MA1100415100115MD1890259+9999MW1655REMMET11912/28/23 03:56:01 METAR KMJX 280856Z 06006KT 10SM RA OVC004 11/11 A2965 RMK AO2 SLP044 P0005 60075 T01060106 58025 TSNOEQDQ01  01908PRCP03
0384720407004622023122811567+39928-074292FM-15+0025KMJX V0200205N00315001225MN0080475N5+01065+01065100425ADDAA101000021AA206021191AA324999919AU110020015AU200001015AW1105AW2615GA1085+001225999GD14991+0012259GE19AGL   +99999+99999GF199999999999001221999999KA1060M+01221KA2060N+01061MA1100375100075MD1590029+9999MW1615REMMET14612/28/23 06:56:01 METAR KMJX 281156Z 02006KT 5SM -RA BR OVC004 11/11 A2964 RMK AO2 RAB52 SLP042 P0000 60083 7//// T01060106 10122 20106 55002 TSNOEQDQ01  02108PRCP06
0254720407004622023122812077+39928-074292FM-15+0025KMJX V0200105N00315001225MN0028165N5+01105+01105999999ADDAA101000021AU110020015AU200001015AW1105AW2615GA1085+001225999GD14991+0012259GE19AGL   +99999+99999GF199999999999001221999999MA1100415100115MW1615REMMET09712/28/23 07:07:01 METAR KMJX 281207Z 01006KT 1 3/4SM -RA BR OVC004 11/11 A2965 RMK AO2 P0000 TSNO
0245720407004622023122812527+39928-074292FM-15+0025KMJX V0200205N00315001225MN0048285N5+01105+01105999999ADDAA101000395AU110020015AU200001015AW1105AW2615GA1085+001225999GD14991+0012259GE19AGL   +99999+99999GF199999999999001221999999MA1100415100115MW1615REMMET08812/28/23 07:52:01 METAR KMJX 281252Z 02006KT 3SM -RA BR OVC004 11/11 A2965 RMK AO2 P0001
0262720407004622023122812567+39928-074292FM-15+0025KMJX V0200205N00365001225MN0048285N5+01065+01065100455ADDAA101000395AU110020015AU200001015AW1105AW2615GA1085+001225999GD14991+0012259GE19AGL   +99999+99999GF199999999999001221999999MA1100445100145MW1615REMMET10512/28/23 07:56:01 METAR KMJX 281256Z 02007KT 3SM -RA BR OVC004 11/11 A2966 RMK AO2 SLP045 P0001 T01060106
0254720407004622023122814167+39928-074292FM-15+0025KMJX V0200205N00365001225MN0028165N5+01105+01105999999ADDAA101000021AU110020015AU200001015AW1105AW2615GA1085+001225999GD14991+0012259GE19AGL   +99999+99999GF199999999999001221999999MA1100475100185MW1615REMMET09712/28/23 09:16:01 METAR KMJX 281416Z 02007KT 1 3/4SM -RA BR OVC004 11/11 A2967 RMK AO2 P0000 TSNO
0327720407004622023122814567+39928-074292FM-15+0025KMJX V0200105N00155001225MN0020125N5+01115+01115100525ADDAA101000595AA203001891AU110020015AU200001015AW1105AW2615GA1085+001225999GD14991+0012259GE19AGL   +99999+99999GF199999999999001221999999MA1100515100215MD1390079+9999MW1615REMMET12612/28/23 09:56:01 METAR KMJX 281456Z 01003KT 1 1/4SM -RA BR OVC004 11/11 A2968 RMK AO2 SLP052 P0002 60007 T01110111 53007 TSNOEQDQ01  00178PRCP03
0262720407004622023122816057+39928-074292FM-15+0025KMJX V0200205N00265001225MN0032195N5+01205+01205999999ADDAA101000021AU110020015AU200001015AW1105AW2615GA1085+001225999GD14991+0012251GE19AGL   +99999+99999GF199999999999001221999999MA1100475100185MW1615REMMET10512/28/23 11:05:02 METAR KMJX 281605Z 02005KT 2SM -RA BR OVC004 12/12 A2967 RMK AO2 CIG 003V007 P0000 TSNO
0261720407004622023122817547+39928-074292FM-15+0025KMJX V0200505N00265001225MN0028165N5+01305+01305999999ADDAA101000595AU110020015AU200001015AW1105AW2615GA1085+001225999GD14991+0012251GE19AGL   +99999+99999GF199999999999001221999999MA1100445100145MW1615REMMET10412/28/23 12:54:02 METAR KMJX 281754Z 05005KT 1 3/4SM -RA BR OVC004 13/13 A2966 RMK AO2 CIG 004V007 P0002
0365720407004622023122817567+39928-074292FM-15+0025KMJX V0200305N00265001225MN0028165N5+01225+01225100475ADDAA101000595AA206003391AU110020015AU200001015AW1105AW2615GA1085+001225999GD14991+0012259GE19AGL   +99999+99999GF199999999999001221999999KA1060M+01281KA2060N+01061MA1100445100145MD1890059+9999MW1615REMMET13812/28/23 12:56:02 METAR KMJX 281756Z 03005KT 1 3/4SM -RA BR OVC004 12/12 A2966 RMK AO2 SLP047 P0002 60013 T01220122 10128 20106 58005 TSNOEQDQ01  00338PRCP06
0327720407004622023122819477+39928-074292FM-15+0025KMJX V0201605N00215001225MN0048285N5+01205+01205999999ADDAA101000021AU110020015AU200001015AW1105AW2615GA1075+001225999GA2075+002745999GA3085+003965999GD13991+0012259GD23991+0027459GD34991+0039659GE19AGL   +99999+99999GF199999999999001221999999MA1100445100145MW1615REMMET10812/28/23 14:47:02 METAR KMJX 281947Z 16004KT 3SM -RA BR BKN004 BKN009 OVC013 12/12 A2966 RMK AO2 RAB11 P0000
0257720407004622023122820187+39928-074292FM-15+0025KMJX V0201805N00215001835MN0048285N5+01205+01205999999ADDAA101000021AU110020015AU200001015AW1105AW2615GA1085+001835999GD14991+0018351GE19AGL   +99999+99999GF199999999999001831999999MA1100475100185MW1615REMMET10012/28/23 15:18:02 METAR KMJX 282018Z 18004KT 3SM -RA BR OVC006 12/12 A2967 RMK AO2 CIG 003V009 P0000
0299720407004622023122820497+39928-074292FM-15+0025KMJX V0201805N00215001225MN0028165N5+01205+01205999999ADDAA101000395AU110020015AU200001015AW1105AW2615GA1075+001225999GA2085+004275999GD13991+0012251GD24991+0042759GE19AGL   +99999+99999GF199999999999001221999999MA1100515100215MW1615REMMET11112/28/23 15:49:02 METAR KMJX 282049Z 18004KT 1 3/4SM -RA BR BKN004 OVC014 12/12 A2968 RMK AO2 CIG 003V007 P0001
0257720407004622023122822257+39928-074292FM-15+0025KMJX V0209999C00005001525MN0032195N5+01205+01205999999ADDAA101000595AU110020015AU200001015AW1105AW2615GA1085+001525999GD14991+0015251GE19AGL   +99999+99999GF199999999999001521999999MA1100585100285MW1615REMMET10012/28/23 17:25:02 METAR KMJX 282225Z 00000KT 2SM -RA BR OVC005 12/12 A2970 RMK AO2 CIG 004V009 P0002
0304720407004622023122823037+39928-074292FM-15+0025KMJX V0209999C00005001525MN0028165N5+01205+01205999999ADDAA101000021AU110020015AU200001015AW1105AW2615GA1075+001525999GA2085+002445999GD13991+0015251GD24991+0024459GE19AGL   +99999+99999GF199999999999001521999999MA1100545100245MW1615REMMET11612/28/23 18:03:02 METAR KMJX 282303Z 00000KT 1 3/4SM -RA BR BKN005 OVC008 12/12 A2969 RMK AO2 CIG 003V007 P0000 TSNO
0283720407004622023122823237+39928-074292FM-15+0025KMJX V0201505N00155000915MN0048285N5+01105+01105999999ADDAA101000395AU110020015AU200001015AW1105AW2615GA1075+000915999GA2085+002135999GD13991+0009159GD24991+0021359GE19AGL   +99999+99999GF199999999999000911999999MA1100545100245MW1615REMMET09512/28/23 18:23:02 METAR KMJX 282323Z 15003KT 3SM -RA BR BKN003 OVC007 11/11 A2969 RMK AO2 P0001
0360720407004622023122823567+39928-074292FM-15+0025KMJX V0201605N00215000915MN0040235N5+01065+01065100595ADDAA101000395AA206002591AU110020015AU200001015AW1105AW2615GA1085+000915999GD14991+0009159GE19AGL   +99999+99999GF199999999999000911999999KA1060M+01281KA2060N+01061MA1100585100285MD1190059+9999MW1615REMMET13312/28/23 18:56:02 METAR KMJX 282356Z 16004KT 2 1/2SM -RA BR OVC003 11/11 A2970 RMK AO2 SLP059 P0001 60010 T01060106 10128 20106 51005EQDQ01  00258PRCP06
0245720407004622023122900407+39928-074292FM-15+0025KMJX V0201505N00265000915MN0048285N5+01105+01105999999ADDAA101000021AU110020015AU200001015AW1105AW2615GA1085+000915999GD14991+0009159GE19AGL   +99999+99999GF199999999999000911999999MA1100585100285MW1615REMMET08812/28/23 19:40:01 METAR KMJX 290040Z 15005KT 3SM -RA BR OVC003 11/11 A2970 RMK AO2 P0000
0256720407004622023122901467+39928-074292FM-15+0025KMJX V0201505N00155000915MN0048285N5+01105+01105999999ADDAA101000395AU110020015AU200001015AW1105AW2615GA1085+000915999GD14991+0009159GE19AGL   +99999+99999GF199999999999000911999999MA1100615100315MW1615REMMET09912/28/23 20:46:01 METAR KMJX 290146Z 15003KT 3SM -RA BR OVC003 11/11 A2971 RMK AO2 RAB03 P0001 TSNO
0272720407004622023122901567+39928-074292FM-15+0025KMJX V0201705N00155000915MN0040235N5+01065+01065100635ADDAA101000595AU110020015AU200001015AW1105AW2615GA1085+000915999GD14991+0009159GE19AGL   +99999+99999GF199999999999000911999999MA1100615100315MW1615REMMET11512/28/23 20:56:01 METAR KMJX 290156Z 17003KT 2 1/2SM -RA BR OVC003 11/11 A2971 RMK AO2 RAB03 SLP063 P0002 T01060106
0245720407004622023122902127+39928-074292FM-15+0025KMJX V0201505N00155000915MN0048285N5+01105+01105999999ADDAA101000021AU110020015AU200001015AW1105AW2615GA1085+000915999GD14991+0009159GE19AGL   +99999+99999GF199999999999000911999999MA1100615100315MW1615REMMET08812/28/23 21:12:01 METAR KMJX 290212Z 15003KT 3SM -RA BR OVC003 11/11 A2971 RMK AO2 P0000
0312720407004622023122903567+39928-074292FM-15+0025KMJX V0201205N00155001835MN0032195N5+01005+01005100605ADDAA101000895AU110020015AU200001015AW1105AW2615GA1075+001835999GA2085+002745999GD13991+0018351GD24991+0027459GE19AGL   +99999+99999GF199999999999001831999999MA1100585100285MW1615REMMET12412/28/23 22:56:02 METAR KMJX 290356Z 12003KT 2SM -RA BR BKN006 OVC009 10/10 A2970 RMK AO2 CIG 003V007 SLP060 P0003 T01000100
0257720407004622023122904467+39928-074292FM-15+0025KMJX V0209999C00005001225MN0080475N5+01005+01005999999ADDAA101000595AU110020015AU200001015AW1105AW2615GA1085+001225999GD14991+0012251GE19AGL   +99999+99999GF199999999999001221999999MA1100545100245MW1615REMMET10012/28/23 23:46:02 METAR KMJX 290446Z 00000KT 5SM -RA BR OVC004 10/10 A2969 RMK AO2 CIG 003V006 P0002
0278720407004622023122904567+39928-074292FM-15+0025KMJX V0209999C00005001225MN0128755N5+01005+01005100565ADDAA101000595AU110020015AW1615GA1085+001225999GD14991+0012259GE19AGL   +99999+99999GF199999999999001221999999KA1240M+01281KA2240N+01001MA1100545100245MW1615REMMET11212/28/23 23:56:02 METAR KMJX 290456Z 00000KT 8SM -RA OVC004 10/10 A2969 RMK AO2 SLP056 P0002 T01000100 401280100
002772040700462202312290459O+39928-074292SOD  +0025KMJX V020999999999999999999999999999+99999+99999999999ADDAT1AU16RA  5AT2AU13BR  5
0356720407004622023122905567+39928-074292FM-15+0025KMJX V0202505N00315001225MN0048285N5+01065+01065100525ADDAA101000395AA206002391AU110020015AU200001015AW1105AW2615GA1085+001225999GD14991+0012259GE19AGL   +99999+99999GF199999999999001221999999KA1060M+01111KA2060N+01001MA1100515100215MD1690079+9999MW1615REMMET12912/29/23 00:56:02 METAR KMJX 290556Z 25006KT 3SM -RA BR OVC004 11/11 A2968 RMK AO2 SLP052 P0001 60009 T01060106 10111 20100 56007EQDQ01  00228PRCP06
0230720407004622023122906137+39928-074292FM-15+0025KMJX V0202405N00265001225MN0040235N5+01105+01105999999ADDAA101000021AU100001015AW1105GA1085+001225999GD14991+0012259GE19AGL   +99999+99999GF199999999999001221999999MA1100515100215REMMET09612/29/23 01:13:02 METAR KMJX 290613Z 24005KT 2 1/2SM BR OVC004 11/11 A2968 RMK AO2 RAE0559 P0000
0243720407004622023122906567+39928-074292FM-15+0025KMJX V0202705N00365001835MN0080475N5+01065+01065100525ADDAA101000021AU100001015AW1105GA1085+001835999GD14991+0018359GE19AGL   +99999+99999GF199999999999001831999999MA1100475100185REMMET10912/29/23 01:56:02 METAR KMJX 290656Z 27007KT 5SM BR OVC006 11/11 A2967 RMK AO2 RAE0559 SLP052 P0000 T01060106
0210720407004622023122907567+39928-074292FM-15+0025KMJX V0202705N00315001835MN0144845N5+01065+01065100575ADDGA1085+001835999GD14991+0018351GE19AGL   +99999+99999GF199999999999001831999999MA1100545100245REMMET10412/29/23 02:56:02 METAR KMJX 290756Z 27006KT 9SM OVC006 11/11 A2969 RMK AO2 CIG 005V011 SLP057 T01060106
0182720407004622023122908247+39928-074292FM-15+0025KMJX V0202805N00415003055MN0160935N5+01105+01005999999ADDGA1085+003055999GD14991+0030559GE19AGL   +99999+99999GF199999999999003051999999MA1100515100215REMMET07612/29/23 03:24:02 METAR KMJX 290824Z 28008KT 10SM OVC010 11/10 A2968 RMK AO2
0211720407004622023122909567+39928-074292FM-15+0025KMJX V0202705N00365003055MN0160935N5+01005+00945100585ADDGA1085+003055999GD14991+0030551GE19AGL   +99999+99999GF199999999999003051999999MA1100545100245REMMET10512/29/23 04:56:02 METAR KMJX 290956Z 27007KT 10SM OVC010 10/09 A2969 RMK AO2 CIG 008V012 SLP058 T01000094
0220720407004622023122910357+39928-074292FM-15+0025KMJX V0202705N00315004275MN0160935N5+00905+00805999999ADDGA1025+002445999GA2085+004275999GD11991+0024459GD24991+0042759GE19AGL   +99999+99999GF199999999999002441999999MA1100585100285REMMET08312/29/23 05:35:02 METAR KMJX 291035Z 27006KT 10SM FEW008 OVC014 09/08 A2970 RMK AO2
0301720407004622023122911567+39928-074292FM-15+0025KMJX V0202705N002652200059N0160935N5+00725+00675100625ADDAA106000021AA224008191GA1005+999999999GD10991+9999999GF100991999999999999999999KA1060M+01061KA2060N+00721MA1100615100315MD1390069+9999REMMET12012/29/23 06:56:02 METAR KMJX 291156Z 27005KT 10SM CLR 07/07 A2971 RMK AO2 SLP062 60000 70032 T00720067 10106 20072 53006EQDQ01  00008PRCP06Q02  00818PRCP24
0198720407004622023122912567+39928-074292FM-15+0025KMJX V0202505N00265021345MN0144845N5+00725+00725100685ADDGA1075+021345999GD13991+0213459GE19AGL   +99999+99999GF199999999999021341999999MA1100645100345REMMET09212/29/23 07:56:02 METAR KMJX 291256Z 25005KT 9SM BKN070 07/07 A2972 RMK AO2 SLP068 T00720072
0199720407004622023122913567+39928-074292FM-15+0025KMJX V0202705N00265021345MN0160935N5+00835+00675100705ADDGA1075+021345999GD13991+0213459GE19AGL   +99999+99999GF199999999999021341999999MA1100685100385REMMET09312/29/23 08:56:02 METAR KMJX 291356Z 27005KT 10SM BKN070 08/07 A2973 RMK AO2 SLP070 T00830067
0247720407004622023122914567+39928-074292FM-15+0025KMJX V0202805N004152200059N0160935N5+00945+00615100715ADDAA101000395AA203000391GA1005+999999999GD10991+9999999GF100991999999999999999999MA1100685100385MD1190089+9999REMMET10812/29/23 09:56:02 METAR KMJX 291456Z 28008KT 10SM CLR 09/06 A2973 RMK AO2 SLP071 P0001 60001 T00940061 51008EQDQ01  00028PRCP03
0174720407004622023122915567+39928-074292FM-15+0025KMJX V0202605N004652200059N0160935N5+01065+00615100685ADDGA1005+999999999GD10991+9999999GF100991999999999999999999MA1100645100345REMMET09012/29/23 10:56:02 METAR KMJX 291556Z 26009KT 10SM CLR 11/06 A2972 RMK AO2 SLP068 T01060061
0174720407004622023122916567+39928-074292FM-15+0025KMJX V0202605N005152200059N0160935N5+01175+00615100615ADDGA1005+999999999GD10991+9999999GF100991999999999999999999MA1100585100285REMMET09012/29/23 11:56:02 METAR KMJX 291656Z 26010KT 10SM CLR 12/06 A2970 RMK AO2 SLP061 T01170061
0174720407004622023122918567+39928-074292FM-15+0025KMJX V0202405N005152200059N0160935N5+01335+00505100525ADDGA1005+999999999GD10991+9999999GF100991999999999999999999MA1100475100185REMMET09012/29/23 13:56:02 METAR KMJX 291856Z 24010KT 10SM CLR 13/05 A2967 RMK AO2 SLP052 T01330050
0174720407004622023122919567+39928-074292FM-15+0025KMJX V0202605N005152200059N0160935N5+01225+00335100495ADDGA1005+999999999GD10991+9999999GF100991999999999999999999MA1100475100185REMMET09012/29/23 14:56:02 METAR KMJX 291956Z 26010KT 10SM CLR 12/03 A2967 RMK AO2 SLP049 T01220033
0194720407004622023122920567+39928-074292FM-15+0025KMJX V0202705N003152200059N0160935N5+01115+00335100525ADDGA1005+999999999GD10991+9999999GF100991999999999999999999MA1100475100185MD1590029+9999REMMET09612/29/23 15:56:02 METAR KMJX 292056Z 27006KT 10SM CLR 11/03 A2967 RMK AO2 SLP052 T01110033 55002
0174720407004622023122921567+39928-074292FM-15+0025KMJX V0202305N001552200059N0160935N5+00785+00335100555ADDGA1005+999999999GD10991+9999999GF100991999999999999999999MA1100515100215REMMET09012/29/23 16:56:02 METAR KMJX 292156Z 23003KT 10SM CLR 08/03 A2968 RMK AO2 SLP055 T00780033
0174720407004622023122922567+39928-074292FM-15+0025KMJX V0202505N001552200059N0160935N5+00505+00285100605ADDGA1005+999999999GD10991+9999999GF100991999999999999999999MA1100545100245REMMET09012/29/23 17:56:02 METAR KMJX 292256Z 25003KT 10SM CLR 05/03 A2969 RMK AO2 SLP060 T00500028
0232720407004622023122923567+39928-074292FM-15+0025KMJX V0202505N002152200059N0160935N5+00445+00225100675ADDGA1005+999999999GD10991+9999999GF100991999999999999999999KA1060M+01331KA2060N+00281MA1100615100315MD1390149+9999REMMET10812/29/23 18:56:02 METAR KMJX 292356Z 25004KT 10SM CLR 04/02 A2971 RMK AO2 SLP067 T00440022 10133 20028 53014
0201720407004622023123002567+39928-074292FM-15+0025KMJX V0209999C000052200059N0160935N5+00175+00115100555ADDGA1005+999999999GD10991+9999999GF100991999999999999999999MA1100515100215MD1890129+9999REMMET10312/29/23 21:56:01 METAR KMJX 300256Z 00000KT 10SM CLR 02/01 A2968 RMK AO2 SLP055 T00170011 58012 FZRANO
0218720407004622023123003567+39928-074292FM-15+0025KMJX V0209999C000052200059N0160935N5+00285+00225100515ADDGA1025+036585999GD11991+0365859GE19AGL   +99999+99999GF102995999999036581999999MA1100475100185REMMET09312/29/23 22:56:02 METAR KMJX 300356Z 00000KT 10SM FEW120 03/02 A2967 RMK AO2 SLP051 T00280022EQDD01      0ADE726
0273720407004622023123004567+39928-074292FM-15+0025KMJX V0202905N00215028965MN0160935N5+00505+00175100535ADDGA1075+028965999GA2085+033535999GD13991+0289659GD24991+0335359GE19AGL   +99999+99999GF199999999999028961999999KA1240M+01331KA2240N+00171MA1100515100215REMMET11012/29/23 23:56:02 METAR KMJX 300456Z 29004KT 10SM BKN095 OVC110 05/02 A2968 RMK AO2 SLP053 T00500017 401330017
002772040700462202312300459O+39928-074292SOD  +0025KMJX V020999999999999999999999999999+99999+99999999999ADDAT1AU16RA  5AT2AU13BR  5
0257720407004622023123005567+39928-074292FM-15+0025KMJX V0202805N00215028965MN0160935N5+00445+00115100505ADDGA1085+028965999GD14991+0289659GE19AGL   +99999+99999GF199999999999028961999999KA1060M+00561KA2060N+00171MA1100475100185MD1690039+9999REMMET11112/30/23 00:56:02 METAR KMJX 300556Z 28004KT 10SM OVC095 04/01 A2967 RMK AO2 SLP050 T00440011 10056 20017 56003
0200720407004622023123006567+39928-074292FM-15+0025KMJX V0202805N00265033535MN0160935N5+00445-00115100495ADDGA1075+033535999GD13991+0335359GE19AGL   +99999+99999GF199999999999033531999999MA1100445100145REMMET09412/30/23 01:56:02 METAR KMJX 300656Z 28005KT 10SM BKN110 04/M01 A2966 RMK AO2 SLP049 T00441011
0200720407004622023123007567+39928-074292FM-15+0025KMJX V0202905N00315033535MN0160935N5+00395-00175100465ADDGA1085+033535999GD14991+0335359GE19AGL   +99999+99999GF199999999999033531999999MA1100445100145REMMET09412/30/23 02:56:02 METAR KMJX 300756Z 29006KT 10SM OVC110 04/M02 A2966 RMK AO2 SLP046 T00391017
0200720407004622023123009567+39928-074292FM-15+0025KMJX V0202605N00315033535MN0160935N5+00445-00285100495ADDGA1085+033535999GD14991+0335359GE19AGL   +99999+99999GF199999999999033531999999MA1100445100145REMMET09412/30/23 04:56:02 METAR KMJX 300956Z 26006KT 10SM OVC110 04/M03 A2966 RMK AO2 SLP049 T00441028
0175720407004622023123010567+39928-074292FM-15+0025KMJX V0202605N004152200059N0160935N5+00335-00225100565ADDGA1005+999999999GD10991+9999999GF100991999999999999999999MA1100515100215REMMET09112/30/23 05:56:02 METAR KMJX 301056Z 26008KT 10SM CLR 03/M02 A2968 RMK AO2 SLP056 T00331022
0276720407004622023123011567+39928-074292FM-15+0025KMJX V0202605N003652200059N0160935N5+00225-00225100595ADDAA124000391GA1005+999999999GD10991+9999999GF100991999999999999999999KA1060M+00441KA2060N+00221MA1100545100245MD1190139+9999REMMET12212/30/23 06:56:02 METAR KMJX 301156Z 26007KT 10SM CLR 02/M02 A2969 RMK AO2 SLP059 70001 T00221022 10044 20022 51013 FZRANOEQDQ01  00028PRCP24
0200720407004622023123013567+39928-074292FM-15+0025KMJX V0202505N00575016765MN0160935N5+00445-00175100625ADDGA1075+016765999GD13991+0167659GE19AGL   +99999+99999GF199999999999016761999999MA1100585100285REMMET09412/30/23 08:56:02 METAR KMJX 301356Z 25011KT 10SM BKN055 04/M02 A2970 RMK AO2 SLP062 T00441017
0258720407004622023123014567+39928-074292FM-15+0025KMJX V0202605N00625013415MN0160935N5+00445-00115100625ADDGA1075+013415999GA2085+016765999GD13991+0134159GD24991+0167659GE19AGL   +99999+99999GF199999999999013411999999MA1100585100285MD1090039+9999REMMET10712/30/23 09:56:02 METAR KMJX 301456Z 26012KT 10SM BKN044 OVC055 04/M01 A2970 RMK AO2 SLP062 T00441011 50003
0231720407004622023123016397+39928-074292FM-15+0025KMJX V0202605N00725008845MN0160935N5+00705+00005999999ADDGA1075+008845999GA2075+014635999GD13991+0088459GD23991+0146359GE19AGL   +99999+99999GF199999999999008841999999MA1100515100215OC101035REMMET08612/30/23 11:39:02 METAR KMJX 301639Z 26014G20KT 10SM BKN029 BKN048 07/00 A2968 RMK AO2
0187720407004622023123016394+39933-074300FM-16+002599999V0202601N007210088419N016093199+00701+00001999999ADDGD13991+0088419GD23991+0146319GE19AGL   +99999+99999GF199999999999008841999999MA1100511999999OC101031REMMET074SPECI KMJX 301639Z AUTO 26014G20KT 10SM BKN029 BKN048 07/00 A2968 RMK AO2=
0248720407004622023123016567+39928-074292FM-15+0025KMJX V0202605N00675008845MN0160935N5+00675+00005100545ADDGA1075+008845999GA2085+014025999GD13991+0088459GD24991+0140259GE19AGL   +99999+99999GF199999999999008841999999MA1100515100215OC100935REMMET10312/30/23 11:56:02 METAR KMJX 301656Z 26013G18KT 10SM BKN029 OVC046 07/00 A2968 RMK AO2 SLP054 T00670000
0268720407004622023123017567+39928-074292FM-15+0025KMJX V0202805N00625009455MN0160935N5+00785+00065100505ADDGA1085+009455999GD14991+0094559GE19AGL   +99999+99999GF199999999999009451999999KA1060M+00781KA2060N+00221MA1100475100185MD1890129+9999OC101035REMMET11412/30/23 12:56:02 METAR KMJX 301756Z 28012G20KT 10SM OVC031 08/01 A2967 RMK AO2 SLP050 T00780006 10078 20022 58012
0248720407004622023123018567+39928-074292FM-15+0025KMJX V0202705N00675010065MN0160935N5+00725+00065100515ADDGA1075+010065999GA2085+014635999GD13991+0100659GD24991+0146359GE19AGL   +99999+99999GF199999999999010061999999MA1100475100185OC101135REMMET10312/30/23 13:56:02 METAR KMJX 301856Z 27013G22KT 10SM BKN033 OVC048 07/01 A2967 RMK AO2 SLP051 T00720006
0199720407004622023123019567+39928-074292FM-15+0025KMJX V0202905N00465010065MN0160935N5+00725+00115100575ADDGA1085+010065999GD14991+0100659GE19AGL   +99999+99999GF199999999999010061999999MA1100545100245REMMET09312/30/23 14:56:02 METAR KMJX 301956Z 29009KT 10SM OVC033 07/01 A2969 RMK AO2 SLP057 T00720011
0230720407004622023123020567+39928-074292FM-15+0025KMJX V0202605N00415010065MN0160935N5+00725+00115100655ADDGA1085+010065999GD14991+0100659GE19AGL   +99999+99999GF199999999999010061999999MA1100615100315MD1390159+9999OC100775REMMET10212/30/23 15:56:02 METAR KMJX 302056Z 26008G15KT 10SM OVC033 07/01 A2971 RMK AO2 SLP065 T00720011 53015
0199720407004622023123021567+39928-074292FM-15+0025KMJX V0202705N00515011895MN0160935N5+00675+00115100725ADDGA1085+011895999GD14991+0118959GE19AGL   +99999+99999GF199999999999011891999999MA1100685100385REMMET09312/30/23 16:56:02 METAR KMJX 302156Z 27010KT 10SM OVC039 07/01 A2973 RMK AO2 SLP072 T00670011
0248720407004622023123023564+39933-074300FM-15+002599999V0202601N003112200059N016093199+00561+00111100861ADDGD11991+0149419GE19AGL   +99999+99999GF102995999999014941999999KA1060M+00781KA2060N+00561MA1100811999999MD1110211+9999REMMET099METAR KMJX 302356Z AUTO 26006KT 10SM FEW049 06/01 A2977 RMK AO2 SLP086 T00560011 10078 20056 51021=EQDD01      0ADE726
0174720407004622023123100567+39928-074292FM-15+0025KMJX V0202405N002652200059N0160935N5+00445+00065100925ADDGA1005+999999999GD10991+9999999GF100991999999999999999999MA1100885100585REMMET09012/30/23 19:56:01 METAR KMJX 310056Z 24005KT 10SM CLR 04/01 A2979 RMK AO2 SLP092 T00440006
0174720407004622023123101567+39928-074292FM-15+0025KMJX V0202505N003152200059N0160935N5+00395+00065100985ADDGA1005+999999999GD10991+9999999GF100991999999999999999999MA1100955100655REMMET09012/30/23 20:56:01 METAR KMJX 310156Z 25006KT 10SM CLR 04/01 A2981 RMK AO2 SLP098 T00390006
0201720407004622023123102567+39928-074292FM-15+0025KMJX V0202405N002652200059N0160935N5+00225+00005101055ADDGA1005+999999999GD10991+9999999GF100991999999999999999999MA1101025100725MD1390199+9999REMMET10312/30/23 21:56:01 METAR KMJX 310256Z 24005KT 10SM CLR 02/00 A2983 RMK AO2 SLP105 T00220000 53019 FZRANO
0182720407004622023123103567+39928-074292FM-15+0025KMJX V0202405N001552200059N0160935N5+00175-00065101105ADDGA1005+999999999GD10991+9999999GF100991999999999999999999MA1101055100755REMMET09812/30/23 22:56:02 METAR KMJX 310356Z 24003KT 10SM CLR 02/M01 A2984 RMK AO2 SLP110 T00171006 FZRANO
0218720407004622023123104567+39928-074292FM-15+0025KMJX V0202805N003152200059N0160935N5+00065-00115101175ADDGA1005+999999999GD10991+9999999GF100991999999999999999999KA1240M+00781KA2240N+00001MA1101125100825REMMET10812/30/23 23:56:02 METAR KMJX 310456Z 28006KT 10SM CLR 01/M01 A2986 RMK AO2 SLP117 T00061011 400780000 FZRANO
0240720407004622023123105567+39928-074292FM-15+0025KMJX V0202805N003152200059N0160935N5+00115-00115101245ADDGA1005+999999999GD10991+9999999GF100991999999999999999999KA1060M+00561KA2060N+00001MA1101195100895MD1390199+9999REMMET11612/31/23 00:56:02 METAR KMJX 310556Z 28006KT 10SM CLR 01/M01 A2988 RMK AO2 SLP124 T00111011 10056 20000 53019 FZRANO
0183720407004622023123106567+39928-074292FM-15+0025KMJX V0202405N002152200059N0160935N5-00065-00285101365ADDGA1005+999999999GD10991+9999999GF100991999999999999999999MA1101325101025REMMET09912/31/23 01:56:02 METAR KMJX 310656Z 24004KT 10SM CLR M01/M03 A2992 RMK AO2 SLP136 T10061028 FZRANO
0203720407004622023123108567+39928-074292FM-15+0025KMJX V0202505N001552200059N0160935N5-00225-00395101455ADDGA1005+999999999GD10991+9999999GF100991999999999999999999MA1101425101125MD1190219+9999REMMET10512/31/23 03:56:02 METAR KMJX 310856Z 25003KT 10SM CLR M02/M04 A2995 RMK AO2 SLP145 T10221039 51021 FZRANO
0227720407004622023123109567+39928-074292FM-15+0025KMJX V0202805N001552200059N0160935N5-00285-00395101475ADDGA1045+012505999GD12991+0125059GE19AGL   +99999+99999GF104995999999012501999999MA1101425101125REMMET10212/31/23 04:56:02 METAR KMJX 310956Z 28003KT 10SM SCT041 M03/M04 A2995 RMK AO2 SLP147 T10281039 FZRANOEQDD01      0ADE726
0207720407004622023123110567+39928-074292FM-15+0025KMJX V0202705N00155012505MN0160935N5+00005-00175101525ADDGA1085+012505999GD14991+0125059GE19AGL   +99999+99999GF199999999999012501999999MA1101495101195REMMET10112/31/23 05:56:02 METAR KMJX 311056Z 27003KT 10SM OVC041 00/M02 A2997 RMK AO2 SLP152 T00001017 FZRANO
0200720407004622023123113567+39928-074292FM-15+0025KMJX V0202505N00155013725MN0160935N5+00285-00115101705ADDGA1085+013725999GD14991+0137259GE19AGL   +99999+99999GF199999999999013721999999MA1101665101365REMMET09412/31/23 08:56:02 METAR KMJX 311356Z 25003KT 10SM OVC045 03/M01 A3002 RMK AO2 SLP170 T00281011
0220720407004622023123114567+39928-074292FM-15+0025KMJX V0202505N00155013115MN0160935N5+00445-00175101735ADDGA1085+013115999GD14991+0131159GE19AGL   +99999+99999GF199999999999013111999999MA1101695101395MD1190159+9999REMMET10012/31/23 09:56:02 METAR KMJX 311456Z 25003KT 10SM OVC043 04/M02 A3003 RMK AO2 SLP173 T00441017 51015
0200720407004622023123115567+39928-074292FM-15+0025KMJX V0202505N00265013115MN0160935N5+00505-00115101715ADDGA1085+013115999GD14991+0131159GE19AGL   +99999+99999GF199999999999013111999999MA1101665101365REMMET09412/31/23 10:56:02 METAR KMJX 311556Z 25005KT 10SM OVC043 05/M01 A3002 RMK AO2 SLP171 T00501011
0200720407004622023123116567+39928-074292FM-15+0025KMJX V0202605N00415013725MN0160935N5+00615-00285101655ADDGA1085+013725999GD14991+0137259GE19AGL   +99999+99999GF199999999999013721999999MA1101635101325REMMET09412/31/23 11:56:02 METAR KMJX 311656Z 26008KT 10SM OVC045 06/M03 A3001 RMK AO2 SLP165 T00611028
0258720407004622023123117567+39928-074292FM-15+0025KMJX V0202805N00465013725MN0160935N5+00615-00395101615ADDGA1085+013725999GD14991+0137259GE19AGL   +99999+99999GF199999999999013721999999KA1060M+00611KA2060N-00061MA1101565101265MD1890119+9999REMMET11212/31/23 12:56:02 METAR KMJX 311756Z 28009KT 10SM OVC045 06/M04 A2999 RMK AO2 SLP161 T00611039 10061 21006 58011
0200720407004622023123119567+39928-074292FM-15+0025KMJX V0203105N00415014335MN0160935N5+00565-00395101585ADDGA1085+014335999GD14991+0143359GE19AGL   +99999+99999GF199999999999014331999999MA1101565101265REMMET09412/31/23 14:56:02 METAR KMJX 311956Z 31008KT 10SM OVC047 06/M04 A2999 RMK AO2 SLP158 T00561039
0255720407004622023123120567+39928-074292FM-15+0025KMJX V0202805N00215013725MN0160935N5+00565-00285101625ADDGA1085+013725999GD14991+0137259GE19AGL   +99999+99999GF199999999999013721999999MA1101595101295MD1390009+9999REMMET10012/31/23 15:56:02 METAR KMJX 312056Z 28004KT 10SM OVC045 06/M03 A3000 RMK AO2 SLP162 T00561028 53000EQDQ010     3APC3  Q023     3APCTEN
0200720407004622023123121567+39928-074292FM-15+0025KMJX V0209999C00005014335MN0160935N5+00505-00285101665ADDGA1085+014335999GD14991+0143359GE19AGL   +99999+99999GF199999999999014331999999MA1101635101325REMMET09412/31/23 16:56:02 METAR KMJX 312156Z 00000KT 10SM OVC047 05/M03 A3001 RMK AO2 SLP166 T00501028
0200720407004622023123122567+39928-074292FM-15+0025KMJX V0209999C00005014945MN0160935N5+00335-00115101735ADDGA1085+014945999GD14991+0149459GE19AGL   +99999+99999GF199999999999014941999999MA1101695101395REMMET09412/31/23 17:56:02 METAR KMJX 312256Z 00000KT 10SM OVC049 03/M01 A3003 RMK AO2 SLP173 T00331011
0252720407004622023123123564+39933-074300FM-15+002599999V0209999C000010149419N016093199+00281-00061101741ADDGD13991+0149419GD23991+0335319GE19AGL   +99999+99999GF199999999999014941999999KA1060M+00611KA2060N+00221MA1101691999999MD1110121+9999REMMET107METAR KMJX 312356Z AUTO 00000KT 10SM BKN049 BKN110 03/M01 A3003 RMK AO2 SLP174 T00281006 10061 20022 51012=
